City,Country Code,Latitude,Longitude,URL,Name
bismil,TR,38.22066400773278,40.58982830559836,http://api.openweathermap.org/data/2.5/weather?appid=fe26e61e3773caebdade519f9d254704&units=imperial&q=bismil,Turkey
kurtalan,TR,37.82910701829134,41.667276853989875,http://api.openweathermap.org/data/2.5/weather?appid=fe26e61e3773caebdade519f9d254704&units=imperial&q=kurtalan,Turkey
sinop,TR,42.67141452613885,35.104038848738384,http://api.openweathermap.org/data/2.5/weather?appid=fe26e61e3773caebdade519f9d254704&units=imperial&q=sinop,Turkey
akdagmadeni,TR,39.23635073082369,36.32049117054069,http://api.openweathermap.org/data/2.5/weather?appid=fe26e61e3773caebdade519f9d254704&units=imperial&q=akdagmadeni,Turkey
solhan,TR,39.141940832623305,41.23966481594587,http://api.openweathermap.org/data/2.5/weather?appid=fe26e61e3773caebdade519f9d254704&units=imperial&q=solhan,Turkey
ancud,CL,-40.31226592974155,-87.42422014902776,http://api.openweathermap.org/data/2.5/weather?appid=fe26e61e3773caebdade519f9d254704&units=imperial&q=ancud,Chile
punta arenas,CL,-57.139925591061925,-75.56853041886313,http://api.openweathermap.org/data/2.5/weather?appid=fe26e61e3773caebdade519f9d254704&units=imperial&q=punta arenas,Chile
lebu,CL,-34.16720188240437,-81.99687225059391,http://api.openweathermap.org/data/2.5/weather?appid=fe26e61e3773caebdade519f9d254704&units=imperial&q=lebu,Chile
castro,CL,-48.93010957838861,-106.5813361608824,http://api.openweathermap.org/data/2.5/weather?appid=fe26e61e3773caebdade519f9d254704&units=imperial&q=castro,Chile
talcahuano,CL,-32.08852151381236,-80.80930061372537,http://api.openweathermap.org/data/2.5/weather?appid=fe26e61e3773caebdade519f9d254704&units=imperial&q=talcahuano,Chile
taltal,CL,-25.22358264441189,-78.79525539987351,http://api.openweathermap.org/data/2.5/weather?appid=fe26e61e3773caebdade519f9d254704&units=imperial&q=taltal,Chile
coquimbo,CL,-27.986261236797866,-80.45903548136701,http://api.openweathermap.org/data/2.5/weather?appid=fe26e61e3773caebdade519f9d254704&units=imperial&q=coquimbo,Chile
copiapo,CL,-27.093801350321414,-71.73032306702783,http://api.openweathermap.org/data/2.5/weather?appid=fe26e61e3773caebdade519f9d254704&units=imperial&q=copiapo,Chile
dikson,RU,88.98810809758723,74.0844370679309,http://api.openweathermap.org/data/2.5/weather?appid=fe26e61e3773caebdade519f9d254704&units=imperial&q=dikson,Russian Federation
sentyabrskiy,RU,29.75435703396296,163.1368388645904,http://api.openweathermap.org/data/2.5/weather?appid=fe26e61e3773caebdade519f9d254704&units=imperial&q=sentyabrskiy,Russian Federation
cherskiy,RU,65.66219610512331,159.8031189565334,http://api.openweathermap.org/data/2.5/weather?appid=fe26e61e3773caebdade519f9d254704&units=imperial&q=cherskiy,Russian Federation
belushya guba,RU,83.52800433038627,57.154771381332466,http://api.openweathermap.org/data/2.5/weather?appid=fe26e61e3773caebdade519f9d254704&units=imperial&q=belushya guba,Russian Federation
mys shmidta,RU,79.82289372313761,-177.01825792332542,http://api.openweathermap.org/data/2.5/weather?appid=fe26e61e3773caebdade519f9d254704&units=imperial&q=mys shmidta,Russian Federation
ossora,RU,59.57774509198563,161.68471773352502,http://api.openweathermap.org/data/2.5/weather?appid=fe26e61e3773caebdade519f9d254704&units=imperial&q=ossora,Russian Federation
talnakh,RU,70.92596075210778,91.0721777651915,http://api.openweathermap.org/data/2.5/weather?appid=fe26e61e3773caebdade519f9d254704&units=imperial&q=talnakh,Russian Federation
aksarka,RU,71.93858192632055,68.23591947322626,http://api.openweathermap.org/data/2.5/weather?appid=fe26e61e3773caebdade519f9d254704&units=imperial&q=aksarka,Russian Federation
khandyga,RU,65.48291061650798,138.40848419631033,http://api.openweathermap.org/data/2.5/weather?appid=fe26e61e3773caebdade519f9d254704&units=imperial&q=khandyga,Russian Federation
nikolskoye,RU,55.02770163191158,173.3197981683598,http://api.openweathermap.org/data/2.5/weather?appid=fe26e61e3773caebdade519f9d254704&units=imperial&q=nikolskoye,Russian Federation
sindor,RU,62.95543816667691,52.01744994081025,http://api.openweathermap.org/data/2.5/weather?appid=fe26e61e3773caebdade519f9d254704&units=imperial&q=sindor,Russian Federation
pinega,RU,65.20562396733598,42.68297091472189,http://api.openweathermap.org/data/2.5/weather?appid=fe26e61e3773caebdade519f9d254704&units=imperial&q=pinega,Russian Federation
dukat,RU,64.96241636581675,155.50888564505772,http://api.openweathermap.org/data/2.5/weather?appid=fe26e61e3773caebdade519f9d254704&units=imperial&q=dukat,Russian Federation
krasnoselkup,RU,66.24323856875677,83.82874371123035,http://api.openweathermap.org/data/2.5/weather?appid=fe26e61e3773caebdade519f9d254704&units=imperial&q=krasnoselkup,Russian Federation
ust-kulom,RU,62.39680225561196,53.522506277716275,http://api.openweathermap.org/data/2.5/weather?appid=fe26e61e3773caebdade519f9d254704&units=imperial&q=ust-kulom,Russian Federation
tiksi,RU,86.03158666084374,123.66859707845128,http://api.openweathermap.org/data/2.5/weather?appid=fe26e61e3773caebdade519f9d254704&units=imperial&q=tiksi,Russian Federation
lokosovo,RU,60.06752918424968,75.09792962589819,http://api.openweathermap.org/data/2.5/weather?appid=fe26e61e3773caebdade519f9d254704&units=imperial&q=lokosovo,Russian Federation
batagay-alyta,RU,65.83256169308038,129.49307579814365,http://api.openweathermap.org/data/2.5/weather?appid=fe26e61e3773caebdade519f9d254704&units=imperial&q=batagay-alyta,Russian Federation
nizhneyansk,RU,78.59427392348354,139.81462716917855,http://api.openweathermap.org/data/2.5/weather?appid=fe26e61e3773caebdade519f9d254704&units=imperial&q=nizhneyansk,Russian Federation
saskylakh,RU,78.07664405305084,115.08822876492275,http://api.openweathermap.org/data/2.5/weather?appid=fe26e61e3773caebdade519f9d254704&units=imperial&q=saskylakh,Russian Federation
khatanga,RU,73.81673394137715,105.98654412595067,http://api.openweathermap.org/data/2.5/weather?appid=fe26e61e3773caebdade519f9d254704&units=imperial&q=khatanga,Russian Federation
komsomolskiy,RU,72.516169845543,174.9907359095244,http://api.openweathermap.org/data/2.5/weather?appid=fe26e61e3773caebdade519f9d254704&units=imperial&q=komsomolskiy,Russian Federation
provideniya,RU,53.724051661010066,-174.88980034332187,http://api.openweathermap.org/data/2.5/weather?appid=fe26e61e3773caebdade519f9d254704&units=imperial&q=provideniya,Russian Federation
zhigansk,RU,67.97871240981473,126.77913281407768,http://api.openweathermap.org/data/2.5/weather?appid=fe26e61e3773caebdade519f9d254704&units=imperial&q=zhigansk,Russian Federation
bichura,RU,50.84992774758757,107.10593180636693,http://api.openweathermap.org/data/2.5/weather?appid=fe26e61e3773caebdade519f9d254704&units=imperial&q=bichura,Russian Federation
kurumkan,RU,54.63696381865935,110.67185068130573,http://api.openweathermap.org/data/2.5/weather?appid=fe26e61e3773caebdade519f9d254704&units=imperial&q=kurumkan,Russian Federation
pevek,RU,83.6650441409358,170.24701198383246,http://api.openweathermap.org/data/2.5/weather?appid=fe26e61e3773caebdade519f9d254704&units=imperial&q=pevek,Russian Federation
amderma,RU,71.1030510168151,57.56332094068259,http://api.openweathermap.org/data/2.5/weather?appid=fe26e61e3773caebdade519f9d254704&units=imperial&q=amderma,Russian Federation
yerbogachen,RU,62.36879846399944,108.28065197022204,http://api.openweathermap.org/data/2.5/weather?appid=fe26e61e3773caebdade519f9d254704&units=imperial&q=yerbogachen,Russian Federation
alakurtti,RU,66.6067590913749,29.665593353346026,http://api.openweathermap.org/data/2.5/weather?appid=fe26e61e3773caebdade519f9d254704&units=imperial&q=alakurtti,Russian Federation
gorno-chuyskiy,RU,58.87297427974633,110.18009944000636,http://api.openweathermap.org/data/2.5/weather?appid=fe26e61e3773caebdade519f9d254704&units=imperial&q=gorno-chuyskiy,Russian Federation
deputatskiy,RU,69.8890089218894,139.49686485524654,http://api.openweathermap.org/data/2.5/weather?appid=fe26e61e3773caebdade519f9d254704&units=imperial&q=deputatskiy,Russian Federation
panino,RU,51.59070552455597,40.23976598359954,http://api.openweathermap.org/data/2.5/weather?appid=fe26e61e3773caebdade519f9d254704&units=imperial&q=panino,Russian Federation
severo-kurilsk,RU,38.35391410963402,161.03531909135114,http://api.openweathermap.org/data/2.5/weather?appid=fe26e61e3773caebdade519f9d254704&units=imperial&q=severo-kurilsk,Russian Federation
lavrentiya,RU,61.54715318994869,-169.11099974087048,http://api.openweathermap.org/data/2.5/weather?appid=fe26e61e3773caebdade519f9d254704&units=imperial&q=lavrentiya,Russian Federation
vostok,RU,47.59714591057778,152.88408553935932,http://api.openweathermap.org/data/2.5/weather?appid=fe26e61e3773caebdade519f9d254704&units=imperial&q=vostok,Russian Federation
novopavlovka,RU,50.521296781540855,109.74870720224038,http://api.openweathermap.org/data/2.5/weather?appid=fe26e61e3773caebdade519f9d254704&units=imperial&q=novopavlovka,Russian Federation
yar-sale,RU,68.74841612071671,72.87853033895652,http://api.openweathermap.org/data/2.5/weather?appid=fe26e61e3773caebdade519f9d254704&units=imperial&q=yar-sale,Russian Federation
chara,RU,58.96719286807911,119.33602388891364,http://api.openweathermap.org/data/2.5/weather?appid=fe26e61e3773caebdade519f9d254704&units=imperial&q=chara,Russian Federation
svetogorsk,RU,61.156931954506774,28.902219484923222,http://api.openweathermap.org/data/2.5/weather?appid=fe26e61e3773caebdade519f9d254704&units=imperial&q=svetogorsk,Russian Federation
kosh-agach,RU,50.304040974837875,89.17828428012882,http://api.openweathermap.org/data/2.5/weather?appid=fe26e61e3773caebdade519f9d254704&units=imperial&q=kosh-agach,Russian Federation
kargasok,RU,60.94238100028096,81.93011510518198,http://api.openweathermap.org/data/2.5/weather?appid=fe26e61e3773caebdade519f9d254704&units=imperial&q=kargasok,Russian Federation
chagda,RU,57.58534554773186,130.7894468260257,http://api.openweathermap.org/data/2.5/weather?appid=fe26e61e3773caebdade519f9d254704&units=imperial&q=chagda,Russian Federation
ust-tsilma,RU,64.83185717253482,50.545020226284436,http://api.openweathermap.org/data/2.5/weather?appid=fe26e61e3773caebdade519f9d254704&units=imperial&q=ust-tsilma,Russian Federation
tilichiki,RU,57.95651866821865,172.58783957479739,http://api.openweathermap.org/data/2.5/weather?appid=fe26e61e3773caebdade519f9d254704&units=imperial&q=tilichiki,Russian Federation
chokurdakh,RU,81.44871636452731,147.23098963004583,http://api.openweathermap.org/data/2.5/weather?appid=fe26e61e3773caebdade519f9d254704&units=imperial&q=chokurdakh,Russian Federation
belaya gora,RU,69.74212823718727,145.1279036057623,http://api.openweathermap.org/data/2.5/weather?appid=fe26e61e3773caebdade519f9d254704&units=imperial&q=belaya gora,Russian Federation
beringovskiy,RU,55.34931742866789,176.62851782744667,http://api.openweathermap.org/data/2.5/weather?appid=fe26e61e3773caebdade519f9d254704&units=imperial&q=beringovskiy,Russian Federation
ust-nera,RU,64.0968248989272,141.12681397479793,http://api.openweathermap.org/data/2.5/weather?appid=fe26e61e3773caebdade519f9d254704&units=imperial&q=ust-nera,Russian Federation
okhotsk,RU,58.99538006260016,145.5606296185964,http://api.openweathermap.org/data/2.5/weather?appid=fe26e61e3773caebdade519f9d254704&units=imperial&q=okhotsk,Russian Federation
dudinka,RU,70.91763015750573,86.690055213584,http://api.openweathermap.org/data/2.5/weather?appid=fe26e61e3773caebdade519f9d254704&units=imperial&q=dudinka,Russian Federation
lokomotivnyy,RU,52.94624547060485,60.33137983725166,http://api.openweathermap.org/data/2.5/weather?appid=fe26e61e3773caebdade519f9d254704&units=imperial&q=lokomotivnyy,Russian Federation
rudnogorsk,RU,58.308558745162514,104.50032854066478,http://api.openweathermap.org/data/2.5/weather?appid=fe26e61e3773caebdade519f9d254704&units=imperial&q=rudnogorsk,Russian Federation
vyartsilya,RU,62.500239431975075,31.33758531686874,http://api.openweathermap.org/data/2.5/weather?appid=fe26e61e3773caebdade519f9d254704&units=imperial&q=vyartsilya,Russian Federation
naryan-mar,RU,67.72134051925076,52.77847681894548,http://api.openweathermap.org/data/2.5/weather?appid=fe26e61e3773caebdade519f9d254704&units=imperial&q=naryan-mar,Russian Federation
suntar,RU,60.20472528798061,118.85264119933305,http://api.openweathermap.org/data/2.5/weather?appid=fe26e61e3773caebdade519f9d254704&units=imperial&q=suntar,Russian Federation
muzhi,RU,65.27015965789298,65.47145887110904,http://api.openweathermap.org/data/2.5/weather?appid=fe26e61e3773caebdade519f9d254704&units=imperial&q=muzhi,Russian Federation
tura,RU,64.39548301630128,103.21284359150013,http://api.openweathermap.org/data/2.5/weather?appid=fe26e61e3773caebdade519f9d254704&units=imperial&q=tura,Russian Federation
nyurba,RU,64.41324864642954,116.73114051191402,http://api.openweathermap.org/data/2.5/weather?appid=fe26e61e3773caebdade519f9d254704&units=imperial&q=nyurba,Russian Federation
mogochin,RU,57.595116849813564,83.19164091122599,http://api.openweathermap.org/data/2.5/weather?appid=fe26e61e3773caebdade519f9d254704&units=imperial&q=mogochin,Russian Federation
kropotkin,RU,59.26204691863114,114.5327658581237,http://api.openweathermap.org/data/2.5/weather?appid=fe26e61e3773caebdade519f9d254704&units=imperial&q=kropotkin,Russian Federation
ust-kamchatsk,RU,57.46401050888491,161.7349273291846,http://api.openweathermap.org/data/2.5/weather?appid=fe26e61e3773caebdade519f9d254704&units=imperial&q=ust-kamchatsk,Russian Federation
chudovo,RU,59.30055622477022,31.549603034588642,http://api.openweathermap.org/data/2.5/weather?appid=fe26e61e3773caebdade519f9d254704&units=imperial&q=chudovo,Russian Federation
kortkeros,RU,61.97082724211205,52.490465011433145,http://api.openweathermap.org/data/2.5/weather?appid=fe26e61e3773caebdade519f9d254704&units=imperial&q=kortkeros,Russian Federation
batagay,RU,67.90988610017095,135.52405442766621,http://api.openweathermap.org/data/2.5/weather?appid=fe26e61e3773caebdade519f9d254704&units=imperial&q=batagay,Russian Federation
kargopol,RU,62.09498667740661,37.9988378684518,http://api.openweathermap.org/data/2.5/weather?appid=fe26e61e3773caebdade519f9d254704&units=imperial&q=kargopol,Russian Federation
ust-uda,RU,54.1225210285607,103.03953523355392,http://api.openweathermap.org/data/2.5/weather?appid=fe26e61e3773caebdade519f9d254704&units=imperial&q=ust-uda,Russian Federation
talaya,RU,61.203556769112055,153.7587381572726,http://api.openweathermap.org/data/2.5/weather?appid=fe26e61e3773caebdade519f9d254704&units=imperial&q=talaya,Russian Federation
ust-omchug,RU,61.31545998710183,149.06919538623663,http://api.openweathermap.org/data/2.5/weather?appid=fe26e61e3773caebdade519f9d254704&units=imperial&q=ust-omchug,Russian Federation
volosovo,RU,59.036826305764606,29.26652566682492,http://api.openweathermap.org/data/2.5/weather?appid=fe26e61e3773caebdade519f9d254704&units=imperial&q=volosovo,Russian Federation
romanovka,RU,51.97449127148974,42.93734148936366,http://api.openweathermap.org/data/2.5/weather?appid=fe26e61e3773caebdade519f9d254704&units=imperial&q=romanovka,Russian Federation
troitsko-pechorsk,RU,61.98858238411651,56.70637355093049,http://api.openweathermap.org/data/2.5/weather?appid=fe26e61e3773caebdade519f9d254704&units=imperial&q=troitsko-pechorsk,Russian Federation
plotnikovo,RU,54.811243006946626,85.92879784762948,http://api.openweathermap.org/data/2.5/weather?appid=fe26e61e3773caebdade519f9d254704&units=imperial&q=plotnikovo,Russian Federation
arraial do cabo,BR,-32.97208214579686,-35.56736991282261,http://api.openweathermap.org/data/2.5/weather?appid=fe26e61e3773caebdade519f9d254704&units=imperial&q=arraial do cabo,Brazil
maragogi,BR,-12.837129616298554,-30.830288387125307,http://api.openweathermap.org/data/2.5/weather?appid=fe26e61e3773caebdade519f9d254704&units=imperial&q=maragogi,Brazil
olinda,BR,-11.26726060984332,-24.826890783401296,http://api.openweathermap.org/data/2.5/weather?appid=fe26e61e3773caebdade519f9d254704&units=imperial&q=olinda,Brazil
porto walter,BR,-8.80279633315628,-71.93313062886935,http://api.openweathermap.org/data/2.5/weather?appid=fe26e61e3773caebdade519f9d254704&units=imperial&q=porto walter,Brazil
maceio,BR,-13.012214098806353,-31.479569148030322,http://api.openweathermap.org/data/2.5/weather?appid=fe26e61e3773caebdade519f9d254704&units=imperial&q=maceio,Brazil
belmonte,BR,-15.633162747581721,-34.90223517326572,http://api.openweathermap.org/data/2.5/weather?appid=fe26e61e3773caebdade519f9d254704&units=imperial&q=belmonte,Brazil
salinopolis,BR,4.694064780434388,-45.21013405596909,http://api.openweathermap.org/data/2.5/weather?appid=fe26e61e3773caebdade519f9d254704&units=imperial&q=salinopolis,Brazil
vila velha,BR,-29.133509781696326,-22.386098738977836,http://api.openweathermap.org/data/2.5/weather?appid=fe26e61e3773caebdade519f9d254704&units=imperial&q=vila velha,Brazil
touros,BR,-0.01646662223240014,-25.509552528607003,http://api.openweathermap.org/data/2.5/weather?appid=fe26e61e3773caebdade519f9d254704&units=imperial&q=touros,Brazil
cidreira,BR,-41.13541346776688,-38.19312163339697,http://api.openweathermap.org/data/2.5/weather?appid=fe26e61e3773caebdade519f9d254704&units=imperial&q=cidreira,Brazil
sao felix do xingu,BR,-7.054772869749783,-54.401591138901864,http://api.openweathermap.org/data/2.5/weather?appid=fe26e61e3773caebdade519f9d254704&units=imperial&q=sao felix do xingu,Brazil
morros,BR,-9.779134535743808,-45.94108450302613,http://api.openweathermap.org/data/2.5/weather?appid=fe26e61e3773caebdade519f9d254704&units=imperial&q=morros,Brazil
acarau,BR,9.244913460433068,-38.89265493550076,http://api.openweathermap.org/data/2.5/weather?appid=fe26e61e3773caebdade519f9d254704&units=imperial&q=acarau,Brazil
itarema,BR,9.93901665517798,-37.440994194153205,http://api.openweathermap.org/data/2.5/weather?appid=fe26e61e3773caebdade519f9d254704&units=imperial&q=itarema,Brazil
laguna,BR,-32.1465127438046,-41.72631624414353,http://api.openweathermap.org/data/2.5/weather?appid=fe26e61e3773caebdade519f9d254704&units=imperial&q=laguna,Brazil
ariquemes,BR,-9.012442052087906,-62.53192540261895,http://api.openweathermap.org/data/2.5/weather?appid=fe26e61e3773caebdade519f9d254704&units=imperial&q=ariquemes,Brazil
sao joao da barra,BR,-28.413644788492405,-32.25174032213832,http://api.openweathermap.org/data/2.5/weather?appid=fe26e61e3773caebdade519f9d254704&units=imperial&q=sao joao da barra,Brazil
diamantino,BR,-12.357300746736556,-55.84418467892493,http://api.openweathermap.org/data/2.5/weather?appid=fe26e61e3773caebdade519f9d254704&units=imperial&q=diamantino,Brazil
pimenta bueno,BR,-10.862721972698964,-59.90139392975236,http://api.openweathermap.org/data/2.5/weather?appid=fe26e61e3773caebdade519f9d254704&units=imperial&q=pimenta bueno,Brazil
ananas,BR,-6.4302513421863665,-47.904723728299246,http://api.openweathermap.org/data/2.5/weather?appid=fe26e61e3773caebdade519f9d254704&units=imperial&q=ananas,Brazil
businga,CD,3.4793403306534714,20.611722509080863,http://api.openweathermap.org/data/2.5/weather?appid=fe26e61e3773caebdade519f9d254704&units=imperial&q=businga,"Congo, the Democratic Republic of the"
kamina,CD,-9.503112834650764,23.794500196139325,http://api.openweathermap.org/data/2.5/weather?appid=fe26e61e3773caebdade519f9d254704&units=imperial&q=kamina,"Congo, the Democratic Republic of the"
kindu,CD,-2.477692892972172,26.420587781989866,http://api.openweathermap.org/data/2.5/weather?appid=fe26e61e3773caebdade519f9d254704&units=imperial&q=kindu,"Congo, the Democratic Republic of the"
inongo,CD,-1.7266860056401327,17.429323714005648,http://api.openweathermap.org/data/2.5/weather?appid=fe26e61e3773caebdade519f9d254704&units=imperial&q=inongo,"Congo, the Democratic Republic of the"
boende,CD,0.578318148863886,19.863374114459646,http://api.openweathermap.org/data/2.5/weather?appid=fe26e61e3773caebdade519f9d254704&units=imperial&q=boende,"Congo, the Democratic Republic of the"
kasongo,CD,-4.662344135966052,27.472033934314595,http://api.openweathermap.org/data/2.5/weather?appid=fe26e61e3773caebdade519f9d254704&units=imperial&q=kasongo,"Congo, the Democratic Republic of the"
rikitea,PF,-46.46133980618717,-133.67692637244443,http://api.openweathermap.org/data/2.5/weather?appid=fe26e61e3773caebdade519f9d254704&units=imperial&q=rikitea,French Polynesia
mataura,PF,-39.35516244440138,-151.07398007574457,http://api.openweathermap.org/data/2.5/weather?appid=fe26e61e3773caebdade519f9d254704&units=imperial&q=mataura,French Polynesia
faanui,PF,-2.59454335016153,-158.70217362193114,http://api.openweathermap.org/data/2.5/weather?appid=fe26e61e3773caebdade519f9d254704&units=imperial&q=faanui,French Polynesia
atuona,PF,-6.655141479105808,-135.41000044027717,http://api.openweathermap.org/data/2.5/weather?appid=fe26e61e3773caebdade519f9d254704&units=imperial&q=atuona,French Polynesia
avera,PF,-34.666070040949265,-156.971599414315,http://api.openweathermap.org/data/2.5/weather?appid=fe26e61e3773caebdade519f9d254704&units=imperial&q=avera,French Polynesia
curup,ID,-3.301108942880319,102.20558081402936,http://api.openweathermap.org/data/2.5/weather?appid=fe26e61e3773caebdade519f9d254704&units=imperial&q=curup,Indonesia
makasar,ID,-4.586613526576471,119.09802672114546,http://api.openweathermap.org/data/2.5/weather?appid=fe26e61e3773caebdade519f9d254704&units=imperial&q=makasar,Indonesia
palembang,ID,-2.536372806973617,104.89241544291781,http://api.openweathermap.org/data/2.5/weather?appid=fe26e61e3773caebdade519f9d254704&units=imperial&q=palembang,Indonesia
sibolga,ID,-0.38312760291658776,96.40480339491137,http://api.openweathermap.org/data/2.5/weather?appid=fe26e61e3773caebdade519f9d254704&units=imperial&q=sibolga,Indonesia
mentok,ID,-1.3113715506106587,105.39161228394482,http://api.openweathermap.org/data/2.5/weather?appid=fe26e61e3773caebdade519f9d254704&units=imperial&q=mentok,Indonesia
labuhan,ID,-15.573210981974029,97.72439737916596,http://api.openweathermap.org/data/2.5/weather?appid=fe26e61e3773caebdade519f9d254704&units=imperial&q=labuhan,Indonesia
kawalu,ID,-12.11878384692288,107.45098828828588,http://api.openweathermap.org/data/2.5/weather?appid=fe26e61e3773caebdade519f9d254704&units=imperial&q=kawalu,Indonesia
bengkulu,ID,-13.09799952496465,96.22988418547061,http://api.openweathermap.org/data/2.5/weather?appid=fe26e61e3773caebdade519f9d254704&units=imperial&q=bengkulu,Indonesia
tomohon,ID,0.6465814019072269,124.41727795123609,http://api.openweathermap.org/data/2.5/weather?appid=fe26e61e3773caebdade519f9d254704&units=imperial&q=tomohon,Indonesia
palabuhanratu,ID,-18.378134544244134,101.47196128279916,http://api.openweathermap.org/data/2.5/weather?appid=fe26e61e3773caebdade519f9d254704&units=imperial&q=palabuhanratu,Indonesia
tual,ID,-7.314992027386552,130.58767478121115,http://api.openweathermap.org/data/2.5/weather?appid=fe26e61e3773caebdade519f9d254704&units=imperial&q=tual,Indonesia
atambua,ID,-10.392721871280912,127.45431595385315,http://api.openweathermap.org/data/2.5/weather?appid=fe26e61e3773caebdade519f9d254704&units=imperial&q=atambua,Indonesia
sumbawa,ID,-7.9094427801962865,117.0130705131296,http://api.openweathermap.org/data/2.5/weather?appid=fe26e61e3773caebdade519f9d254704&units=imperial&q=sumbawa,Indonesia
kabanjahe,ID,2.4588387397932507,97.637476597231,http://api.openweathermap.org/data/2.5/weather?appid=fe26e61e3773caebdade519f9d254704&units=imperial&q=kabanjahe,Indonesia
bambanglipuro,ID,-10.946402798694422,109.55810153386375,http://api.openweathermap.org/data/2.5/weather?appid=fe26e61e3773caebdade519f9d254704&units=imperial&q=bambanglipuro,Indonesia
ruteng,ID,-8.506377643492371,120.22776166396307,http://api.openweathermap.org/data/2.5/weather?appid=fe26e61e3773caebdade519f9d254704&units=imperial&q=ruteng,Indonesia
sabang,ID,7.029308856508436,92.94979285727158,http://api.openweathermap.org/data/2.5/weather?appid=fe26e61e3773caebdade519f9d254704&units=imperial&q=sabang,Indonesia
waingapu,ID,-12.14925887783636,118.16777164160499,http://api.openweathermap.org/data/2.5/weather?appid=fe26e61e3773caebdade519f9d254704&units=imperial&q=waingapu,Indonesia
channel-port aux basques,CA,48.736404696942685,-60.30178519719523,http://api.openweathermap.org/data/2.5/weather?appid=fe26e61e3773caebdade519f9d254704&units=imperial&q=channel-port aux basques,Canada
yellowknife,CA,63.00531179285849,-108.36604962719757,http://api.openweathermap.org/data/2.5/weather?appid=fe26e61e3773caebdade519f9d254704&units=imperial&q=yellowknife,Canada
thompson,CA,55.79182557963452,-98.72963698395374,http://api.openweathermap.org/data/2.5/weather?appid=fe26e61e3773caebdade519f9d254704&units=imperial&q=thompson,Canada
longlac,CA,50.93036805221965,-86.60056185488077,http://api.openweathermap.org/data/2.5/weather?appid=fe26e61e3773caebdade519f9d254704&units=imperial&q=longlac,Canada
baie-saint-paul,CA,47.666799432328816,-71.01021052077382,http://api.openweathermap.org/data/2.5/weather?appid=fe26e61e3773caebdade519f9d254704&units=imperial&q=baie-saint-paul,Canada
attawapiskat,CA,54.571576047309634,-81.35730434497047,http://api.openweathermap.org/data/2.5/weather?appid=fe26e61e3773caebdade519f9d254704&units=imperial&q=attawapiskat,Canada
mayo,CA,64.919247748559,-139.63846079537623,http://api.openweathermap.org/data/2.5/weather?appid=fe26e61e3773caebdade519f9d254704&units=imperial&q=mayo,Canada
clyde river,CA,72.24011361872581,-79.63025788020724,http://api.openweathermap.org/data/2.5/weather?appid=fe26e61e3773caebdade519f9d254704&units=imperial&q=clyde river,Canada
port-cartier,CA,55.47546151048422,-69.40529994952087,http://api.openweathermap.org/data/2.5/weather?appid=fe26e61e3773caebdade519f9d254704&units=imperial&q=port-cartier,Canada
tuktoyaktuk,CA,77.60995891386762,-131.63416625465914,http://api.openweathermap.org/data/2.5/weather?appid=fe26e61e3773caebdade519f9d254704&units=imperial&q=tuktoyaktuk,Canada
iqaluit,CA,65.78392399962041,-73.99823398955438,http://api.openweathermap.org/data/2.5/weather?appid=fe26e61e3773caebdade519f9d254704&units=imperial&q=iqaluit,Canada
caraquet,CA,47.17736446861275,-64.91811342381848,http://api.openweathermap.org/data/2.5/weather?appid=fe26e61e3773caebdade519f9d254704&units=imperial&q=caraquet,Canada
cranbrook,CA,49.77120365029347,-115.43212667080691,http://api.openweathermap.org/data/2.5/weather?appid=fe26e61e3773caebdade519f9d254704&units=imperial&q=cranbrook,Canada
torbay,CA,31.021705727915872,-45.474506229838994,http://api.openweathermap.org/data/2.5/weather?appid=fe26e61e3773caebdade519f9d254704&units=imperial&q=torbay,Canada
matagami,CA,53.158683401258656,-76.96779256252356,http://api.openweathermap.org/data/2.5/weather?appid=fe26e61e3773caebdade519f9d254704&units=imperial&q=matagami,Canada
corner brook,CA,50.01871872673195,-58.52053043568442,http://api.openweathermap.org/data/2.5/weather?appid=fe26e61e3773caebdade519f9d254704&units=imperial&q=corner brook,Canada
aklavik,CA,74.91134594419856,-140.41676161117545,http://api.openweathermap.org/data/2.5/weather?appid=fe26e61e3773caebdade519f9d254704&units=imperial&q=aklavik,Canada
saint-augustin,CA,52.176952147739456,-60.73093138416249,http://api.openweathermap.org/data/2.5/weather?appid=fe26e61e3773caebdade519f9d254704&units=imperial&q=saint-augustin,Canada
rocky mountain house,CA,52.41540339970305,-114.79793289515867,http://api.openweathermap.org/data/2.5/weather?appid=fe26e61e3773caebdade519f9d254704&units=imperial&q=rocky mountain house,Canada
norman wells,CA,65.63727829798194,-124.35632943706416,http://api.openweathermap.org/data/2.5/weather?appid=fe26e61e3773caebdade519f9d254704&units=imperial&q=norman wells,Canada
havre-saint-pierre,CA,55.61029968493136,-64.59376071966004,http://api.openweathermap.org/data/2.5/weather?appid=fe26e61e3773caebdade519f9d254704&units=imperial&q=havre-saint-pierre,Canada
pangnirtung,CA,61.920009855165745,-60.12543186368458,http://api.openweathermap.org/data/2.5/weather?appid=fe26e61e3773caebdade519f9d254704&units=imperial&q=pangnirtung,Canada
quesnel,CA,52.73277405451179,-121.97479107117364,http://api.openweathermap.org/data/2.5/weather?appid=fe26e61e3773caebdade519f9d254704&units=imperial&q=quesnel,Canada
digha,IN,21.302425183506685,87.56192736754008,http://api.openweathermap.org/data/2.5/weather?appid=fe26e61e3773caebdade519f9d254704&units=imperial&q=digha,India
narasannapeta,IN,18.12051814224803,84.40931696448115,http://api.openweathermap.org/data/2.5/weather?appid=fe26e61e3773caebdade519f9d254704&units=imperial&q=narasannapeta,India
leh,IN,34.426537133131006,78.57124349933633,http://api.openweathermap.org/data/2.5/weather?appid=fe26e61e3773caebdade519f9d254704&units=imperial&q=leh,India
veraval,IN,16.183742487428262,66.63313709650214,http://api.openweathermap.org/data/2.5/weather?appid=fe26e61e3773caebdade519f9d254704&units=imperial&q=veraval,India
dwarka,IN,21.581571101874843,68.54504661088416,http://api.openweathermap.org/data/2.5/weather?appid=fe26e61e3773caebdade519f9d254704&units=imperial&q=dwarka,India
along,IN,33.32099781254149,94.9265773070548,http://api.openweathermap.org/data/2.5/weather?appid=fe26e61e3773caebdade519f9d254704&units=imperial&q=along,India
pasighat,IN,32.39978368607619,96.23730326208391,http://api.openweathermap.org/data/2.5/weather?appid=fe26e61e3773caebdade519f9d254704&units=imperial&q=pasighat,India
toda raisingh,IN,26.162098341518103,75.5180995208367,http://api.openweathermap.org/data/2.5/weather?appid=fe26e61e3773caebdade519f9d254704&units=imperial&q=toda raisingh,India
kavaratti,IN,10.33431534258078,73.97464459932033,http://api.openweathermap.org/data/2.5/weather?appid=fe26e61e3773caebdade519f9d254704&units=imperial&q=kavaratti,India
ashta,IN,23.14206259334408,76.66139860148553,http://api.openweathermap.org/data/2.5/weather?appid=fe26e61e3773caebdade519f9d254704&units=imperial&q=ashta,India
jevargi,IN,17.053717192465058,76.78865767268178,http://api.openweathermap.org/data/2.5/weather?appid=fe26e61e3773caebdade519f9d254704&units=imperial&q=jevargi,India
port macquarie,AU,-31.702405829526434,155.66750665972387,http://api.openweathermap.org/data/2.5/weather?appid=fe26e61e3773caebdade519f9d254704&units=imperial&q=port macquarie,Australia
busselton,AU,-35.830046692378104,110.74643586660665,http://api.openweathermap.org/data/2.5/weather?appid=fe26e61e3773caebdade519f9d254704&units=imperial&q=busselton,Australia
esperance,AU,-37.965350981267086,121.37078477122867,http://api.openweathermap.org/data/2.5/weather?appid=fe26e61e3773caebdade519f9d254704&units=imperial&q=esperance,Australia
new norfolk,AU,-63.28167846792688,138.45375780458158,http://api.openweathermap.org/data/2.5/weather?appid=fe26e61e3773caebdade519f9d254704&units=imperial&q=new norfolk,Australia
albany,AU,-43.350523672047785,111.82067653696964,http://api.openweathermap.org/data/2.5/weather?appid=fe26e61e3773caebdade519f9d254704&units=imperial&q=albany,Australia
geraldton,AU,-29.861258272926527,109.4176508264112,http://api.openweathermap.org/data/2.5/weather?appid=fe26e61e3773caebdade519f9d254704&units=imperial&q=geraldton,Australia
mount gambier,AU,-54.237596588528284,129.64893313383277,http://api.openweathermap.org/data/2.5/weather?appid=fe26e61e3773caebdade519f9d254704&units=imperial&q=mount gambier,Australia
roma,AU,-25.599977280209202,149.73049159173416,http://api.openweathermap.org/data/2.5/weather?appid=fe26e61e3773caebdade519f9d254704&units=imperial&q=roma,Australia
port hedland,AU,-15.60901549871187,117.86917300317214,http://api.openweathermap.org/data/2.5/weather?appid=fe26e61e3773caebdade519f9d254704&units=imperial&q=port hedland,Australia
hobart,AU,-75.67263710205916,142.92239984910634,http://api.openweathermap.org/data/2.5/weather?appid=fe26e61e3773caebdade519f9d254704&units=imperial&q=hobart,Australia
cairns,AU,-14.000850804879605,147.14786303153278,http://api.openweathermap.org/data/2.5/weather?appid=fe26e61e3773caebdade519f9d254704&units=imperial&q=cairns,Australia
portland,AU,-42.89816230358135,139.851807353148,http://api.openweathermap.org/data/2.5/weather?appid=fe26e61e3773caebdade519f9d254704&units=imperial&q=portland,Australia
port lincoln,AU,-35.46270952651547,134.52700165082632,http://api.openweathermap.org/data/2.5/weather?appid=fe26e61e3773caebdade519f9d254704&units=imperial&q=port lincoln,Australia
alice springs,AU,-21.461951638375496,133.00382558342483,http://api.openweathermap.org/data/2.5/weather?appid=fe26e61e3773caebdade519f9d254704&units=imperial&q=alice springs,Australia
mildura,AU,-33.32256353724766,144.03702135409003,http://api.openweathermap.org/data/2.5/weather?appid=fe26e61e3773caebdade519f9d254704&units=imperial&q=mildura,Australia
broome,AU,-15.284747679330295,121.56491435245226,http://api.openweathermap.org/data/2.5/weather?appid=fe26e61e3773caebdade519f9d254704&units=imperial&q=broome,Australia
howard springs,AU,-12.956213349828232,131.88458663688436,http://api.openweathermap.org/data/2.5/weather?appid=fe26e61e3773caebdade519f9d254704&units=imperial&q=howard springs,Australia
broken hill,AU,-26.36815165864043,141.2238598175569,http://api.openweathermap.org/data/2.5/weather?appid=fe26e61e3773caebdade519f9d254704&units=imperial&q=broken hill,Australia
port augusta,AU,-30.180344954995263,136.77342094284575,http://api.openweathermap.org/data/2.5/weather?appid=fe26e61e3773caebdade519f9d254704&units=imperial&q=port augusta,Australia
carnarvon,AU,-28.091530305672272,96.35534643697201,http://api.openweathermap.org/data/2.5/weather?appid=fe26e61e3773caebdade519f9d254704&units=imperial&q=carnarvon,Australia
flinders,AU,-30.209605630431987,134.37461643096356,http://api.openweathermap.org/data/2.5/weather?appid=fe26e61e3773caebdade519f9d254704&units=imperial&q=flinders,Australia
palmerston,AU,-12.334271553893359,130.77249945156763,http://api.openweathermap.org/data/2.5/weather?appid=fe26e61e3773caebdade519f9d254704&units=imperial&q=palmerston,Australia
victor harbor,AU,-37.59956675402299,137.95209636780538,http://api.openweathermap.org/data/2.5/weather?appid=fe26e61e3773caebdade519f9d254704&units=imperial&q=victor harbor,Australia
yulara,AU,-25.03822723780391,130.92485039952965,http://api.openweathermap.org/data/2.5/weather?appid=fe26e61e3773caebdade519f9d254704&units=imperial&q=yulara,Australia
ballina,AU,-31.1608194097184,161.2743982705996,http://api.openweathermap.org/data/2.5/weather?appid=fe26e61e3773caebdade519f9d254704&units=imperial&q=ballina,Australia
kununurra,AU,-16.039816297868143,125.36864288554654,http://api.openweathermap.org/data/2.5/weather?appid=fe26e61e3773caebdade519f9d254704&units=imperial&q=kununurra,Australia
moree,AU,-28.734978278413607,148.32519976598365,http://api.openweathermap.org/data/2.5/weather?appid=fe26e61e3773caebdade519f9d254704&units=imperial&q=moree,Australia
emerald,AU,-25.96471380080399,143.7830935066217,http://api.openweathermap.org/data/2.5/weather?appid=fe26e61e3773caebdade519f9d254704&units=imperial&q=emerald,Australia
saryshagan,KZ,46.017552290769316,70.93317253522378,http://api.openweathermap.org/data/2.5/weather?appid=fe26e61e3773caebdade519f9d254704&units=imperial&q=saryshagan,Kazakhstan
dzhusaly,KZ,46.877924762658324,64.21061888351707,http://api.openweathermap.org/data/2.5/weather?appid=fe26e61e3773caebdade519f9d254704&units=imperial&q=dzhusaly,Kazakhstan
derzhavinsk,KZ,51.07141520052602,66.5171710344768,http://api.openweathermap.org/data/2.5/weather?appid=fe26e61e3773caebdade519f9d254704&units=imperial&q=derzhavinsk,Kazakhstan
shubarkuduk,KZ,47.80316675413172,55.66080770411244,http://api.openweathermap.org/data/2.5/weather?appid=fe26e61e3773caebdade519f9d254704&units=imperial&q=shubarkuduk,Kazakhstan
alekseyevka,KZ,51.55519056761028,69.83232938417203,http://api.openweathermap.org/data/2.5/weather?appid=fe26e61e3773caebdade519f9d254704&units=imperial&q=alekseyevka,Kazakhstan
georgiyevka,KZ,42.49098798946261,74.10826994069501,http://api.openweathermap.org/data/2.5/weather?appid=fe26e61e3773caebdade519f9d254704&units=imperial&q=georgiyevka,Kazakhstan
chingirlau,KZ,51.08431368823503,54.288491112767815,http://api.openweathermap.org/data/2.5/weather?appid=fe26e61e3773caebdade519f9d254704&units=imperial&q=chingirlau,Kazakhstan
zhezkazgan,KZ,48.6667400254652,68.76578657435701,http://api.openweathermap.org/data/2.5/weather?appid=fe26e61e3773caebdade519f9d254704&units=imperial&q=zhezkazgan,Kazakhstan
balkhash,KZ,47.3278423622275,76.96297169702183,http://api.openweathermap.org/data/2.5/weather?appid=fe26e61e3773caebdade519f9d254704&units=imperial&q=balkhash,Kazakhstan
mikhaylovka,KZ,44.37593691153077,72.22624623470844,http://api.openweathermap.org/data/2.5/weather?appid=fe26e61e3773caebdade519f9d254704&units=imperial&q=mikhaylovka,Kazakhstan
auki,SB,-2.274178555313526,164.71807157354084,http://api.openweathermap.org/data/2.5/weather?appid=fe26e61e3773caebdade519f9d254704&units=imperial&q=auki,Solomon Islands
lata,SB,-7.443244089028113,165.52006740337617,http://api.openweathermap.org/data/2.5/weather?appid=fe26e61e3773caebdade519f9d254704&units=imperial&q=lata,Solomon Islands
kirakira,SB,-12.734125342333584,161.9533733285316,http://api.openweathermap.org/data/2.5/weather?appid=fe26e61e3773caebdade519f9d254704&units=imperial&q=kirakira,Solomon Islands
buala,SB,-5.187428546686888,160.49587848889752,http://api.openweathermap.org/data/2.5/weather?appid=fe26e61e3773caebdade519f9d254704&units=imperial&q=buala,Solomon Islands
gizo,SB,-9.3278880554532,156.7752229423748,http://api.openweathermap.org/data/2.5/weather?appid=fe26e61e3773caebdade519f9d254704&units=imperial&q=gizo,Solomon Islands
cabo san lucas,MX,9.496340723469302,-116.74142327640698,http://api.openweathermap.org/data/2.5/weather?appid=fe26e61e3773caebdade519f9d254704&units=imperial&q=cabo san lucas,Mexico
tecoanapa,MX,11.714308564065902,-100.12345627423528,http://api.openweathermap.org/data/2.5/weather?appid=fe26e61e3773caebdade519f9d254704&units=imperial&q=tecoanapa,Mexico
san quintin,MX,26.259800605971577,-120.76249688327006,http://api.openweathermap.org/data/2.5/weather?appid=fe26e61e3773caebdade519f9d254704&units=imperial&q=san quintin,Mexico
san patricio,MX,10.09839377288121,-114.07745413593028,http://api.openweathermap.org/data/2.5/weather?appid=fe26e61e3773caebdade519f9d254704&units=imperial&q=san patricio,Mexico
ixtapa,MX,6.033176521364098,-107.48286930051292,http://api.openweathermap.org/data/2.5/weather?appid=fe26e61e3773caebdade519f9d254704&units=imperial&q=ixtapa,Mexico
santa rosalia,MX,27.026020944088998,-112.87021806972051,http://api.openweathermap.org/data/2.5/weather?appid=fe26e61e3773caebdade519f9d254704&units=imperial&q=santa rosalia,Mexico
san marcos,MX,20.875240814870793,-104.19133564837193,http://api.openweathermap.org/data/2.5/weather?appid=fe26e61e3773caebdade519f9d254704&units=imperial&q=san marcos,Mexico
allende,MX,18.51469143989557,-94.39086538616519,http://api.openweathermap.org/data/2.5/weather?appid=fe26e61e3773caebdade519f9d254704&units=imperial&q=allende,Mexico
maneadero,MX,30.561223954895283,-118.30893201241828,http://api.openweathermap.org/data/2.5/weather?appid=fe26e61e3773caebdade519f9d254704&units=imperial&q=maneadero,Mexico
todos santos,MX,23.15006997063115,-111.59372028785597,http://api.openweathermap.org/data/2.5/weather?appid=fe26e61e3773caebdade519f9d254704&units=imperial&q=todos santos,Mexico
guerrero negro,MX,23.013784371865725,-120.2131876888775,http://api.openweathermap.org/data/2.5/weather?appid=fe26e61e3773caebdade519f9d254704&units=imperial&q=guerrero negro,Mexico
kantunilkin,MX,21.69561730688369,-87.30485279230122,http://api.openweathermap.org/data/2.5/weather?appid=fe26e61e3773caebdade519f9d254704&units=imperial&q=kantunilkin,Mexico
acapulco,MX,9.800713709524487,-103.4424813899392,http://api.openweathermap.org/data/2.5/weather?appid=fe26e61e3773caebdade519f9d254704&units=imperial&q=acapulco,Mexico
fortuna,US,38.13501067233946,-138.27644328321702,http://api.openweathermap.org/data/2.5/weather?appid=fe26e61e3773caebdade519f9d254704&units=imperial&q=fortuna,United States
elk city,US,35.84139505882243,-99.33996151718854,http://api.openweathermap.org/data/2.5/weather?appid=fe26e61e3773caebdade519f9d254704&units=imperial&q=elk city,United States
battle creek,US,42.31547915623773,-85.02701971676653,http://api.openweathermap.org/data/2.5/weather?appid=fe26e61e3773caebdade519f9d254704&units=imperial&q=battle creek,United States
kapaa,US,36.150612733992716,-168.7478961105453,http://api.openweathermap.org/data/2.5/weather?appid=fe26e61e3773caebdade519f9d254704&units=imperial&q=kapaa,United States
eureka,US,41.86882132665366,-129.20699668908287,http://api.openweathermap.org/data/2.5/weather?appid=fe26e61e3773caebdade519f9d254704&units=imperial&q=eureka,United States
kahului,US,30.293799038770402,-152.3447822813145,http://api.openweathermap.org/data/2.5/weather?appid=fe26e61e3773caebdade519f9d254704&units=imperial&q=kahului,United States
kailua,US,28.026958837232826,-154.81917386672689,http://api.openweathermap.org/data/2.5/weather?appid=fe26e61e3773caebdade519f9d254704&units=imperial&q=kailua,United States
hilo,US,12.010287054049854,-145.69539767475436,http://api.openweathermap.org/data/2.5/weather?appid=fe26e61e3773caebdade519f9d254704&units=imperial&q=hilo,United States
sitka,US,49.74541789945812,-143.75490376512514,http://api.openweathermap.org/data/2.5/weather?appid=fe26e61e3773caebdade519f9d254704&units=imperial&q=sitka,United States
moorhead,US,47.53168466087075,-96.37385429132067,http://api.openweathermap.org/data/2.5/weather?appid=fe26e61e3773caebdade519f9d254704&units=imperial&q=moorhead,United States
barrow,US,86.33696481096592,-156.64478947611536,http://api.openweathermap.org/data/2.5/weather?appid=fe26e61e3773caebdade519f9d254704&units=imperial&q=barrow,United States
clinton,US,35.83055131274166,-99.2453821942764,http://api.openweathermap.org/data/2.5/weather?appid=fe26e61e3773caebdade519f9d254704&units=imperial&q=clinton,United States
kodiak,US,49.92687647252882,-158.11134339376483,http://api.openweathermap.org/data/2.5/weather?appid=fe26e61e3773caebdade519f9d254704&units=imperial&q=kodiak,United States
kingman,US,34.83572075025813,-113.96333111438607,http://api.openweathermap.org/data/2.5/weather?appid=fe26e61e3773caebdade519f9d254704&units=imperial&q=kingman,United States
ewa beach,US,17.157095171003988,-159.68101286286898,http://api.openweathermap.org/data/2.5/weather?appid=fe26e61e3773caebdade519f9d254704&units=imperial&q=ewa beach,United States
nome,US,70.04845813869295,-163.47005151543544,http://api.openweathermap.org/data/2.5/weather?appid=fe26e61e3773caebdade519f9d254704&units=imperial&q=nome,United States
copperas cove,US,31.168413524201895,-98.4148560299236,http://api.openweathermap.org/data/2.5/weather?appid=fe26e61e3773caebdade519f9d254704&units=imperial&q=copperas cove,United States
yeehaw junction,US,27.657284190957995,-80.97268833750296,http://api.openweathermap.org/data/2.5/weather?appid=fe26e61e3773caebdade519f9d254704&units=imperial&q=yeehaw junction,United States
canby,US,44.775802863769485,-122.07994943354127,http://api.openweathermap.org/data/2.5/weather?appid=fe26e61e3773caebdade519f9d254704&units=imperial&q=canby,United States
pueblo,US,37.75746700763521,-104.86929739339975,http://api.openweathermap.org/data/2.5/weather?appid=fe26e61e3773caebdade519f9d254704&units=imperial&q=pueblo,United States
fallon,US,38.76788387267763,-117.71981491508623,http://api.openweathermap.org/data/2.5/weather?appid=fe26e61e3773caebdade519f9d254704&units=imperial&q=fallon,United States
ketchikan,US,50.80827455737938,-134.61094600395185,http://api.openweathermap.org/data/2.5/weather?appid=fe26e61e3773caebdade519f9d254704&units=imperial&q=ketchikan,United States
elkton,US,39.575896049538784,-75.75840638704508,http://api.openweathermap.org/data/2.5/weather?appid=fe26e61e3773caebdade519f9d254704&units=imperial&q=elkton,United States
warrensburg,US,38.83403295705483,-93.60637328534584,http://api.openweathermap.org/data/2.5/weather?appid=fe26e61e3773caebdade519f9d254704&units=imperial&q=warrensburg,United States
bethel,US,61.44353897918788,-163.78200154714915,http://api.openweathermap.org/data/2.5/weather?appid=fe26e61e3773caebdade519f9d254704&units=imperial&q=bethel,United States
lompoc,US,29.771280673732974,-126.8497310848254,http://api.openweathermap.org/data/2.5/weather?appid=fe26e61e3773caebdade519f9d254704&units=imperial&q=lompoc,United States
half moon bay,US,32.30432344085514,-133.58182237214515,http://api.openweathermap.org/data/2.5/weather?appid=fe26e61e3773caebdade519f9d254704&units=imperial&q=half moon bay,United States
monterey,US,35.86363987390496,-122.13138713804628,http://api.openweathermap.org/data/2.5/weather?appid=fe26e61e3773caebdade519f9d254704&units=imperial&q=monterey,United States
hutchinson,US,37.311003655751065,-98.45675176354997,http://api.openweathermap.org/data/2.5/weather?appid=fe26e61e3773caebdade519f9d254704&units=imperial&q=hutchinson,United States
pacific grove,US,29.17721305902971,-132.73043732200512,http://api.openweathermap.org/data/2.5/weather?appid=fe26e61e3773caebdade519f9d254704&units=imperial&q=pacific grove,United States
port hueneme,US,31.17464678291917,-120.58664851316783,http://api.openweathermap.org/data/2.5/weather?appid=fe26e61e3773caebdade519f9d254704&units=imperial&q=port hueneme,United States
newport,US,45.478092394949215,-126.16077514573192,http://api.openweathermap.org/data/2.5/weather?appid=fe26e61e3773caebdade519f9d254704&units=imperial&q=newport,United States
college,US,73.73587207048837,-146.8868443924978,http://api.openweathermap.org/data/2.5/weather?appid=fe26e61e3773caebdade519f9d254704&units=imperial&q=college,United States
fairbanks,US,71.52138859901874,-143.24999960395274,http://api.openweathermap.org/data/2.5/weather?appid=fe26e61e3773caebdade519f9d254704&units=imperial&q=fairbanks,United States
dodge city,US,38.06759112254892,-99.76653663127105,http://api.openweathermap.org/data/2.5/weather?appid=fe26e61e3773caebdade519f9d254704&units=imperial&q=dodge city,United States
washougal,US,45.97110299516427,-122.26318288317401,http://api.openweathermap.org/data/2.5/weather?appid=fe26e61e3773caebdade519f9d254704&units=imperial&q=washougal,United States
graham,US,32.98368429805849,-98.77502588389859,http://api.openweathermap.org/data/2.5/weather?appid=fe26e61e3773caebdade519f9d254704&units=imperial&q=graham,United States
durango,US,37.10164006211198,-107.03950751590146,http://api.openweathermap.org/data/2.5/weather?appid=fe26e61e3773caebdade519f9d254704&units=imperial&q=durango,United States
kenai,US,65.43297598635115,-153.12455359440466,http://api.openweathermap.org/data/2.5/weather?appid=fe26e61e3773caebdade519f9d254704&units=imperial&q=kenai,United States
seminole,US,27.35417026832323,-83.93483231781342,http://api.openweathermap.org/data/2.5/weather?appid=fe26e61e3773caebdade519f9d254704&units=imperial&q=seminole,United States
nantucket,US,37.400838610391645,-66.93449258447122,http://api.openweathermap.org/data/2.5/weather?appid=fe26e61e3773caebdade519f9d254704&units=imperial&q=nantucket,United States
huntington,US,38.11390370279014,-82.35997022894524,http://api.openweathermap.org/data/2.5/weather?appid=fe26e61e3773caebdade519f9d254704&units=imperial&q=huntington,United States
odessa,US,31.230314738704237,-102.04570175016815,http://api.openweathermap.org/data/2.5/weather?appid=fe26e61e3773caebdade519f9d254704&units=imperial&q=odessa,United States
victoria,SC,-5.378010977071526,52.44777969707357,http://api.openweathermap.org/data/2.5/weather?appid=fe26e61e3773caebdade519f9d254704&units=imperial&q=victoria,Seychelles
salalah,OM,17.216703243667553,53.61806523084451,http://api.openweathermap.org/data/2.5/weather?appid=fe26e61e3773caebdade519f9d254704&units=imperial&q=salalah,Oman
nakamura,JP,33.05373789085604,132.87853007599324,http://api.openweathermap.org/data/2.5/weather?appid=fe26e61e3773caebdade519f9d254704&units=imperial&q=nakamura,Japan
hasaki,JP,23.006655485891656,159.8510089523959,http://api.openweathermap.org/data/2.5/weather?appid=fe26e61e3773caebdade519f9d254704&units=imperial&q=hasaki,Japan
shingu,JP,26.319768755613467,137.06294966812828,http://api.openweathermap.org/data/2.5/weather?appid=fe26e61e3773caebdade519f9d254704&units=imperial&q=shingu,Japan
naze,JP,23.923255173856717,136.7683887369509,http://api.openweathermap.org/data/2.5/weather?appid=fe26e61e3773caebdade519f9d254704&units=imperial&q=naze,Japan
hirara,JP,22.442111104736398,125.8145925833719,http://api.openweathermap.org/data/2.5/weather?appid=fe26e61e3773caebdade519f9d254704&units=imperial&q=hirara,Japan
wakkanai,JP,46.01306603394886,140.12077212768372,http://api.openweathermap.org/data/2.5/weather?appid=fe26e61e3773caebdade519f9d254704&units=imperial&q=wakkanai,Japan
katsuura,JP,20.78809853509857,156.34297440117797,http://api.openweathermap.org/data/2.5/weather?appid=fe26e61e3773caebdade519f9d254704&units=imperial&q=katsuura,Japan
nagato,JP,34.97819688724988,130.57397329673438,http://api.openweathermap.org/data/2.5/weather?appid=fe26e61e3773caebdade519f9d254704&units=imperial&q=nagato,Japan
izumo,JP,38.251118559560865,131.33031491758152,http://api.openweathermap.org/data/2.5/weather?appid=fe26e61e3773caebdade519f9d254704&units=imperial&q=izumo,Japan
kutum,SD,18.13744125907644,25.80856728887329,http://api.openweathermap.org/data/2.5/weather?appid=fe26e61e3773caebdade519f9d254704&units=imperial&q=kutum,Sudan
barbar,SD,18.057667029619253,34.90990375061364,http://api.openweathermap.org/data/2.5/weather?appid=fe26e61e3773caebdade519f9d254704&units=imperial&q=barbar,Sudan
marawi,SD,18.977053970789882,29.372495024580985,http://api.openweathermap.org/data/2.5/weather?appid=fe26e61e3773caebdade519f9d254704&units=imperial&q=marawi,Sudan
malakal,SD,10.190772650865398,32.42995208942136,http://api.openweathermap.org/data/2.5/weather?appid=fe26e61e3773caebdade519f9d254704&units=imperial&q=malakal,Sudan
richards bay,ZA,-29.394702484640717,35.31928336538783,http://api.openweathermap.org/data/2.5/weather?appid=fe26e61e3773caebdade519f9d254704&units=imperial&q=richards bay,South Africa
bredasdorp,ZA,-87.88883252539671,21.88282146210358,http://api.openweathermap.org/data/2.5/weather?appid=fe26e61e3773caebdade519f9d254704&units=imperial&q=bredasdorp,South Africa
hermanus,ZA,-69.32124766963994,1.0320628826611369,http://api.openweathermap.org/data/2.5/weather?appid=fe26e61e3773caebdade519f9d254704&units=imperial&q=hermanus,South Africa
port elizabeth,ZA,-63.53481096627047,32.9252855032305,http://api.openweathermap.org/data/2.5/weather?appid=fe26e61e3773caebdade519f9d254704&units=imperial&q=port elizabeth,South Africa
port alfred,ZA,-48.46666706246371,31.67656043346551,http://api.openweathermap.org/data/2.5/weather?appid=fe26e61e3773caebdade519f9d254704&units=imperial&q=port alfred,South Africa
east london,ZA,-56.94593986154409,48.86511671810615,http://api.openweathermap.org/data/2.5/weather?appid=fe26e61e3773caebdade519f9d254704&units=imperial&q=east london,South Africa
pietermaritzburg,ZA,-29.851554220106486,30.564115675544087,http://api.openweathermap.org/data/2.5/weather?appid=fe26e61e3773caebdade519f9d254704&units=imperial&q=pietermaritzburg,South Africa
mogwase,ZA,-25.221062530046524,26.913414585892497,http://api.openweathermap.org/data/2.5/weather?appid=fe26e61e3773caebdade519f9d254704&units=imperial&q=mogwase,South Africa
cape town,ZA,-57.24581344892472,4.209150393915081,http://api.openweathermap.org/data/2.5/weather?appid=fe26e61e3773caebdade519f9d254704&units=imperial&q=cape town,South Africa
umzimvubu,ZA,-38.3960696515887,35.13498246992205,http://api.openweathermap.org/data/2.5/weather?appid=fe26e61e3773caebdade519f9d254704&units=imperial&q=umzimvubu,South Africa
plettenberg bay,ZA,-37.45879152262026,23.554451731547687,http://api.openweathermap.org/data/2.5/weather?appid=fe26e61e3773caebdade519f9d254704&units=imperial&q=plettenberg bay,South Africa
kruisfontein,ZA,-60.600605458194565,26.994369388863333,http://api.openweathermap.org/data/2.5/weather?appid=fe26e61e3773caebdade519f9d254704&units=imperial&q=kruisfontein,South Africa
messina,ZA,-22.232605653398693,30.34351436443191,http://api.openweathermap.org/data/2.5/weather?appid=fe26e61e3773caebdade519f9d254704&units=imperial&q=messina,South Africa
saldanha,ZA,-35.91211806539242,9.414982932167447,http://api.openweathermap.org/data/2.5/weather?appid=fe26e61e3773caebdade519f9d254704&units=imperial&q=saldanha,South Africa
umkomaas,ZA,-30.646876889557312,31.579416963294022,http://api.openweathermap.org/data/2.5/weather?appid=fe26e61e3773caebdade519f9d254704&units=imperial&q=umkomaas,South Africa
ellisras,ZA,-23.28803099249727,28.162009846141814,http://api.openweathermap.org/data/2.5/weather?appid=fe26e61e3773caebdade519f9d254704&units=imperial&q=ellisras,South Africa
dabola,GN,10.748728821222059,-11.002479154264734,http://api.openweathermap.org/data/2.5/weather?appid=fe26e61e3773caebdade519f9d254704&units=imperial&q=dabola,Guinea
yomou,GN,7.805300453387588,-9.546366477757488,http://api.openweathermap.org/data/2.5/weather?appid=fe26e61e3773caebdade519f9d254704&units=imperial&q=yomou,Guinea
necochea,AR,-42.48447347614907,-57.62272070631478,http://api.openweathermap.org/data/2.5/weather?appid=fe26e61e3773caebdade519f9d254704&units=imperial&q=necochea,Argentina
ushuaia,AR,-84.39186860655278,-65.46892686806115,http://api.openweathermap.org/data/2.5/weather?appid=fe26e61e3773caebdade519f9d254704&units=imperial&q=ushuaia,Argentina
mar del plata,AR,-58.99952216351573,-32.324439838096396,http://api.openweathermap.org/data/2.5/weather?appid=fe26e61e3773caebdade519f9d254704&units=imperial&q=mar del plata,Argentina
comodoro rivadavia,AR,-45.17777045422214,-68.36180449037056,http://api.openweathermap.org/data/2.5/weather?appid=fe26e61e3773caebdade519f9d254704&units=imperial&q=comodoro rivadavia,Argentina
rawson,AR,-49.106209523572595,-59.577646679865225,http://api.openweathermap.org/data/2.5/weather?appid=fe26e61e3773caebdade519f9d254704&units=imperial&q=rawson,Argentina
tres arroyos,AR,-38.01397787039375,-61.01560566064144,http://api.openweathermap.org/data/2.5/weather?appid=fe26e61e3773caebdade519f9d254704&units=imperial&q=tres arroyos,Argentina
olavarria,AR,-36.47579424073353,-60.50540248013975,http://api.openweathermap.org/data/2.5/weather?appid=fe26e61e3773caebdade519f9d254704&units=imperial&q=olavarria,Argentina
la rioja,AR,-28.85315291432991,-68.01894933357202,http://api.openweathermap.org/data/2.5/weather?appid=fe26e61e3773caebdade519f9d254704&units=imperial&q=la rioja,Argentina
rio tercero,AR,-32.537799283593635,-63.94507383637746,http://api.openweathermap.org/data/2.5/weather?appid=fe26e61e3773caebdade519f9d254704&units=imperial&q=rio tercero,Argentina
rio gallegos,AR,-49.25947748448492,-68.09849008109055,http://api.openweathermap.org/data/2.5/weather?appid=fe26e61e3773caebdade519f9d254704&units=imperial&q=rio gallegos,Argentina
san francisco,AR,-31.097242301817857,-62.86712591758538,http://api.openweathermap.org/data/2.5/weather?appid=fe26e61e3773caebdade519f9d254704&units=imperial&q=san francisco,Argentina
salta,AR,-24.958713913794355,-66.41499082000668,http://api.openweathermap.org/data/2.5/weather?appid=fe26e61e3773caebdade519f9d254704&units=imperial&q=salta,Argentina
neuquen,AR,-37.34976534591122,-67.86109834375587,http://api.openweathermap.org/data/2.5/weather?appid=fe26e61e3773caebdade519f9d254704&units=imperial&q=neuquen,Argentina
codrington,AG,23.99715876765977,-52.462347578772366,http://api.openweathermap.org/data/2.5/weather?appid=fe26e61e3773caebdade519f9d254704&units=imperial&q=codrington,Antigua and Barbuda
narsaq,GL,84.47489981531501,-59.35769102887653,http://api.openweathermap.org/data/2.5/weather?appid=fe26e61e3773caebdade519f9d254704&units=imperial&q=narsaq,Greenland
upernavik,GL,82.19929806255726,-56.721161148674014,http://api.openweathermap.org/data/2.5/weather?appid=fe26e61e3773caebdade519f9d254704&units=imperial&q=upernavik,Greenland
qaanaaq,GL,86.60421543840201,-84.23430453557731,http://api.openweathermap.org/data/2.5/weather?appid=fe26e61e3773caebdade519f9d254704&units=imperial&q=qaanaaq,Greenland
ilulissat,GL,73.61671557183487,-49.96095693124386,http://api.openweathermap.org/data/2.5/weather?appid=fe26e61e3773caebdade519f9d254704&units=imperial&q=ilulissat,Greenland
illoqqortoormiut,GL,74.2977943778576,-27.23585293904577,http://api.openweathermap.org/data/2.5/weather?appid=fe26e61e3773caebdade519f9d254704&units=imperial&q=illoqqortoormiut,Greenland
tasiilaq,GL,73.50078836058927,-33.26104410058545,http://api.openweathermap.org/data/2.5/weather?appid=fe26e61e3773caebdade519f9d254704&units=imperial&q=tasiilaq,Greenland
nanortalik,GL,59.67373266172328,-45.555176693802196,http://api.openweathermap.org/data/2.5/weather?appid=fe26e61e3773caebdade519f9d254704&units=imperial&q=nanortalik,Greenland
sisimiut,GL,67.63097725688098,-55.52708759399516,http://api.openweathermap.org/data/2.5/weather?appid=fe26e61e3773caebdade519f9d254704&units=imperial&q=sisimiut,Greenland
bimbo,CF,4.353142426847512,18.130365850346777,http://api.openweathermap.org/data/2.5/weather?appid=fe26e61e3773caebdade519f9d254704&units=imperial&q=bimbo,Central African Republic
boda,CF,4.077875245683273,17.60741428578544,http://api.openweathermap.org/data/2.5/weather?appid=fe26e61e3773caebdade519f9d254704&units=imperial&q=boda,Central African Republic
ndele,CF,9.614763046889323,21.26323182861313,http://api.openweathermap.org/data/2.5/weather?appid=fe26e61e3773caebdade519f9d254704&units=imperial&q=ndele,Central African Republic
jamestown,SH,-28.333040406316577,-1.1563786527945865,http://api.openweathermap.org/data/2.5/weather?appid=fe26e61e3773caebdade519f9d254704&units=imperial&q=jamestown,"Saint Helena, Ascension and Tristan da Cunha"
georgetown,SH,-18.476244335377544,-16.537119804092868,http://api.openweathermap.org/data/2.5/weather?appid=fe26e61e3773caebdade519f9d254704&units=imperial&q=georgetown,"Saint Helena, Ascension and Tristan da Cunha"
lorengau,PG,10.137560504501522,148.8914080402459,http://api.openweathermap.org/data/2.5/weather?appid=fe26e61e3773caebdade519f9d254704&units=imperial&q=lorengau,Papua New Guinea
kavieng,PG,5.7519337229797145,151.60905915083896,http://api.openweathermap.org/data/2.5/weather?appid=fe26e61e3773caebdade519f9d254704&units=imperial&q=kavieng,Papua New Guinea
laiagam,PG,-5.085424202862555,143.88042823072067,http://api.openweathermap.org/data/2.5/weather?appid=fe26e61e3773caebdade519f9d254704&units=imperial&q=laiagam,Papua New Guinea
ambunti,PG,-4.325690022131795,142.43427153495946,http://api.openweathermap.org/data/2.5/weather?appid=fe26e61e3773caebdade519f9d254704&units=imperial&q=ambunti,Papua New Guinea
kieta,PG,-2.5999076485434074,156.55200019509192,http://api.openweathermap.org/data/2.5/weather?appid=fe26e61e3773caebdade519f9d254704&units=imperial&q=kieta,Papua New Guinea
kokopo,PG,-4.9660644981046005,151.82524666156183,http://api.openweathermap.org/data/2.5/weather?appid=fe26e61e3773caebdade519f9d254704&units=imperial&q=kokopo,Papua New Guinea
samarai,PG,-13.419375218760962,154.9650187718081,http://api.openweathermap.org/data/2.5/weather?appid=fe26e61e3773caebdade519f9d254704&units=imperial&q=samarai,Papua New Guinea
namatanai,PG,4.000503230008206,158.59026178588164,http://api.openweathermap.org/data/2.5/weather?appid=fe26e61e3773caebdade519f9d254704&units=imperial&q=namatanai,Papua New Guinea
sataua,WS,-10.691139151471901,-173.2100082827159,http://api.openweathermap.org/data/2.5/weather?appid=fe26e61e3773caebdade519f9d254704&units=imperial&q=sataua,Samoa
saleaula,WS,-5.808694794411963,-168.70629270767324,http://api.openweathermap.org/data/2.5/weather?appid=fe26e61e3773caebdade519f9d254704&units=imperial&q=saleaula,Samoa
samusu,WS,-10.224235860110014,-168.237915571111,http://api.openweathermap.org/data/2.5/weather?appid=fe26e61e3773caebdade519f9d254704&units=imperial&q=samusu,Samoa
satitoa,WS,-14.73570827506758,-170.67906750403768,http://api.openweathermap.org/data/2.5/weather?appid=fe26e61e3773caebdade519f9d254704&units=imperial&q=satitoa,Samoa
putina,PE,-15.568760205917485,-69.66593073651373,http://api.openweathermap.org/data/2.5/weather?appid=fe26e61e3773caebdade519f9d254704&units=imperial&q=putina,Peru
marcona,PE,-23.021875536481005,-79.32474773812419,http://api.openweathermap.org/data/2.5/weather?appid=fe26e61e3773caebdade519f9d254704&units=imperial&q=marcona,Peru
tarata,PE,-17.077904023495392,-69.6593957724419,http://api.openweathermap.org/data/2.5/weather?appid=fe26e61e3773caebdade519f9d254704&units=imperial&q=tarata,Peru
pisco,PE,-25.608936327779432,-93.30222891800204,http://api.openweathermap.org/data/2.5/weather?appid=fe26e61e3773caebdade519f9d254704&units=imperial&q=pisco,Peru
hualmay,PE,-21.299318860135443,-94.58578072884707,http://api.openweathermap.org/data/2.5/weather?appid=fe26e61e3773caebdade519f9d254704&units=imperial&q=hualmay,Peru
barranca,PE,-4.4960814074818956,-76.5620894278123,http://api.openweathermap.org/data/2.5/weather?appid=fe26e61e3773caebdade519f9d254704&units=imperial&q=barranca,Peru
sechura,PE,-9.659536149334158,-87.19513873011489,http://api.openweathermap.org/data/2.5/weather?appid=fe26e61e3773caebdade519f9d254704&units=imperial&q=sechura,Peru
zorritos,PE,-3.1255318364042637,-80.8307636728924,http://api.openweathermap.org/data/2.5/weather?appid=fe26e61e3773caebdade519f9d254704&units=imperial&q=zorritos,Peru
tambopata,PE,-13.476828633142816,-69.26999327505813,http://api.openweathermap.org/data/2.5/weather?appid=fe26e61e3773caebdade519f9d254704&units=imperial&q=tambopata,Peru
namibe,AO,-14.691850620868522,4.5361964554071506,http://api.openweathermap.org/data/2.5/weather?appid=fe26e61e3773caebdade519f9d254704&units=imperial&q=namibe,Angola
luau,AO,-10.346180454384012,21.847981584945842,http://api.openweathermap.org/data/2.5/weather?appid=fe26e61e3773caebdade519f9d254704&units=imperial&q=luau,Angola
caxito,AO,-7.825636513503767,13.87760417520434,http://api.openweathermap.org/data/2.5/weather?appid=fe26e61e3773caebdade519f9d254704&units=imperial&q=caxito,Angola
sumbe,AO,-11.0960616657147,13.764269161016074,http://api.openweathermap.org/data/2.5/weather?appid=fe26e61e3773caebdade519f9d254704&units=imperial&q=sumbe,Angola
olafsvik,IS,62.4244609867271,-29.06108888379765,http://api.openweathermap.org/data/2.5/weather?appid=fe26e61e3773caebdade519f9d254704&units=imperial&q=olafsvik,Iceland
husavik,IS,77.38994117842626,-10.278223378588905,http://api.openweathermap.org/data/2.5/weather?appid=fe26e61e3773caebdade519f9d254704&units=imperial&q=husavik,Iceland
grindavik,IS,52.42131277102874,-27.094497014092212,http://api.openweathermap.org/data/2.5/weather?appid=fe26e61e3773caebdade519f9d254704&units=imperial&q=grindavik,Iceland
foix,FR,42.77949879919481,1.5285426718837982,http://api.openweathermap.org/data/2.5/weather?appid=fe26e61e3773caebdade519f9d254704&units=imperial&q=foix,France
sainte-maxime,FR,43.12665030035731,6.874708806662682,http://api.openweathermap.org/data/2.5/weather?appid=fe26e61e3773caebdade519f9d254704&units=imperial&q=sainte-maxime,France
puerto ayora,EC,-26.603302093490704,-104.10860585966189,http://api.openweathermap.org/data/2.5/weather?appid=fe26e61e3773caebdade519f9d254704&units=imperial&q=puerto ayora,Ecuador
san cristobal,EC,-10.921698221081002,-92.09594599474775,http://api.openweathermap.org/data/2.5/weather?appid=fe26e61e3773caebdade519f9d254704&units=imperial&q=san cristobal,Ecuador
yaan,CN,30.25721361908967,102.6028463748014,http://api.openweathermap.org/data/2.5/weather?appid=fe26e61e3773caebdade519f9d254704&units=imperial&q=yaan,China
luoyang,CN,24.904736446274597,118.93588521369861,http://api.openweathermap.org/data/2.5/weather?appid=fe26e61e3773caebdade519f9d254704&units=imperial&q=luoyang,China
zhangjiakou,CN,40.83610870819393,114.25037752333657,http://api.openweathermap.org/data/2.5/weather?appid=fe26e61e3773caebdade519f9d254704&units=imperial&q=zhangjiakou,China
zhangye,CN,38.156979350899945,99.6693023095122,http://api.openweathermap.org/data/2.5/weather?appid=fe26e61e3773caebdade519f9d254704&units=imperial&q=zhangye,China
zhengjiatun,CN,43.50222891263701,123.07968436213127,http://api.openweathermap.org/data/2.5/weather?appid=fe26e61e3773caebdade519f9d254704&units=imperial&q=zhengjiatun,China
jiaohe,CN,43.461799709012524,127.31609064014049,http://api.openweathermap.org/data/2.5/weather?appid=fe26e61e3773caebdade519f9d254704&units=imperial&q=jiaohe,China
jiaocheng,CN,26.67915475037232,119.86500635032229,http://api.openweathermap.org/data/2.5/weather?appid=fe26e61e3773caebdade519f9d254704&units=imperial&q=jiaocheng,China
yining,CN,44.66983471007646,81.78309075151088,http://api.openweathermap.org/data/2.5/weather?appid=fe26e61e3773caebdade519f9d254704&units=imperial&q=yining,China
zhicheng,CN,31.161330791449544,119.74291971577861,http://api.openweathermap.org/data/2.5/weather?appid=fe26e61e3773caebdade519f9d254704&units=imperial&q=zhicheng,China
yangjiang,CN,19.742586930967107,112.70908981021597,http://api.openweathermap.org/data/2.5/weather?appid=fe26e61e3773caebdade519f9d254704&units=imperial&q=yangjiang,China
dali,CN,25.35699747303525,99.53329959719497,http://api.openweathermap.org/data/2.5/weather?appid=fe26e61e3773caebdade519f9d254704&units=imperial&q=dali,China
manzhouli,CN,48.65411227038871,117.52068868450084,http://api.openweathermap.org/data/2.5/weather?appid=fe26e61e3773caebdade519f9d254704&units=imperial&q=manzhouli,China
xinmin,CN,42.81583670884666,122.97827973654813,http://api.openweathermap.org/data/2.5/weather?appid=fe26e61e3773caebdade519f9d254704&units=imperial&q=xinmin,China
haimen,CN,21.873027238669508,117.50452914007519,http://api.openweathermap.org/data/2.5/weather?appid=fe26e61e3773caebdade519f9d254704&units=imperial&q=haimen,China
lushunkou,CN,38.838214966982946,120.255646837087,http://api.openweathermap.org/data/2.5/weather?appid=fe26e61e3773caebdade519f9d254704&units=imperial&q=lushunkou,China
wulanhaote,CN,45.377143673621134,120.82768761303612,http://api.openweathermap.org/data/2.5/weather?appid=fe26e61e3773caebdade519f9d254704&units=imperial&q=wulanhaote,China
korla,CN,39.35556538491218,89.92124299978127,http://api.openweathermap.org/data/2.5/weather?appid=fe26e61e3773caebdade519f9d254704&units=imperial&q=korla,China
bambous virieux,MU,-28.000905502433838,80.99530986539713,http://api.openweathermap.org/data/2.5/weather?appid=fe26e61e3773caebdade519f9d254704&units=imperial&q=bambous virieux,Mauritius
cap malheureux,MU,-16.078009494373177,57.545218445726874,http://api.openweathermap.org/data/2.5/weather?appid=fe26e61e3773caebdade519f9d254704&units=imperial&q=cap malheureux,Mauritius
souillac,MU,-44.91528030365569,70.70604395959253,http://api.openweathermap.org/data/2.5/weather?appid=fe26e61e3773caebdade519f9d254704&units=imperial&q=souillac,Mauritius
quatre cocos,MU,-17.327959957635045,66.49936386922482,http://api.openweathermap.org/data/2.5/weather?appid=fe26e61e3773caebdade519f9d254704&units=imperial&q=quatre cocos,Mauritius
mahebourg,MU,-44.53670122738687,73.51821241233517,http://api.openweathermap.org/data/2.5/weather?appid=fe26e61e3773caebdade519f9d254704&units=imperial&q=mahebourg,Mauritius
grand gaube,MU,-11.989159591813149,65.00857669530038,http://api.openweathermap.org/data/2.5/weather?appid=fe26e61e3773caebdade519f9d254704&units=imperial&q=grand gaube,Mauritius
treinta y tres,UY,-33.013492978321295,-54.54954164482572,http://api.openweathermap.org/data/2.5/weather?appid=fe26e61e3773caebdade519f9d254704&units=imperial&q=treinta y tres,Uruguay
chuy,UY,-47.71245911648807,-35.424418641991195,http://api.openweathermap.org/data/2.5/weather?appid=fe26e61e3773caebdade519f9d254704&units=imperial&q=chuy,Uruguay
klaksvik,FO,77.25639331270278,-1.80272416469694,http://api.openweathermap.org/data/2.5/weather?appid=fe26e61e3773caebdade519f9d254704&units=imperial&q=klaksvik,Faroe Islands
vestmanna,FO,66.51402953097411,-9.934459455143667,http://api.openweathermap.org/data/2.5/weather?appid=fe26e61e3773caebdade519f9d254704&units=imperial&q=vestmanna,Faroe Islands
saint-joseph,RE,-31.666547148801023,55.05768702758721,http://api.openweathermap.org/data/2.5/weather?appid=fe26e61e3773caebdade519f9d254704&units=imperial&q=saint-joseph,Runion
saint-philippe,RE,-67.52368600276559,73.78035774470447,http://api.openweathermap.org/data/2.5/weather?appid=fe26e61e3773caebdade519f9d254704&units=imperial&q=saint-philippe,Runion
oranjestad,AW,14.246531003166325,-70.14016491162626,http://api.openweathermap.org/data/2.5/weather?appid=fe26e61e3773caebdade519f9d254704&units=imperial&q=oranjestad,Aruba
vaini,TO,-32.62555089279251,-175.67416012743462,http://api.openweathermap.org/data/2.5/weather?appid=fe26e61e3773caebdade519f9d254704&units=imperial&q=vaini,Tonga
pangai,TO,-19.76200491163179,-175.30582426459574,http://api.openweathermap.org/data/2.5/weather?appid=fe26e61e3773caebdade519f9d254704&units=imperial&q=pangai,Tonga
tabiauea,KI,-1.4404968457872513,166.36909694699574,http://api.openweathermap.org/data/2.5/weather?appid=fe26e61e3773caebdade519f9d254704&units=imperial&q=tabiauea,Kiribati
butaritari,KI,15.23751207259997,161.52965573308535,http://api.openweathermap.org/data/2.5/weather?appid=fe26e61e3773caebdade519f9d254704&units=imperial&q=butaritari,Kiribati
rungata,KI,2.1701186219357425,177.31898786001176,http://api.openweathermap.org/data/2.5/weather?appid=fe26e61e3773caebdade519f9d254704&units=imperial&q=rungata,Kiribati
qobustan,AZ,39.79659846263334,49.43958251216824,http://api.openweathermap.org/data/2.5/weather?appid=fe26e61e3773caebdade519f9d254704&units=imperial&q=qobustan,Azerbaijan
morondava,MG,-20.809093787035238,40.41215090967691,http://api.openweathermap.org/data/2.5/weather?appid=fe26e61e3773caebdade519f9d254704&units=imperial&q=morondava,Madagascar
taolanaro,MG,-76.5460484868826,64.80711915436879,http://api.openweathermap.org/data/2.5/weather?appid=fe26e61e3773caebdade519f9d254704&units=imperial&q=taolanaro,Madagascar
tsihombe,MG,-30.64389465743954,44.49881955922771,http://api.openweathermap.org/data/2.5/weather?appid=fe26e61e3773caebdade519f9d254704&units=imperial&q=tsihombe,Madagascar
ambilobe,MG,-7.208252853165163,49.46403921295442,http://api.openweathermap.org/data/2.5/weather?appid=fe26e61e3773caebdade519f9d254704&units=imperial&q=ambilobe,Madagascar
kaitangata,NZ,-66.36529386091672,179.12849090915307,http://api.openweathermap.org/data/2.5/weather?appid=fe26e61e3773caebdade519f9d254704&units=imperial&q=kaitangata,New Zealand
bluff,NZ,-58.327968523254896,168.02453094375232,http://api.openweathermap.org/data/2.5/weather?appid=fe26e61e3773caebdade519f9d254704&units=imperial&q=bluff,New Zealand
te anau,NZ,-38.243913972989766,163.04671186934735,http://api.openweathermap.org/data/2.5/weather?appid=fe26e61e3773caebdade519f9d254704&units=imperial&q=te anau,New Zealand
tuatapere,NZ,-64.04471847701728,154.9245635540081,http://api.openweathermap.org/data/2.5/weather?appid=fe26e61e3773caebdade519f9d254704&units=imperial&q=tuatapere,New Zealand
southbridge,NZ,-45.45020619746841,173.50631595496606,http://api.openweathermap.org/data/2.5/weather?appid=fe26e61e3773caebdade519f9d254704&units=imperial&q=southbridge,New Zealand
ahipara,NZ,-30.68923568044429,166.81353053316911,http://api.openweathermap.org/data/2.5/weather?appid=fe26e61e3773caebdade519f9d254704&units=imperial&q=ahipara,New Zealand
russell,NZ,-28.69948895044999,178.5420637625473,http://api.openweathermap.org/data/2.5/weather?appid=fe26e61e3773caebdade519f9d254704&units=imperial&q=russell,New Zealand
kaeo,NZ,-26.585961982432856,176.6026606142911,http://api.openweathermap.org/data/2.5/weather?appid=fe26e61e3773caebdade519f9d254704&units=imperial&q=kaeo,New Zealand
dunedin,NZ,-51.68799697466035,174.63893115338436,http://api.openweathermap.org/data/2.5/weather?appid=fe26e61e3773caebdade519f9d254704&units=imperial&q=dunedin,New Zealand
los llanos de aridane,ES,30.156835738872843,-20.82291224907479,http://api.openweathermap.org/data/2.5/weather?appid=fe26e61e3773caebdade519f9d254704&units=imperial&q=los llanos de aridane,Spain
la carlota,ES,37.81975883997309,-4.970165336425737,http://api.openweathermap.org/data/2.5/weather?appid=fe26e61e3773caebdade519f9d254704&units=imperial&q=la carlota,Spain
teguise,ES,29.8608229987141,-12.395096021029389,http://api.openweathermap.org/data/2.5/weather?appid=fe26e61e3773caebdade519f9d254704&units=imperial&q=teguise,Spain
miri,MY,4.7902830113286825,114.12856609189657,http://api.openweathermap.org/data/2.5/weather?appid=fe26e61e3773caebdade519f9d254704&units=imperial&q=miri,Malaysia
dingle,IE,55.020751221480566,-16.632619076037287,http://api.openweathermap.org/data/2.5/weather?appid=fe26e61e3773caebdade519f9d254704&units=imperial&q=dingle,Ireland
skibbereen,IE,49.87025160201759,-9.788683885829585,http://api.openweathermap.org/data/2.5/weather?appid=fe26e61e3773caebdade519f9d254704&units=imperial&q=skibbereen,Ireland
westport,IE,56.90694949531675,-12.70688635570545,http://api.openweathermap.org/data/2.5/weather?appid=fe26e61e3773caebdade519f9d254704&units=imperial&q=westport,Ireland
clonakilty,IE,50.29111974431697,-8.553954603691977,http://api.openweathermap.org/data/2.5/weather?appid=fe26e61e3773caebdade519f9d254704&units=imperial&q=clonakilty,Ireland
barentsburg,SJ,82.24298915982004,7.86076721885334,http://api.openweathermap.org/data/2.5/weather?appid=fe26e61e3773caebdade519f9d254704&units=imperial&q=barentsburg,Svalbard and Jan Mayen
longyearbyen,SJ,89.71595224741867,20.63392463695712,http://api.openweathermap.org/data/2.5/weather?appid=fe26e61e3773caebdade519f9d254704&units=imperial&q=longyearbyen,Svalbard and Jan Mayen
kerman,IR,31.001845705012997,57.976781600599764,http://api.openweathermap.org/data/2.5/weather?appid=fe26e61e3773caebdade519f9d254704&units=imperial&q=kerman,"Iran, Islamic Republic of"
mehriz,IR,30.997230415578485,54.42705548775464,http://api.openweathermap.org/data/2.5/weather?appid=fe26e61e3773caebdade519f9d254704&units=imperial&q=mehriz,"Iran, Islamic Republic of"
qeshm,IR,27.365646315051578,55.76311942299631,http://api.openweathermap.org/data/2.5/weather?appid=fe26e61e3773caebdade519f9d254704&units=imperial&q=qeshm,"Iran, Islamic Republic of"
taft,IR,31.683007274462526,53.62073734348729,http://api.openweathermap.org/data/2.5/weather?appid=fe26e61e3773caebdade519f9d254704&units=imperial&q=taft,"Iran, Islamic Republic of"
semnan,IR,35.11596444345223,53.10258399542457,http://api.openweathermap.org/data/2.5/weather?appid=fe26e61e3773caebdade519f9d254704&units=imperial&q=semnan,"Iran, Islamic Republic of"
sabzevar,IR,35.47419176489109,56.9340098452563,http://api.openweathermap.org/data/2.5/weather?appid=fe26e61e3773caebdade519f9d254704&units=imperial&q=sabzevar,"Iran, Islamic Republic of"
san policarpo,PH,13.238720207922896,128.25357102746722,http://api.openweathermap.org/data/2.5/weather?appid=fe26e61e3773caebdade519f9d254704&units=imperial&q=san policarpo,Philippines
alugan,PH,13.570149020616896,127.39629612571099,http://api.openweathermap.org/data/2.5/weather?appid=fe26e61e3773caebdade519f9d254704&units=imperial&q=alugan,Philippines
ligayan,PH,4.503105416373472,119.48315181352382,http://api.openweathermap.org/data/2.5/weather?appid=fe26e61e3773caebdade519f9d254704&units=imperial&q=ligayan,Philippines
basco,PH,20.269082319298093,125.74359980012645,http://api.openweathermap.org/data/2.5/weather?appid=fe26e61e3773caebdade519f9d254704&units=imperial&q=basco,Philippines
payo,PH,17.33472366996324,129.0097131249973,http://api.openweathermap.org/data/2.5/weather?appid=fe26e61e3773caebdade519f9d254704&units=imperial&q=payo,Philippines
bacuit,PH,13.626226826255618,114.67344737875544,http://api.openweathermap.org/data/2.5/weather?appid=fe26e61e3773caebdade519f9d254704&units=imperial&q=bacuit,Philippines
davila,PH,19.70425787282045,117.99328314639473,http://api.openweathermap.org/data/2.5/weather?appid=fe26e61e3773caebdade519f9d254704&units=imperial&q=davila,Philippines
gigmoto,PH,15.038095462670071,126.60768872851816,http://api.openweathermap.org/data/2.5/weather?appid=fe26e61e3773caebdade519f9d254704&units=imperial&q=gigmoto,Philippines
jandayan,PH,10.209766006409595,124.16000358425856,http://api.openweathermap.org/data/2.5/weather?appid=fe26e61e3773caebdade519f9d254704&units=imperial&q=jandayan,Philippines
san vicente,PH,18.96829994117884,125.39616862780224,http://api.openweathermap.org/data/2.5/weather?appid=fe26e61e3773caebdade519f9d254704&units=imperial&q=san vicente,Philippines
axim,GH,-0.2694820464269583,-2.22727797076206,http://api.openweathermap.org/data/2.5/weather?appid=fe26e61e3773caebdade519f9d254704&units=imperial&q=axim,Ghana
riberalta,BO,-12.134452810651666,-66.61402971775505,http://api.openweathermap.org/data/2.5/weather?appid=fe26e61e3773caebdade519f9d254704&units=imperial&q=riberalta,"Bolivia, Plurinational State of"
san jose,BO,-18.51038332271706,-61.68951703925539,http://api.openweathermap.org/data/2.5/weather?appid=fe26e61e3773caebdade519f9d254704&units=imperial&q=san jose,"Bolivia, Plurinational State of"
san pedro,BO,-17.186562351337955,-59.31659669473636,http://api.openweathermap.org/data/2.5/weather?appid=fe26e61e3773caebdade519f9d254704&units=imperial&q=san pedro,"Bolivia, Plurinational State of"
sangin,AF,32.325184751531665,64.68382034959274,http://api.openweathermap.org/data/2.5/weather?appid=fe26e61e3773caebdade519f9d254704&units=imperial&q=sangin,Afghanistan
oksfjord,NO,72.96339715160357,22.000296807283803,http://api.openweathermap.org/data/2.5/weather?appid=fe26e61e3773caebdade519f9d254704&units=imperial&q=oksfjord,Norway
gravdal,NO,72.88927822044073,10.778920557391217,http://api.openweathermap.org/data/2.5/weather?appid=fe26e61e3773caebdade519f9d254704&units=imperial&q=gravdal,Norway
sorland,NO,68.91484593006786,11.947328329301513,http://api.openweathermap.org/data/2.5/weather?appid=fe26e61e3773caebdade519f9d254704&units=imperial&q=sorland,Norway
myre,NO,68.98971032041044,15.951869199747478,http://api.openweathermap.org/data/2.5/weather?appid=fe26e61e3773caebdade519f9d254704&units=imperial&q=myre,Norway
raudeberg,NO,70.5015296639942,-0.2857922316621,http://api.openweathermap.org/data/2.5/weather?appid=fe26e61e3773caebdade519f9d254704&units=imperial&q=raudeberg,Norway
vardo,NO,75.63172836738778,32.55532713898643,http://api.openweathermap.org/data/2.5/weather?appid=fe26e61e3773caebdade519f9d254704&units=imperial&q=vardo,Norway
mehamn,NO,78.18250526633258,27.254318914321004,http://api.openweathermap.org/data/2.5/weather?appid=fe26e61e3773caebdade519f9d254704&units=imperial&q=mehamn,Norway
berlevag,NO,74.67790561993345,29.897305225104702,http://api.openweathermap.org/data/2.5/weather?appid=fe26e61e3773caebdade519f9d254704&units=imperial&q=berlevag,Norway
vao,NC,-25.880588497039355,169.7167604038816,http://api.openweathermap.org/data/2.5/weather?appid=fe26e61e3773caebdade519f9d254704&units=imperial&q=vao,New Caledonia
pouembout,NC,-21.802695801873497,164.3139371956171,http://api.openweathermap.org/data/2.5/weather?appid=fe26e61e3773caebdade519f9d254704&units=imperial&q=pouembout,New Caledonia
oistins,BB,12.65709530142793,-58.88254737412389,http://api.openweathermap.org/data/2.5/weather?appid=fe26e61e3773caebdade519f9d254704&units=imperial&q=oistins,Barbados
bathsheba,BB,21.14355740478088,-48.37225397967552,http://api.openweathermap.org/data/2.5/weather?appid=fe26e61e3773caebdade519f9d254704&units=imperial&q=bathsheba,Barbados
manzil salim,TN,35.27319737142956,7.525523237149912,http://api.openweathermap.org/data/2.5/weather?appid=fe26e61e3773caebdade519f9d254704&units=imperial&q=manzil salim,Tunisia
duz,TN,33.074193040449714,9.459752183837395,http://api.openweathermap.org/data/2.5/weather?appid=fe26e61e3773caebdade519f9d254704&units=imperial&q=duz,Tunisia
quang ngai,VN,15.514429616676765,109.94773448286861,http://api.openweathermap.org/data/2.5/weather?appid=fe26e61e3773caebdade519f9d254704&units=imperial&q=quang ngai,Viet Nam
son la,VN,20.948526843122266,104.16181292771165,http://api.openweathermap.org/data/2.5/weather?appid=fe26e61e3773caebdade519f9d254704&units=imperial&q=son la,Viet Nam
cam ranh,VN,11.618109051950185,113.04933787097065,http://api.openweathermap.org/data/2.5/weather?appid=fe26e61e3773caebdade519f9d254704&units=imperial&q=cam ranh,Viet Nam
omboue,GA,-6.264592353143428,3.1222520352380627,http://api.openweathermap.org/data/2.5/weather?appid=fe26e61e3773caebdade519f9d254704&units=imperial&q=omboue,Gabon
gamba,GA,-8.864934095057663,3.023944354944831,http://api.openweathermap.org/data/2.5/weather?appid=fe26e61e3773caebdade519f9d254704&units=imperial&q=gamba,Gabon
port-gentil,GA,-2.757716461872022,1.925683848572021,http://api.openweathermap.org/data/2.5/weather?appid=fe26e61e3773caebdade519f9d254704&units=imperial&q=port-gentil,Gabon
keuruu,FI,62.26703066381552,24.11697394969721,http://api.openweathermap.org/data/2.5/weather?appid=fe26e61e3773caebdade519f9d254704&units=imperial&q=keuruu,Finland
kajaani,FI,64.92052111504327,27.604179793072575,http://api.openweathermap.org/data/2.5/weather?appid=fe26e61e3773caebdade519f9d254704&units=imperial&q=kajaani,Finland
kemijarvi,FI,68.36915077112019,27.902472794368464,http://api.openweathermap.org/data/2.5/weather?appid=fe26e61e3773caebdade519f9d254704&units=imperial&q=kemijarvi,Finland
the valley,AI,22.973731961596258,-61.655587471010676,http://api.openweathermap.org/data/2.5/weather?appid=fe26e61e3773caebdade519f9d254704&units=imperial&q=the valley,Anguilla
road town,VG,21.499399866644495,-64.4744486674673,http://api.openweathermap.org/data/2.5/weather?appid=fe26e61e3773caebdade519f9d254704&units=imperial&q=road town,"Virgin Islands, British"
wahran,DZ,34.62420888375466,-0.46793294297074794,http://api.openweathermap.org/data/2.5/weather?appid=fe26e61e3773caebdade519f9d254704&units=imperial&q=wahran,Algeria
aflu,DZ,33.60126929400826,0.7530769853039772,http://api.openweathermap.org/data/2.5/weather?appid=fe26e61e3773caebdade519f9d254704&units=imperial&q=aflu,Algeria
gat,LY,23.425332952470413,10.352067439238795,http://api.openweathermap.org/data/2.5/weather?appid=fe26e61e3773caebdade519f9d254704&units=imperial&q=gat,Libya
marzuq,LY,24.007295810520844,16.103098630722087,http://api.openweathermap.org/data/2.5/weather?appid=fe26e61e3773caebdade519f9d254704&units=imperial&q=marzuq,Libya
sabha,LY,25.504397094943997,16.25459678388819,http://api.openweathermap.org/data/2.5/weather?appid=fe26e61e3773caebdade519f9d254704&units=imperial&q=sabha,Libya
jalu,LY,25.520157391585045,22.399134374127954,http://api.openweathermap.org/data/2.5/weather?appid=fe26e61e3773caebdade519f9d254704&units=imperial&q=jalu,Libya
nalut,LY,32.191287177319936,10.376857997671465,http://api.openweathermap.org/data/2.5/weather?appid=fe26e61e3773caebdade519f9d254704&units=imperial&q=nalut,Libya
ponta do sol,CV,16.735761970018885,-38.20395924507426,http://api.openweathermap.org/data/2.5/weather?appid=fe26e61e3773caebdade519f9d254704&units=imperial&q=ponta do sol,Cape Verde
sao filipe,CV,12.339632172507777,-30.987838782243898,http://api.openweathermap.org/data/2.5/weather?appid=fe26e61e3773caebdade519f9d254704&units=imperial&q=sao filipe,Cape Verde
el aguila,CO,4.922359788272502,-76.0507673691875,http://api.openweathermap.org/data/2.5/weather?appid=fe26e61e3773caebdade519f9d254704&units=imperial&q=el aguila,Colombia
cravo norte,CO,6.399095394597651,-69.32719309795677,http://api.openweathermap.org/data/2.5/weather?appid=fe26e61e3773caebdade519f9d254704&units=imperial&q=cravo norte,Colombia
valledupar,CO,10.497873840433869,-73.18898051405571,http://api.openweathermap.org/data/2.5/weather?appid=fe26e61e3773caebdade519f9d254704&units=imperial&q=valledupar,Colombia
valle del guamuez,CO,0.4304190519952016,-77.00885507167169,http://api.openweathermap.org/data/2.5/weather?appid=fe26e61e3773caebdade519f9d254704&units=imperial&q=valle del guamuez,Colombia
mattru,SL,5.230124271525682,-13.263390753119353,http://api.openweathermap.org/data/2.5/weather?appid=fe26e61e3773caebdade519f9d254704&units=imperial&q=mattru,Sierra Leone
bonthe,SL,1.3212583761167167,-19.784679259401884,http://api.openweathermap.org/data/2.5/weather?appid=fe26e61e3773caebdade519f9d254704&units=imperial&q=bonthe,Sierra Leone
nara,ML,15.100481936749034,-8.237261923439235,http://api.openweathermap.org/data/2.5/weather?appid=fe26e61e3773caebdade519f9d254704&units=imperial&q=nara,Mali
nioro,ML,16.728369628718113,-9.575548001346249,http://api.openweathermap.org/data/2.5/weather?appid=fe26e61e3773caebdade519f9d254704&units=imperial&q=nioro,Mali
tessalit,ML,20.81290974975242,4.277037223332826,http://api.openweathermap.org/data/2.5/weather?appid=fe26e61e3773caebdade519f9d254704&units=imperial&q=tessalit,Mali
la asuncion,VE,13.599768015834414,-64.38851460123162,http://api.openweathermap.org/data/2.5/weather?appid=fe26e61e3773caebdade519f9d254704&units=imperial&q=la asuncion,"Venezuela, Bolivarian Republic of"
ribeira grande,PT,42.20233538638951,-40.9504278280115,http://api.openweathermap.org/data/2.5/weather?appid=fe26e61e3773caebdade519f9d254704&units=imperial&q=ribeira grande,Portugal
lagoa,PT,50.65424654203591,-32.439035073475736,http://api.openweathermap.org/data/2.5/weather?appid=fe26e61e3773caebdade519f9d254704&units=imperial&q=lagoa,Portugal
vila franca do campo,PT,42.12167093600337,-21.902209587421567,http://api.openweathermap.org/data/2.5/weather?appid=fe26e61e3773caebdade519f9d254704&units=imperial&q=vila franca do campo,Portugal
aljezur,PT,36.704567125187694,-10.155096365982104,http://api.openweathermap.org/data/2.5/weather?appid=fe26e61e3773caebdade519f9d254704&units=imperial&q=aljezur,Portugal
lolua,TV,-7.347314146451737,172.49418139945834,http://api.openweathermap.org/data/2.5/weather?appid=fe26e61e3773caebdade519f9d254704&units=imperial&q=lolua,Tuvalu
asau,TV,-14.146216357632554,177.71293864506816,http://api.openweathermap.org/data/2.5/weather?appid=fe26e61e3773caebdade519f9d254704&units=imperial&q=asau,Tuvalu
sola,VU,-14.339673562652493,172.56560952641382,http://api.openweathermap.org/data/2.5/weather?appid=fe26e61e3773caebdade519f9d254704&units=imperial&q=sola,Vanuatu
msanga,TZ,-5.635172309975218,35.812217909534525,http://api.openweathermap.org/data/2.5/weather?appid=fe26e61e3773caebdade519f9d254704&units=imperial&q=msanga,"Tanzania, United Republic of"
mahanje,TZ,-10.246802705881663,35.36261433601027,http://api.openweathermap.org/data/2.5/weather?appid=fe26e61e3773caebdade519f9d254704&units=imperial&q=mahanje,"Tanzania, United Republic of"
sokoni,TZ,-6.481707468671544,39.85300944261016,http://api.openweathermap.org/data/2.5/weather?appid=fe26e61e3773caebdade519f9d254704&units=imperial&q=sokoni,"Tanzania, United Republic of"
kibaya,TZ,-5.0458605317660385,36.219684345524314,http://api.openweathermap.org/data/2.5/weather?appid=fe26e61e3773caebdade519f9d254704&units=imperial&q=kibaya,"Tanzania, United Republic of"
kilindoni,TZ,-7.190899788138665,40.27670403812064,http://api.openweathermap.org/data/2.5/weather?appid=fe26e61e3773caebdade519f9d254704&units=imperial&q=kilindoni,"Tanzania, United Republic of"
kadrina,EE,59.30472785101031,26.079894309424873,http://api.openweathermap.org/data/2.5/weather?appid=fe26e61e3773caebdade519f9d254704&units=imperial&q=kadrina,Estonia
saint george,BM,34.94850982517667,-62.32170648923504,http://api.openweathermap.org/data/2.5/weather?appid=fe26e61e3773caebdade519f9d254704&units=imperial&q=saint george,Bermuda
hamilton,BM,29.576451628125255,-69.76307630000491,http://api.openweathermap.org/data/2.5/weather?appid=fe26e61e3773caebdade519f9d254704&units=imperial&q=hamilton,Bermuda
avarua,CK,-36.988729761798936,-158.44602690036243,http://api.openweathermap.org/data/2.5/weather?appid=fe26e61e3773caebdade519f9d254704&units=imperial&q=avarua,Cook Islands
pala,TD,9.603344186048417,14.901159710448411,http://api.openweathermap.org/data/2.5/weather?appid=fe26e61e3773caebdade519f9d254704&units=imperial&q=pala,Chad
biltine,TD,15.017256415210426,21.46465590014617,http://api.openweathermap.org/data/2.5/weather?appid=fe26e61e3773caebdade519f9d254704&units=imperial&q=biltine,Chad
goure,NE,14.173182602850986,10.234927709445998,http://api.openweathermap.org/data/2.5/weather?appid=fe26e61e3773caebdade519f9d254704&units=imperial&q=goure,Niger
arlit,NE,18.706047452755712,6.758014795285419,http://api.openweathermap.org/data/2.5/weather?appid=fe26e61e3773caebdade519f9d254704&units=imperial&q=arlit,Niger
bilma,NE,21.02948719166872,12.92026904295966,http://api.openweathermap.org/data/2.5/weather?appid=fe26e61e3773caebdade519f9d254704&units=imperial&q=bilma,Niger
agadez,NE,17.925154720302174,9.378387841556275,http://api.openweathermap.org/data/2.5/weather?appid=fe26e61e3773caebdade519f9d254704&units=imperial&q=agadez,Niger
diffa,NE,14.102217544525132,12.774947140079007,http://api.openweathermap.org/data/2.5/weather?appid=fe26e61e3773caebdade519f9d254704&units=imperial&q=diffa,Niger
airai,PW,13.681421972039246,138.5519790649327,http://api.openweathermap.org/data/2.5/weather?appid=fe26e61e3773caebdade519f9d254704&units=imperial&q=airai,Palau
kloulklubed,PW,6.59585895224599,132.4219442260449,http://api.openweathermap.org/data/2.5/weather?appid=fe26e61e3773caebdade519f9d254704&units=imperial&q=kloulklubed,Palau
si satchanalai,TH,17.62746019612588,99.55403295800693,http://api.openweathermap.org/data/2.5/weather?appid=fe26e61e3773caebdade519f9d254704&units=imperial&q=si satchanalai,Thailand
gwadar,PK,21.9351661500381,63.17958895373482,http://api.openweathermap.org/data/2.5/weather?appid=fe26e61e3773caebdade519f9d254704&units=imperial&q=gwadar,Pakistan
keti bandar,PK,23.983247664112838,66.5451259026859,http://api.openweathermap.org/data/2.5/weather?appid=fe26e61e3773caebdade519f9d254704&units=imperial&q=keti bandar,Pakistan
boddam,GB,56.77449837597774,-0.7322434258660735,http://api.openweathermap.org/data/2.5/weather?appid=fe26e61e3773caebdade519f9d254704&units=imperial&q=boddam,United Kingdom
ullapool,GB,58.33579789807817,-5.549147037356477,http://api.openweathermap.org/data/2.5/weather?appid=fe26e61e3773caebdade519f9d254704&units=imperial&q=ullapool,United Kingdom
sohag,EG,25.855657190303035,31.142181184589987,http://api.openweathermap.org/data/2.5/weather?appid=fe26e61e3773caebdade519f9d254704&units=imperial&q=sohag,Egypt
suez,EG,28.70585139054566,32.701137064230636,http://api.openweathermap.org/data/2.5/weather?appid=fe26e61e3773caebdade519f9d254704&units=imperial&q=suez,Egypt
safaga,EG,25.99250575212359,34.94915834386708,http://api.openweathermap.org/data/2.5/weather?appid=fe26e61e3773caebdade519f9d254704&units=imperial&q=safaga,Egypt
sayyan,YE,16.13301677881489,45.003335750489555,http://api.openweathermap.org/data/2.5/weather?appid=fe26e61e3773caebdade519f9d254704&units=imperial&q=sayyan,Yemen
kivertsi,UA,50.815664496125294,25.54415823446817,http://api.openweathermap.org/data/2.5/weather?appid=fe26e61e3773caebdade519f9d254704&units=imperial&q=kivertsi,Ukraine
kalabo,ZM,-14.735147919948844,20.907106199723728,http://api.openweathermap.org/data/2.5/weather?appid=fe26e61e3773caebdade519f9d254704&units=imperial&q=kalabo,Zambia
nyimba,ZM,-14.279758181015495,30.295498299741126,http://api.openweathermap.org/data/2.5/weather?appid=fe26e61e3773caebdade519f9d254704&units=imperial&q=nyimba,Zambia
serenje,ZM,-12.891480329749427,30.52460954340279,http://api.openweathermap.org/data/2.5/weather?appid=fe26e61e3773caebdade519f9d254704&units=imperial&q=serenje,Zambia
nakonde,ZM,-9.4273605853856,32.5785034397239,http://api.openweathermap.org/data/2.5/weather?appid=fe26e61e3773caebdade519f9d254704&units=imperial&q=nakonde,Zambia
hobyo,SO,4.850108306883939,47.793350476652506,http://api.openweathermap.org/data/2.5/weather?appid=fe26e61e3773caebdade519f9d254704&units=imperial&q=hobyo,Somalia
bargal,SO,9.435817587710773,58.74475527566736,http://api.openweathermap.org/data/2.5/weather?appid=fe26e61e3773caebdade519f9d254704&units=imperial&q=bargal,Somalia
garowe,SO,9.892462837150987,48.56238727912114,http://api.openweathermap.org/data/2.5/weather?appid=fe26e61e3773caebdade519f9d254704&units=imperial&q=garowe,Somalia
bandarbeyla,SO,8.532889236088664,51.37952006430288,http://api.openweathermap.org/data/2.5/weather?appid=fe26e61e3773caebdade519f9d254704&units=imperial&q=bandarbeyla,Somalia
bitola,MK,41.02300740128862,21.344566003435887,http://api.openweathermap.org/data/2.5/weather?appid=fe26e61e3773caebdade519f9d254704&units=imperial&q=bitola,"Macedonia, the Former Yugoslav Republic of"
hithadhoo,MV,1.599668945385531,76.95300892872393,http://api.openweathermap.org/data/2.5/weather?appid=fe26e61e3773caebdade519f9d254704&units=imperial&q=hithadhoo,Maldives
thinadhoo,MV,0.6017253900571973,68.75189223186692,http://api.openweathermap.org/data/2.5/weather?appid=fe26e61e3773caebdade519f9d254704&units=imperial&q=thinadhoo,Maldives
ugoofaaru,MV,5.768167139216871,65.04262336937472,http://api.openweathermap.org/data/2.5/weather?appid=fe26e61e3773caebdade519f9d254704&units=imperial&q=ugoofaaru,Maldives
sinnamary,GF,9.206371211624358,-50.92518553947312,http://api.openweathermap.org/data/2.5/weather?appid=fe26e61e3773caebdade519f9d254704&units=imperial&q=sinnamary,French Guiana
sefophe,BW,-22.189816127118974,27.843597315506457,http://api.openweathermap.org/data/2.5/weather?appid=fe26e61e3773caebdade519f9d254704&units=imperial&q=sefophe,Botswana
wajir,KE,2.7108084472354506,40.43723994489699,http://api.openweathermap.org/data/2.5/weather?appid=fe26e61e3773caebdade519f9d254704&units=imperial&q=wajir,Kenya
maralal,KE,1.1602513255392495,36.75570803939465,http://api.openweathermap.org/data/2.5/weather?appid=fe26e61e3773caebdade519f9d254704&units=imperial&q=maralal,Kenya
cuamba,MZ,-14.42037381219015,37.932504875098516,http://api.openweathermap.org/data/2.5/weather?appid=fe26e61e3773caebdade519f9d254704&units=imperial&q=cuamba,Mozambique
nacala,MZ,-13.920634525455526,41.30896559471282,http://api.openweathermap.org/data/2.5/weather?appid=fe26e61e3773caebdade519f9d254704&units=imperial&q=nacala,Mozambique
mocambique,MZ,-15.343418236837422,40.66773015333919,http://api.openweathermap.org/data/2.5/weather?appid=fe26e61e3773caebdade519f9d254704&units=imperial&q=mocambique,Mozambique
galle,LK,4.756473278429155,79.43029459248567,http://api.openweathermap.org/data/2.5/weather?appid=fe26e61e3773caebdade519f9d254704&units=imperial&q=galle,Sri Lanka
hambantota,LK,-5.002068326201567,85.86580231992963,http://api.openweathermap.org/data/2.5/weather?appid=fe26e61e3773caebdade519f9d254704&units=imperial&q=hambantota,Sri Lanka
kalmunai,LK,7.522180386343322,87.37530936346161,http://api.openweathermap.org/data/2.5/weather?appid=fe26e61e3773caebdade519f9d254704&units=imperial&q=kalmunai,Sri Lanka
matara,LK,2.4768252860420574,81.46518577206876,http://api.openweathermap.org/data/2.5/weather?appid=fe26e61e3773caebdade519f9d254704&units=imperial&q=matara,Sri Lanka
jega,NG,11.59687488976057,4.380247854728964,http://api.openweathermap.org/data/2.5/weather?appid=fe26e61e3773caebdade519f9d254704&units=imperial&q=jega,Nigeria
kontagora,NG,9.94456032065112,4.783076967227828,http://api.openweathermap.org/data/2.5/weather?appid=fe26e61e3773caebdade519f9d254704&units=imperial&q=kontagora,Nigeria
opobo,NG,4.166662372232992,7.725935213432024,http://api.openweathermap.org/data/2.5/weather?appid=fe26e61e3773caebdade519f9d254704&units=imperial&q=opobo,Nigeria
bubaque,GW,10.152713645904697,-17.57573972853669,http://api.openweathermap.org/data/2.5/weather?appid=fe26e61e3773caebdade519f9d254704&units=imperial&q=bubaque,Guinea-Bissau
riyadh,SA,23.103752100787943,48.51914261209009,http://api.openweathermap.org/data/2.5/weather?appid=fe26e61e3773caebdade519f9d254704&units=imperial&q=riyadh,Saudi Arabia
nouadhibou,MR,22.95081701286881,-15.771201515404215,http://api.openweathermap.org/data/2.5/weather?appid=fe26e61e3773caebdade519f9d254704&units=imperial&q=nouadhibou,Mauritania
nouakchott,MR,17.87846954443863,-16.781515842759774,http://api.openweathermap.org/data/2.5/weather?appid=fe26e61e3773caebdade519f9d254704&units=imperial&q=nouakchott,Mauritania
atar,MR,20.09209814798264,-8.618129673584491,http://api.openweathermap.org/data/2.5/weather?appid=fe26e61e3773caebdade519f9d254704&units=imperial&q=atar,Mauritania
vaitupu,WF,-0.015009588442779886,-174.03522906835664,http://api.openweathermap.org/data/2.5/weather?appid=fe26e61e3773caebdade519f9d254704&units=imperial&q=vaitupu,Wallis and Futuna
black river,JM,16.855938591020333,-79.38149570100386,http://api.openweathermap.org/data/2.5/weather?appid=fe26e61e3773caebdade519f9d254704&units=imperial&q=black river,Jamaica
lucea,JM,19.225266525359217,-78.78655145085374,http://api.openweathermap.org/data/2.5/weather?appid=fe26e61e3773caebdade519f9d254704&units=imperial&q=lucea,Jamaica
chitungwiza,ZW,-18.19751032611002,31.186648020755,http://api.openweathermap.org/data/2.5/weather?appid=fe26e61e3773caebdade519f9d254704&units=imperial&q=chitungwiza,Zimbabwe
belm,DE,52.29164059817077,8.099241531696862,http://api.openweathermap.org/data/2.5/weather?appid=fe26e61e3773caebdade519f9d254704&units=imperial&q=belm,Germany
abiy adi,ET,13.694671265014563,39.060022708739496,http://api.openweathermap.org/data/2.5/weather?appid=fe26e61e3773caebdade519f9d254704&units=imperial&q=abiy adi,Ethiopia
areka,ET,7.544758645565452,37.731889510200006,http://api.openweathermap.org/data/2.5/weather?appid=fe26e61e3773caebdade519f9d254704&units=imperial&q=areka,Ethiopia
dese,ET,11.107703545493521,39.44212183611427,http://api.openweathermap.org/data/2.5/weather?appid=fe26e61e3773caebdade519f9d254704&units=imperial&q=dese,Ethiopia
mrirt,MA,30.879094595557646,-2.800191796228546,http://api.openweathermap.org/data/2.5/weather?appid=fe26e61e3773caebdade519f9d254704&units=imperial&q=mrirt,Morocco
glarus,CH,46.939273749879135,8.99205850031268,http://api.openweathermap.org/data/2.5/weather?appid=fe26e61e3773caebdade519f9d254704&units=imperial&q=glarus,Switzerland
cattolica,IT,44.49608996481311,12.98664486399332,http://api.openweathermap.org/data/2.5/weather?appid=fe26e61e3773caebdade519f9d254704&units=imperial&q=cattolica,Italy
pachino,IT,35.977329123215824,15.849314704409807,http://api.openweathermap.org/data/2.5/weather?appid=fe26e61e3773caebdade519f9d254704&units=imperial&q=pachino,Italy
kedougou,SN,12.982306054829309,-11.56606682155143,http://api.openweathermap.org/data/2.5/weather?appid=fe26e61e3773caebdade519f9d254704&units=imperial&q=kedougou,Senegal
chvaletice,CZ,50.04473690072058,15.473025435008793,http://api.openweathermap.org/data/2.5/weather?appid=fe26e61e3773caebdade519f9d254704&units=imperial&q=chvaletice,Czech Republic
canaries,LC,13.959647144652493,-62.01846592418836,http://api.openweathermap.org/data/2.5/weather?appid=fe26e61e3773caebdade519f9d254704&units=imperial&q=canaries,Saint Lucia
baghdad,IQ,32.11311606315731,45.12317419671069,http://api.openweathermap.org/data/2.5/weather?appid=fe26e61e3773caebdade519f9d254704&units=imperial&q=baghdad,Iraq
barra patuca,HN,16.03953710820747,-83.90250115920904,http://api.openweathermap.org/data/2.5/weather?appid=fe26e61e3773caebdade519f9d254704&units=imperial&q=barra patuca,Honduras
gra liyia,GR,34.98888267880153,25.55282445497366,http://api.openweathermap.org/data/2.5/weather?appid=fe26e61e3773caebdade519f9d254704&units=imperial&q=gra liyia,Greece
bujumbura,BI,-3.368098575440655,29.255554564634934,http://api.openweathermap.org/data/2.5/weather?appid=fe26e61e3773caebdade519f9d254704&units=imperial&q=bujumbura,Burundi
kamuli,UG,1.2247292983522726,33.34847938043123,http://api.openweathermap.org/data/2.5/weather?appid=fe26e61e3773caebdade519f9d254704&units=imperial&q=kamuli,Uganda
jibuti,DJ,11.742083442696,44.344344353741434,http://api.openweathermap.org/data/2.5/weather?appid=fe26e61e3773caebdade519f9d254704&units=imperial&q=jibuti,Djibouti
strenci,LV,57.38102562853106,25.665757406563472,http://api.openweathermap.org/data/2.5/weather?appid=fe26e61e3773caebdade519f9d254704&units=imperial&q=strenci,Latvia
gorom-gorom,BF,14.934783197974753,-0.2665931439345002,http://api.openweathermap.org/data/2.5/weather?appid=fe26e61e3773caebdade519f9d254704&units=imperial&q=gorom-gorom,Burkina Faso
saint-pierre,PM,42.545757070652144,-56.39735052951822,http://api.openweathermap.org/data/2.5/weather?appid=fe26e61e3773caebdade519f9d254704&units=imperial&q=saint-pierre,Saint Pierre and Miquelon
mandalgovi,MN,42.834552302695585,107.74702576171114,http://api.openweathermap.org/data/2.5/weather?appid=fe26e61e3773caebdade519f9d254704&units=imperial&q=mandalgovi,Mongolia
