,City,Country Code,Latitude,Longitude,Name,City URL
0,tame,CO,6.263735146046741,-71.73898122383486,Colombia,http://api.openweathermap.org/data/2.5/weather?appid=fe26e61e3773caebdade519f9d254704&units=imperial&q=tame
1,albania,CO,11.261536348239432,-72.64965975704924,Colombia,http://api.openweathermap.org/data/2.5/weather?appid=fe26e61e3773caebdade519f9d254704&units=imperial&q=albania
2,puerto leguizamo,CO,0.4097648373004148,-73.34477934051596,Colombia,http://api.openweathermap.org/data/2.5/weather?appid=fe26e61e3773caebdade519f9d254704&units=imperial&q=puerto leguizamo
3,mitu,CO,0.7281242359989477,-69.34248653659085,Colombia,http://api.openweathermap.org/data/2.5/weather?appid=fe26e61e3773caebdade519f9d254704&units=imperial&q=mitu
4,inirida,CO,2.518260450455472,-68.41268261562152,Colombia,http://api.openweathermap.org/data/2.5/weather?appid=fe26e61e3773caebdade519f9d254704&units=imperial&q=inirida
5,norman wells,CA,62.6463680417173,-124.47675184512829,Canada,http://api.openweathermap.org/data/2.5/weather?appid=fe26e61e3773caebdade519f9d254704&units=imperial&q=norman wells
6,dolbeau,CA,50.964499016724005,-71.2065200739188,Canada,http://api.openweathermap.org/data/2.5/weather?appid=fe26e61e3773caebdade519f9d254704&units=imperial&q=dolbeau
7,tuktoyaktuk,CA,85.63406421339297,-119.74985069923838,Canada,http://api.openweathermap.org/data/2.5/weather?appid=fe26e61e3773caebdade519f9d254704&units=imperial&q=tuktoyaktuk
8,louisbourg,CA,45.13679031727105,-59.49358868442874,Canada,http://api.openweathermap.org/data/2.5/weather?appid=fe26e61e3773caebdade519f9d254704&units=imperial&q=louisbourg
9,shaunavon,CA,49.676293107260726,-108.32417072637446,Canada,http://api.openweathermap.org/data/2.5/weather?appid=fe26e61e3773caebdade519f9d254704&units=imperial&q=shaunavon
10,kenora,CA,52.08871372091186,-94.07073630085405,Canada,http://api.openweathermap.org/data/2.5/weather?appid=fe26e61e3773caebdade519f9d254704&units=imperial&q=kenora
11,vernon,CA,50.31266260671703,-119.64762307741941,Canada,http://api.openweathermap.org/data/2.5/weather?appid=fe26e61e3773caebdade519f9d254704&units=imperial&q=vernon
12,yellowknife,CA,73.48336774307228,-116.87525896262423,Canada,http://api.openweathermap.org/data/2.5/weather?appid=fe26e61e3773caebdade519f9d254704&units=imperial&q=yellowknife
13,aklavik,CA,73.35332864916762,-141.98304151707762,Canada,http://api.openweathermap.org/data/2.5/weather?appid=fe26e61e3773caebdade519f9d254704&units=imperial&q=aklavik
14,clyde river,CA,71.52758493047854,-75.01385529513978,Canada,http://api.openweathermap.org/data/2.5/weather?appid=fe26e61e3773caebdade519f9d254704&units=imperial&q=clyde river
15,whitehorse,CA,59.673800694955816,-134.5859271632429,Canada,http://api.openweathermap.org/data/2.5/weather?appid=fe26e61e3773caebdade519f9d254704&units=imperial&q=whitehorse
16,kindersley,CA,51.041137844873475,-110.09614206739387,Canada,http://api.openweathermap.org/data/2.5/weather?appid=fe26e61e3773caebdade519f9d254704&units=imperial&q=kindersley
17,torbay,CA,42.05185326477576,-45.026504950631306,Canada,http://api.openweathermap.org/data/2.5/weather?appid=fe26e61e3773caebdade519f9d254704&units=imperial&q=torbay
18,golden,CA,52.170578863137514,-117.00641930291046,Canada,http://api.openweathermap.org/data/2.5/weather?appid=fe26e61e3773caebdade519f9d254704&units=imperial&q=golden
19,pangnirtung,CA,67.16137194521193,-60.74696323163249,Canada,http://api.openweathermap.org/data/2.5/weather?appid=fe26e61e3773caebdade519f9d254704&units=imperial&q=pangnirtung
20,thompson,CA,65.62533602335927,-91.36575597235516,Canada,http://api.openweathermap.org/data/2.5/weather?appid=fe26e61e3773caebdade519f9d254704&units=imperial&q=thompson
21,ucluelet,CA,46.06135153941264,-127.27689607713063,Canada,http://api.openweathermap.org/data/2.5/weather?appid=fe26e61e3773caebdade519f9d254704&units=imperial&q=ucluelet
22,beaverlodge,CA,54.14880661076478,-120.18360497484669,Canada,http://api.openweathermap.org/data/2.5/weather?appid=fe26e61e3773caebdade519f9d254704&units=imperial&q=beaverlodge
23,attawapiskat,CA,68.24226845268618,-87.55084051089291,Canada,http://api.openweathermap.org/data/2.5/weather?appid=fe26e61e3773caebdade519f9d254704&units=imperial&q=attawapiskat
24,gimli,CA,53.157579428682176,-95.48184747131322,Canada,http://api.openweathermap.org/data/2.5/weather?appid=fe26e61e3773caebdade519f9d254704&units=imperial&q=gimli
25,sept-iles,CA,55.77854092108257,-65.2017847865386,Canada,http://api.openweathermap.org/data/2.5/weather?appid=fe26e61e3773caebdade519f9d254704&units=imperial&q=sept-iles
26,prince george,CA,54.159539000646326,-122.61404778502977,Canada,http://api.openweathermap.org/data/2.5/weather?appid=fe26e61e3773caebdade519f9d254704&units=imperial&q=prince george
27,port hawkesbury,CA,43.496986438392895,-61.15602527822088,Canada,http://api.openweathermap.org/data/2.5/weather?appid=fe26e61e3773caebdade519f9d254704&units=imperial&q=port hawkesbury
28,chapais,CA,51.545765340818434,-75.2338313942565,Canada,http://api.openweathermap.org/data/2.5/weather?appid=fe26e61e3773caebdade519f9d254704&units=imperial&q=chapais
29,atikokan,CA,49.078924725473605,-92.34971998001436,Canada,http://api.openweathermap.org/data/2.5/weather?appid=fe26e61e3773caebdade519f9d254704&units=imperial&q=atikokan
30,chapleau,CA,47.71556625706319,-82.34829676571759,Canada,http://api.openweathermap.org/data/2.5/weather?appid=fe26e61e3773caebdade519f9d254704&units=imperial&q=chapleau
31,iqaluit,CA,62.39472946194806,-74.37033267728954,Canada,http://api.openweathermap.org/data/2.5/weather?appid=fe26e61e3773caebdade519f9d254704&units=imperial&q=iqaluit
32,hearst,CA,49.57062130763012,-83.69644514660695,Canada,http://api.openweathermap.org/data/2.5/weather?appid=fe26e61e3773caebdade519f9d254704&units=imperial&q=hearst
33,burns lake,CA,54.37034690414843,-125.14571415969331,Canada,http://api.openweathermap.org/data/2.5/weather?appid=fe26e61e3773caebdade519f9d254704&units=imperial&q=burns lake
34,havre-saint-pierre,CA,53.64091907524158,-61.94797876648797,Canada,http://api.openweathermap.org/data/2.5/weather?appid=fe26e61e3773caebdade519f9d254704&units=imperial&q=havre-saint-pierre
35,hope,CA,48.542020026094654,-121.1166978650606,Canada,http://api.openweathermap.org/data/2.5/weather?appid=fe26e61e3773caebdade519f9d254704&units=imperial&q=hope
36,mayo,CA,64.94795612818106,-135.58691532749793,Canada,http://api.openweathermap.org/data/2.5/weather?appid=fe26e61e3773caebdade519f9d254704&units=imperial&q=mayo
37,springdale,CA,50.123461452596,-55.72382039693093,Canada,http://api.openweathermap.org/data/2.5/weather?appid=fe26e61e3773caebdade519f9d254704&units=imperial&q=springdale
38,marystown,CA,45.50295559629717,-54.76039645987976,Canada,http://api.openweathermap.org/data/2.5/weather?appid=fe26e61e3773caebdade519f9d254704&units=imperial&q=marystown
39,la ronge,CA,56.38553322278786,-105.96996651655964,Canada,http://api.openweathermap.org/data/2.5/weather?appid=fe26e61e3773caebdade519f9d254704&units=imperial&q=la ronge
40,haines junction,CA,56.44376128349367,-142.7846868436699,Canada,http://api.openweathermap.org/data/2.5/weather?appid=fe26e61e3773caebdade519f9d254704&units=imperial&q=haines junction
41,longlac,CA,55.09402081417497,-87.3483326997345,Canada,http://api.openweathermap.org/data/2.5/weather?appid=fe26e61e3773caebdade519f9d254704&units=imperial&q=longlac
42,smithers,CA,54.6217586906414,-127.13763095801056,Canada,http://api.openweathermap.org/data/2.5/weather?appid=fe26e61e3773caebdade519f9d254704&units=imperial&q=smithers
43,sechelt,CA,49.96199473292069,-123.69077914533594,Canada,http://api.openweathermap.org/data/2.5/weather?appid=fe26e61e3773caebdade519f9d254704&units=imperial&q=sechelt
44,kaitangata,NZ,-60.732923507479505,176.81899382589089,New Zealand,http://api.openweathermap.org/data/2.5/weather?appid=fe26e61e3773caebdade519f9d254704&units=imperial&q=kaitangata
45,bluff,NZ,-88.44418378701259,154.7127514041306,New Zealand,http://api.openweathermap.org/data/2.5/weather?appid=fe26e61e3773caebdade519f9d254704&units=imperial&q=bluff
46,ahipara,NZ,-34.232249610947754,165.17755666037542,New Zealand,http://api.openweathermap.org/data/2.5/weather?appid=fe26e61e3773caebdade519f9d254704&units=imperial&q=ahipara
47,kaeo,NZ,-32.919835818060086,173.88788166609066,New Zealand,http://api.openweathermap.org/data/2.5/weather?appid=fe26e61e3773caebdade519f9d254704&units=imperial&q=kaeo
48,ngunguru,NZ,-34.399913083023485,175.8505936640797,New Zealand,http://api.openweathermap.org/data/2.5/weather?appid=fe26e61e3773caebdade519f9d254704&units=imperial&q=ngunguru
49,russell,NZ,-32.719398505528034,175.27658309867113,New Zealand,http://api.openweathermap.org/data/2.5/weather?appid=fe26e61e3773caebdade519f9d254704&units=imperial&q=russell
50,tuatapere,NZ,-48.16888392627593,158.54260532865092,New Zealand,http://api.openweathermap.org/data/2.5/weather?appid=fe26e61e3773caebdade519f9d254704&units=imperial&q=tuatapere
51,honiara,SB,-14.32907575435749,157.9856486808598,Solomon Islands,http://api.openweathermap.org/data/2.5/weather?appid=fe26e61e3773caebdade519f9d254704&units=imperial&q=honiara
52,gizo,SB,-10.682658414581963,154.82400532628134,Solomon Islands,http://api.openweathermap.org/data/2.5/weather?appid=fe26e61e3773caebdade519f9d254704&units=imperial&q=gizo
53,lata,SB,-7.762660651837167,167.89688967529617,Solomon Islands,http://api.openweathermap.org/data/2.5/weather?appid=fe26e61e3773caebdade519f9d254704&units=imperial&q=lata
54,auki,SB,-2.3610997867996275,164.16193962186045,Solomon Islands,http://api.openweathermap.org/data/2.5/weather?appid=fe26e61e3773caebdade519f9d254704&units=imperial&q=auki
55,buala,SB,-6.713641056675698,160.10741969099843,Solomon Islands,http://api.openweathermap.org/data/2.5/weather?appid=fe26e61e3773caebdade519f9d254704&units=imperial&q=buala
56,mar del plata,AR,-64.2650628989109,-27.616844568610393,Argentina,http://api.openweathermap.org/data/2.5/weather?appid=fe26e61e3773caebdade519f9d254704&units=imperial&q=mar del plata
57,ushuaia,AR,-82.38526019724681,-33.15556356854913,Argentina,http://api.openweathermap.org/data/2.5/weather?appid=fe26e61e3773caebdade519f9d254704&units=imperial&q=ushuaia
58,viedma,AR,-44.58623957083744,-60.77359356702803,Argentina,http://api.openweathermap.org/data/2.5/weather?appid=fe26e61e3773caebdade519f9d254704&units=imperial&q=viedma
59,puerto madryn,AR,-40.91649190386319,-65.85581477779496,Argentina,http://api.openweathermap.org/data/2.5/weather?appid=fe26e61e3773caebdade519f9d254704&units=imperial&q=puerto madryn
60,necochea,AR,-49.63506566255879,-53.559362696731526,Argentina,http://api.openweathermap.org/data/2.5/weather?appid=fe26e61e3773caebdade519f9d254704&units=imperial&q=necochea
61,rawson,AR,-48.65871437938152,-57.995442552961286,Argentina,http://api.openweathermap.org/data/2.5/weather?appid=fe26e61e3773caebdade519f9d254704&units=imperial&q=rawson
62,comodoro rivadavia,AR,-43.498312528141405,-68.15080414215481,Argentina,http://api.openweathermap.org/data/2.5/weather?appid=fe26e61e3773caebdade519f9d254704&units=imperial&q=comodoro rivadavia
63,rafaela,AR,-29.801130002394398,-61.370307854861814,Argentina,http://api.openweathermap.org/data/2.5/weather?appid=fe26e61e3773caebdade519f9d254704&units=imperial&q=rafaela
64,nueve de julio,AR,-35.46027309191877,-61.09209860388377,Argentina,http://api.openweathermap.org/data/2.5/weather?appid=fe26e61e3773caebdade519f9d254704&units=imperial&q=nueve de julio
65,rio gallegos,AR,-49.96333843430812,-68.47890086752743,Argentina,http://api.openweathermap.org/data/2.5/weather?appid=fe26e61e3773caebdade519f9d254704&units=imperial&q=rio gallegos
66,villa carlos paz,AR,-31.631447939423122,-65.15404749591454,Argentina,http://api.openweathermap.org/data/2.5/weather?appid=fe26e61e3773caebdade519f9d254704&units=imperial&q=villa carlos paz
67,santiago del estero,AR,-29.13378893037622,-63.13188543448925,Argentina,http://api.openweathermap.org/data/2.5/weather?appid=fe26e61e3773caebdade519f9d254704&units=imperial&q=santiago del estero
68,san rafael,AR,-35.86970688179721,-66.87989558485936,Argentina,http://api.openweathermap.org/data/2.5/weather?appid=fe26e61e3773caebdade519f9d254704&units=imperial&q=san rafael
69,neuquen,AR,-38.511146393925564,-68.1706459250677,Argentina,http://api.openweathermap.org/data/2.5/weather?appid=fe26e61e3773caebdade519f9d254704&units=imperial&q=neuquen
70,mataura,PF,-75.60543034699373,-165.58765965606315,French Polynesia,http://api.openweathermap.org/data/2.5/weather?appid=fe26e61e3773caebdade519f9d254704&units=imperial&q=mataura
71,rikitea,PF,-88.71980184134445,-127.35303606772457,French Polynesia,http://api.openweathermap.org/data/2.5/weather?appid=fe26e61e3773caebdade519f9d254704&units=imperial&q=rikitea
72,atuona,PF,-12.742114681420446,-144.5068712116869,French Polynesia,http://api.openweathermap.org/data/2.5/weather?appid=fe26e61e3773caebdade519f9d254704&units=imperial&q=atuona
73,tiarei,PF,-11.852322098570239,-146.0048472947243,French Polynesia,http://api.openweathermap.org/data/2.5/weather?appid=fe26e61e3773caebdade519f9d254704&units=imperial&q=tiarei
74,faanui,PF,-11.93652514033599,-151.19348063088228,French Polynesia,http://api.openweathermap.org/data/2.5/weather?appid=fe26e61e3773caebdade519f9d254704&units=imperial&q=faanui
75,hermanus,ZA,-88.23159138653715,11.176693869151736,South Africa,http://api.openweathermap.org/data/2.5/weather?appid=fe26e61e3773caebdade519f9d254704&units=imperial&q=hermanus
76,cape town,ZA,-80.26453347871661,-14.034671541900053,South Africa,http://api.openweathermap.org/data/2.5/weather?appid=fe26e61e3773caebdade519f9d254704&units=imperial&q=cape town
77,port alfred,ZA,-86.00821956900576,55.79728408488046,South Africa,http://api.openweathermap.org/data/2.5/weather?appid=fe26e61e3773caebdade519f9d254704&units=imperial&q=port alfred
78,bredasdorp,ZA,-38.716372688226784,21.800124287469092,South Africa,http://api.openweathermap.org/data/2.5/weather?appid=fe26e61e3773caebdade519f9d254704&units=imperial&q=bredasdorp
79,richards bay,ZA,-31.732906937036518,37.11185060575974,South Africa,http://api.openweathermap.org/data/2.5/weather?appid=fe26e61e3773caebdade519f9d254704&units=imperial&q=richards bay
80,port elizabeth,ZA,-67.79249194107281,30.89035957359363,South Africa,http://api.openweathermap.org/data/2.5/weather?appid=fe26e61e3773caebdade519f9d254704&units=imperial&q=port elizabeth
81,east london,ZA,-51.49304768968658,38.34746500620449,South Africa,http://api.openweathermap.org/data/2.5/weather?appid=fe26e61e3773caebdade519f9d254704&units=imperial&q=east london
82,grabouw,ZA,-34.16484336773852,19.134241844658703,South Africa,http://api.openweathermap.org/data/2.5/weather?appid=fe26e61e3773caebdade519f9d254704&units=imperial&q=grabouw
83,kimberley,ZA,-29.103460622195893,25.22262923305527,South Africa,http://api.openweathermap.org/data/2.5/weather?appid=fe26e61e3773caebdade519f9d254704&units=imperial&q=kimberley
84,umzimvubu,ZA,-36.137026494999226,32.72661400772088,South Africa,http://api.openweathermap.org/data/2.5/weather?appid=fe26e61e3773caebdade519f9d254704&units=imperial&q=umzimvubu
85,springbok,ZA,-30.68745950578566,18.062856859910198,South Africa,http://api.openweathermap.org/data/2.5/weather?appid=fe26e61e3773caebdade519f9d254704&units=imperial&q=springbok
86,plettenberg bay,ZA,-41.26469210086764,23.00146956070768,South Africa,http://api.openweathermap.org/data/2.5/weather?appid=fe26e61e3773caebdade519f9d254704&units=imperial&q=plettenberg bay
87,saldanha,ZA,-37.52706985839631,6.143504285645889,South Africa,http://api.openweathermap.org/data/2.5/weather?appid=fe26e61e3773caebdade519f9d254704&units=imperial&q=saldanha
88,bambous virieux,MU,-36.51250632206265,79.64293408807873,Mauritius,http://api.openweathermap.org/data/2.5/weather?appid=fe26e61e3773caebdade519f9d254704&units=imperial&q=bambous virieux
89,quatre cocos,MU,-16.345384707448687,66.10509762182636,Mauritius,http://api.openweathermap.org/data/2.5/weather?appid=fe26e61e3773caebdade519f9d254704&units=imperial&q=quatre cocos
90,grand gaube,MU,-11.394701050242348,63.811965887271526,Mauritius,http://api.openweathermap.org/data/2.5/weather?appid=fe26e61e3773caebdade519f9d254704&units=imperial&q=grand gaube
91,mahebourg,MU,-40.31968491548549,80.15865944913368,Mauritius,http://api.openweathermap.org/data/2.5/weather?appid=fe26e61e3773caebdade519f9d254704&units=imperial&q=mahebourg
92,souillac,MU,-54.60881235466537,77.07553996578605,Mauritius,http://api.openweathermap.org/data/2.5/weather?appid=fe26e61e3773caebdade519f9d254704&units=imperial&q=souillac
93,grand river south east,MU,-22.754803594055844,78.50178664180369,Mauritius,http://api.openweathermap.org/data/2.5/weather?appid=fe26e61e3773caebdade519f9d254704&units=imperial&q=grand river south east
94,cap malheureux,MU,-15.245926260458331,58.59919407796238,Mauritius,http://api.openweathermap.org/data/2.5/weather?appid=fe26e61e3773caebdade519f9d254704&units=imperial&q=cap malheureux
95,alyangula,AU,-13.205784223915146,136.04193536081178,Australia,http://api.openweathermap.org/data/2.5/weather?appid=fe26e61e3773caebdade519f9d254704&units=imperial&q=alyangula
96,new norfolk,AU,-51.01226839776187,143.5222842021457,Australia,http://api.openweathermap.org/data/2.5/weather?appid=fe26e61e3773caebdade519f9d254704&units=imperial&q=new norfolk
97,moree,AU,-29.045824984182843,147.6794091123021,Australia,http://api.openweathermap.org/data/2.5/weather?appid=fe26e61e3773caebdade519f9d254704&units=imperial&q=moree
98,ulladulla,AU,-37.68418171103309,155.1434967584249,Australia,http://api.openweathermap.org/data/2.5/weather?appid=fe26e61e3773caebdade519f9d254704&units=imperial&q=ulladulla
99,roma,AU,-25.45210194840088,149.38218086594156,Australia,http://api.openweathermap.org/data/2.5/weather?appid=fe26e61e3773caebdade519f9d254704&units=imperial&q=roma
100,albany,AU,-75.20197705189314,113.38700001762226,Australia,http://api.openweathermap.org/data/2.5/weather?appid=fe26e61e3773caebdade519f9d254704&units=imperial&q=albany
101,busselton,AU,-64.19855491852472,80.68095276345133,Australia,http://api.openweathermap.org/data/2.5/weather?appid=fe26e61e3773caebdade519f9d254704&units=imperial&q=busselton
102,esperance,AU,-33.52334369942516,123.00601480726009,Australia,http://api.openweathermap.org/data/2.5/weather?appid=fe26e61e3773caebdade519f9d254704&units=imperial&q=esperance
103,karratha,AU,-19.702107037480214,112.66084095821135,Australia,http://api.openweathermap.org/data/2.5/weather?appid=fe26e61e3773caebdade519f9d254704&units=imperial&q=karratha
104,port macquarie,AU,-32.09624262950361,157.6835619985829,Australia,http://api.openweathermap.org/data/2.5/weather?appid=fe26e61e3773caebdade519f9d254704&units=imperial&q=port macquarie
105,carnarvon,AU,-20.580042777744964,107.18696609192568,Australia,http://api.openweathermap.org/data/2.5/weather?appid=fe26e61e3773caebdade519f9d254704&units=imperial&q=carnarvon
106,katherine,AU,-16.322541574802273,133.06768167843728,Australia,http://api.openweathermap.org/data/2.5/weather?appid=fe26e61e3773caebdade519f9d254704&units=imperial&q=katherine
107,yulara,AU,-23.800613925987392,130.0461973324471,Australia,http://api.openweathermap.org/data/2.5/weather?appid=fe26e61e3773caebdade519f9d254704&units=imperial&q=yulara
108,mildura,AU,-33.05540250824268,142.0308352906871,Australia,http://api.openweathermap.org/data/2.5/weather?appid=fe26e61e3773caebdade519f9d254704&units=imperial&q=mildura
109,coolum beach,AU,-25.506059015589386,156.597454391229,Australia,http://api.openweathermap.org/data/2.5/weather?appid=fe26e61e3773caebdade519f9d254704&units=imperial&q=coolum beach
110,mount isa,AU,-18.262836280593053,141.41428926957042,Australia,http://api.openweathermap.org/data/2.5/weather?appid=fe26e61e3773caebdade519f9d254704&units=imperial&q=mount isa
111,hobart,AU,-82.51419952189009,138.5746686793023,Australia,http://api.openweathermap.org/data/2.5/weather?appid=fe26e61e3773caebdade519f9d254704&units=imperial&q=hobart
112,alice springs,AU,-22.07108792539184,134.59208729824798,Australia,http://api.openweathermap.org/data/2.5/weather?appid=fe26e61e3773caebdade519f9d254704&units=imperial&q=alice springs
113,portland,AU,-42.12251779176098,139.51373671116704,Australia,http://api.openweathermap.org/data/2.5/weather?appid=fe26e61e3773caebdade519f9d254704&units=imperial&q=portland
114,yeppoon,AU,-21.890190488049765,150.64173000854703,Australia,http://api.openweathermap.org/data/2.5/weather?appid=fe26e61e3773caebdade519f9d254704&units=imperial&q=yeppoon
115,emerald,AU,-24.83844687652248,145.25772829090926,Australia,http://api.openweathermap.org/data/2.5/weather?appid=fe26e61e3773caebdade519f9d254704&units=imperial&q=emerald
116,geraldton,AU,-33.881081391395625,94.29534405992621,Australia,http://api.openweathermap.org/data/2.5/weather?appid=fe26e61e3773caebdade519f9d254704&units=imperial&q=geraldton
117,broken hill,AU,-26.081196161059125,142.70868765954134,Australia,http://api.openweathermap.org/data/2.5/weather?appid=fe26e61e3773caebdade519f9d254704&units=imperial&q=broken hill
118,lakes entrance,AU,-38.66285562087845,147.79460774958514,Australia,http://api.openweathermap.org/data/2.5/weather?appid=fe26e61e3773caebdade519f9d254704&units=imperial&q=lakes entrance
119,ingham,AU,-18.69292526717767,146.68728926515416,Australia,http://api.openweathermap.org/data/2.5/weather?appid=fe26e61e3773caebdade519f9d254704&units=imperial&q=ingham
120,mount gambier,AU,-39.51112888908379,140.2287263898271,Australia,http://api.openweathermap.org/data/2.5/weather?appid=fe26e61e3773caebdade519f9d254704&units=imperial&q=mount gambier
121,casino,AU,-28.50968178011097,152.74896712884373,Australia,http://api.openweathermap.org/data/2.5/weather?appid=fe26e61e3773caebdade519f9d254704&units=imperial&q=casino
122,dalby,AU,-26.74026542664496,150.2346265077404,Australia,http://api.openweathermap.org/data/2.5/weather?appid=fe26e61e3773caebdade519f9d254704&units=imperial&q=dalby
123,mackay,AU,-21.884180598766278,148.89592618442964,Australia,http://api.openweathermap.org/data/2.5/weather?appid=fe26e61e3773caebdade519f9d254704&units=imperial&q=mackay
124,burnie,AU,-41.283271536502035,144.10212527411522,Australia,http://api.openweathermap.org/data/2.5/weather?appid=fe26e61e3773caebdade519f9d254704&units=imperial&q=burnie
125,sydney,AU,-33.60229537022005,151.02937582428012,Australia,http://api.openweathermap.org/data/2.5/weather?appid=fe26e61e3773caebdade519f9d254704&units=imperial&q=sydney
126,port lincoln,AU,-36.4851496690618,132.5474973761203,Australia,http://api.openweathermap.org/data/2.5/weather?appid=fe26e61e3773caebdade519f9d254704&units=imperial&q=port lincoln
127,nhulunbuy,AU,-9.695536999803352,136.84548345161542,Australia,http://api.openweathermap.org/data/2.5/weather?appid=fe26e61e3773caebdade519f9d254704&units=imperial&q=nhulunbuy
128,charters towers,AU,-20.04553460496126,143.34322844859517,Australia,http://api.openweathermap.org/data/2.5/weather?appid=fe26e61e3773caebdade519f9d254704&units=imperial&q=charters towers
129,gawler,AU,-34.02570552834395,138.19824531811264,Australia,http://api.openweathermap.org/data/2.5/weather?appid=fe26e61e3773caebdade519f9d254704&units=imperial&q=gawler
130,punta arenas,CL,-71.56893113015889,-104.9492144475728,Chile,http://api.openweathermap.org/data/2.5/weather?appid=fe26e61e3773caebdade519f9d254704&units=imperial&q=punta arenas
131,castro,CL,-56.6516288175013,-110.8520070266383,Chile,http://api.openweathermap.org/data/2.5/weather?appid=fe26e61e3773caebdade519f9d254704&units=imperial&q=castro
132,coihaique,CL,-48.10783188456347,-72.8201113834955,Chile,http://api.openweathermap.org/data/2.5/weather?appid=fe26e61e3773caebdade519f9d254704&units=imperial&q=coihaique
133,ancud,CL,-40.98624689391104,-89.68566265913246,Chile,http://api.openweathermap.org/data/2.5/weather?appid=fe26e61e3773caebdade519f9d254704&units=imperial&q=ancud
134,teno,CL,-35.11404345194713,-70.71977850337791,Chile,http://api.openweathermap.org/data/2.5/weather?appid=fe26e61e3773caebdade519f9d254704&units=imperial&q=teno
135,lebu,CL,-39.186245075464655,-85.6263637038392,Chile,http://api.openweathermap.org/data/2.5/weather?appid=fe26e61e3773caebdade519f9d254704&units=imperial&q=lebu
136,vicuna,CL,-29.861718046618925,-70.28889346400182,Chile,http://api.openweathermap.org/data/2.5/weather?appid=fe26e61e3773caebdade519f9d254704&units=imperial&q=vicuna
137,coquimbo,CL,-27.959087226555773,-75.11714882062081,Chile,http://api.openweathermap.org/data/2.5/weather?appid=fe26e61e3773caebdade519f9d254704&units=imperial&q=coquimbo
138,tocopilla,CL,-22.497432003438988,-71.7631774403271,Chile,http://api.openweathermap.org/data/2.5/weather?appid=fe26e61e3773caebdade519f9d254704&units=imperial&q=tocopilla
139,nizhneyansk,RU,89.37256200283554,140.0578253859428,Russian Federation,http://api.openweathermap.org/data/2.5/weather?appid=fe26e61e3773caebdade519f9d254704&units=imperial&q=nizhneyansk
140,provideniya,RU,45.60478854130022,-174.62054606211328,Russian Federation,http://api.openweathermap.org/data/2.5/weather?appid=fe26e61e3773caebdade519f9d254704&units=imperial&q=provideniya
141,afrikanda,RU,66.96169542399096,32.93182031489809,Russian Federation,http://api.openweathermap.org/data/2.5/weather?appid=fe26e61e3773caebdade519f9d254704&units=imperial&q=afrikanda
142,zavodskoy,RU,43.62202755069538,132.45603280314123,Russian Federation,http://api.openweathermap.org/data/2.5/weather?appid=fe26e61e3773caebdade519f9d254704&units=imperial&q=zavodskoy
143,belyy yar,RU,60.565361015300816,86.2594598430636,Russian Federation,http://api.openweathermap.org/data/2.5/weather?appid=fe26e61e3773caebdade519f9d254704&units=imperial&q=belyy yar
144,petropavlovsk-kamchatskiy,RU,49.67058682094779,161.1363960915399,Russian Federation,http://api.openweathermap.org/data/2.5/weather?appid=fe26e61e3773caebdade519f9d254704&units=imperial&q=petropavlovsk-kamchatskiy
145,chokurdakh,RU,82.61888915930031,144.1766163508194,Russian Federation,http://api.openweathermap.org/data/2.5/weather?appid=fe26e61e3773caebdade519f9d254704&units=imperial&q=chokurdakh
146,saskylakh,RU,80.41568312408981,119.00609559286079,Russian Federation,http://api.openweathermap.org/data/2.5/weather?appid=fe26e61e3773caebdade519f9d254704&units=imperial&q=saskylakh
147,kotelnikovo,RU,47.7050046325019,43.041575509826316,Russian Federation,http://api.openweathermap.org/data/2.5/weather?appid=fe26e61e3773caebdade519f9d254704&units=imperial&q=kotelnikovo
148,tilichiki,RU,60.5319165122433,171.5782120051012,Russian Federation,http://api.openweathermap.org/data/2.5/weather?appid=fe26e61e3773caebdade519f9d254704&units=imperial&q=tilichiki
149,dikson,RU,86.61478793777457,89.04238702161251,Russian Federation,http://api.openweathermap.org/data/2.5/weather?appid=fe26e61e3773caebdade519f9d254704&units=imperial&q=dikson
150,turukhansk,RU,63.63765560047046,85.97098808756651,Russian Federation,http://api.openweathermap.org/data/2.5/weather?appid=fe26e61e3773caebdade519f9d254704&units=imperial&q=turukhansk
151,eldikan,RU,60.3412656595595,135.76087342798462,Russian Federation,http://api.openweathermap.org/data/2.5/weather?appid=fe26e61e3773caebdade519f9d254704&units=imperial&q=eldikan
152,birobidzhan,RU,48.98129861640669,133.05251822391915,Russian Federation,http://api.openweathermap.org/data/2.5/weather?appid=fe26e61e3773caebdade519f9d254704&units=imperial&q=birobidzhan
153,yefremov,RU,53.135487065572306,38.07155385989475,Russian Federation,http://api.openweathermap.org/data/2.5/weather?appid=fe26e61e3773caebdade519f9d254704&units=imperial&q=yefremov
154,rudnogorsk,RU,57.90974333432854,104.012397393705,Russian Federation,http://api.openweathermap.org/data/2.5/weather?appid=fe26e61e3773caebdade519f9d254704&units=imperial&q=rudnogorsk
155,uk,RU,54.106614218711464,97.62615678558882,Russian Federation,http://api.openweathermap.org/data/2.5/weather?appid=fe26e61e3773caebdade519f9d254704&units=imperial&q=uk
156,inta,RU,68.02059476288113,59.72009698151533,Russian Federation,http://api.openweathermap.org/data/2.5/weather?appid=fe26e61e3773caebdade519f9d254704&units=imperial&q=inta
157,tiksi,RU,88.61723742798065,125.54110449511136,Russian Federation,http://api.openweathermap.org/data/2.5/weather?appid=fe26e61e3773caebdade519f9d254704&units=imperial&q=tiksi
158,khonuu,RU,67.52249003917275,142.9065439713709,Russian Federation,http://api.openweathermap.org/data/2.5/weather?appid=fe26e61e3773caebdade519f9d254704&units=imperial&q=khonuu
159,zyryanka,RU,67.64152282810133,150.84853240833746,Russian Federation,http://api.openweathermap.org/data/2.5/weather?appid=fe26e61e3773caebdade519f9d254704&units=imperial&q=zyryanka
160,khatanga,RU,73.76856887702081,106.04404916364945,Russian Federation,http://api.openweathermap.org/data/2.5/weather?appid=fe26e61e3773caebdade519f9d254704&units=imperial&q=khatanga
161,ossora,RU,58.01420355778754,163.7867113001127,Russian Federation,http://api.openweathermap.org/data/2.5/weather?appid=fe26e61e3773caebdade519f9d254704&units=imperial&q=ossora
162,magadan,RU,54.732016947607185,150.58991053774344,Russian Federation,http://api.openweathermap.org/data/2.5/weather?appid=fe26e61e3773caebdade519f9d254704&units=imperial&q=magadan
163,sobolevo,RU,56.17911656614717,154.0461303378496,Russian Federation,http://api.openweathermap.org/data/2.5/weather?appid=fe26e61e3773caebdade519f9d254704&units=imperial&q=sobolevo
164,belushya guba,RU,82.88824771294169,46.2153410650387,Russian Federation,http://api.openweathermap.org/data/2.5/weather?appid=fe26e61e3773caebdade519f9d254704&units=imperial&q=belushya guba
165,salym,RU,60.4928908059851,71.86413008981755,Russian Federation,http://api.openweathermap.org/data/2.5/weather?appid=fe26e61e3773caebdade519f9d254704&units=imperial&q=salym
166,vysokogornyy,RU,49.50423778706779,138.76489220431432,Russian Federation,http://api.openweathermap.org/data/2.5/weather?appid=fe26e61e3773caebdade519f9d254704&units=imperial&q=vysokogornyy
167,pevek,RU,70.76929199368217,168.0170253955031,Russian Federation,http://api.openweathermap.org/data/2.5/weather?appid=fe26e61e3773caebdade519f9d254704&units=imperial&q=pevek
168,ozernovskiy,RU,51.703146087134684,155.93823860519242,Russian Federation,http://api.openweathermap.org/data/2.5/weather?appid=fe26e61e3773caebdade519f9d254704&units=imperial&q=ozernovskiy
169,zhigansk,RU,67.26286225598932,123.67434057463085,Russian Federation,http://api.openweathermap.org/data/2.5/weather?appid=fe26e61e3773caebdade519f9d254704&units=imperial&q=zhigansk
170,krasnyy chikoy,RU,49.74797258269084,108.88852786749744,Russian Federation,http://api.openweathermap.org/data/2.5/weather?appid=fe26e61e3773caebdade519f9d254704&units=imperial&q=krasnyy chikoy
171,kargapolye,RU,55.8636444802001,64.08421889443869,Russian Federation,http://api.openweathermap.org/data/2.5/weather?appid=fe26e61e3773caebdade519f9d254704&units=imperial&q=kargapolye
172,bilibino,RU,70.48632717481834,166.610073418946,Russian Federation,http://api.openweathermap.org/data/2.5/weather?appid=fe26e61e3773caebdade519f9d254704&units=imperial&q=bilibino
173,leningradskiy,RU,81.71953924548876,178.29693051373192,Russian Federation,http://api.openweathermap.org/data/2.5/weather?appid=fe26e61e3773caebdade519f9d254704&units=imperial&q=leningradskiy
174,pleshanovo,RU,52.60930546123336,53.69064703626401,Russian Federation,http://api.openweathermap.org/data/2.5/weather?appid=fe26e61e3773caebdade519f9d254704&units=imperial&q=pleshanovo
175,ostrovnoy,RU,69.18735157638949,39.73382048453385,Russian Federation,http://api.openweathermap.org/data/2.5/weather?appid=fe26e61e3773caebdade519f9d254704&units=imperial&q=ostrovnoy
176,nikolskoye,RU,40.850271004899895,173.155171815185,Russian Federation,http://api.openweathermap.org/data/2.5/weather?appid=fe26e61e3773caebdade519f9d254704&units=imperial&q=nikolskoye
177,kuzhener,RU,57.136491030584146,48.72901743062644,Russian Federation,http://api.openweathermap.org/data/2.5/weather?appid=fe26e61e3773caebdade519f9d254704&units=imperial&q=kuzhener
178,amderma,RU,73.16052376589431,64.5280402287166,Russian Federation,http://api.openweathermap.org/data/2.5/weather?appid=fe26e61e3773caebdade519f9d254704&units=imperial&q=amderma
179,nyrob,RU,61.14227109369497,56.15247385413596,Russian Federation,http://api.openweathermap.org/data/2.5/weather?appid=fe26e61e3773caebdade519f9d254704&units=imperial&q=nyrob
180,komsomolskiy,RU,65.41042885037282,173.4340065497574,Russian Federation,http://api.openweathermap.org/data/2.5/weather?appid=fe26e61e3773caebdade519f9d254704&units=imperial&q=komsomolskiy
181,vzmorye,RU,47.97585740740408,142.71139295027194,Russian Federation,http://api.openweathermap.org/data/2.5/weather?appid=fe26e61e3773caebdade519f9d254704&units=imperial&q=vzmorye
182,vostok,RU,49.76034354336372,147.01390064881554,Russian Federation,http://api.openweathermap.org/data/2.5/weather?appid=fe26e61e3773caebdade519f9d254704&units=imperial&q=vostok
183,yuzhno-yeniseyskiy,RU,59.00608867793474,94.106730147129,Russian Federation,http://api.openweathermap.org/data/2.5/weather?appid=fe26e61e3773caebdade519f9d254704&units=imperial&q=yuzhno-yeniseyskiy
184,verkhnyaya inta,RU,64.84840961459561,61.02927862282724,Russian Federation,http://api.openweathermap.org/data/2.5/weather?appid=fe26e61e3773caebdade519f9d254704&units=imperial&q=verkhnyaya inta
185,mys shmidta,RU,80.46929187301168,-176.08996314161834,Russian Federation,http://api.openweathermap.org/data/2.5/weather?appid=fe26e61e3773caebdade519f9d254704&units=imperial&q=mys shmidta
186,aykhal,RU,68.36643203057392,109.75966968277129,Russian Federation,http://api.openweathermap.org/data/2.5/weather?appid=fe26e61e3773caebdade519f9d254704&units=imperial&q=aykhal
187,pushchino,RU,54.909619933846464,37.684011501744315,Russian Federation,http://api.openweathermap.org/data/2.5/weather?appid=fe26e61e3773caebdade519f9d254704&units=imperial&q=pushchino
188,beringovskiy,RU,62.43209331021918,178.7239243324954,Russian Federation,http://api.openweathermap.org/data/2.5/weather?appid=fe26e61e3773caebdade519f9d254704&units=imperial&q=beringovskiy
189,deputatskiy,RU,74.63194856733472,141.58593278953845,Russian Federation,http://api.openweathermap.org/data/2.5/weather?appid=fe26e61e3773caebdade519f9d254704&units=imperial&q=deputatskiy
190,cherskiy,RU,67.63052729595645,159.40247710148572,Russian Federation,http://api.openweathermap.org/data/2.5/weather?appid=fe26e61e3773caebdade519f9d254704&units=imperial&q=cherskiy
191,igarka,RU,67.34785251190058,84.60001056159348,Russian Federation,http://api.openweathermap.org/data/2.5/weather?appid=fe26e61e3773caebdade519f9d254704&units=imperial&q=igarka
192,evensk,RU,61.091553831679896,159.0718307645045,Russian Federation,http://api.openweathermap.org/data/2.5/weather?appid=fe26e61e3773caebdade519f9d254704&units=imperial&q=evensk
193,noyabrsk,RU,62.926297019235534,75.13575632527747,Russian Federation,http://api.openweathermap.org/data/2.5/weather?appid=fe26e61e3773caebdade519f9d254704&units=imperial&q=noyabrsk
194,turtas,RU,59.20033326267375,69.21174793625829,Russian Federation,http://api.openweathermap.org/data/2.5/weather?appid=fe26e61e3773caebdade519f9d254704&units=imperial&q=turtas
195,anadyr,RU,63.50378778010969,172.00157972888474,Russian Federation,http://api.openweathermap.org/data/2.5/weather?appid=fe26e61e3773caebdade519f9d254704&units=imperial&q=anadyr
196,ayan,RU,57.70647514070046,135.57107021742814,Russian Federation,http://api.openweathermap.org/data/2.5/weather?appid=fe26e61e3773caebdade519f9d254704&units=imperial&q=ayan
197,talnakh,RU,75.52110619026291,89.76067941152735,Russian Federation,http://api.openweathermap.org/data/2.5/weather?appid=fe26e61e3773caebdade519f9d254704&units=imperial&q=talnakh
198,severo-kurilsk,RU,44.241628122890376,156.63543179619742,Russian Federation,http://api.openweathermap.org/data/2.5/weather?appid=fe26e61e3773caebdade519f9d254704&units=imperial&q=severo-kurilsk
199,yar-sale,RU,71.40615256880706,69.53775285429134,Russian Federation,http://api.openweathermap.org/data/2.5/weather?appid=fe26e61e3773caebdade519f9d254704&units=imperial&q=yar-sale
200,nerchinsk,RU,52.149900206469404,116.54097500028645,Russian Federation,http://api.openweathermap.org/data/2.5/weather?appid=fe26e61e3773caebdade519f9d254704&units=imperial&q=nerchinsk
201,bagdarin,RU,53.81735536050326,114.36079180910014,Russian Federation,http://api.openweathermap.org/data/2.5/weather?appid=fe26e61e3773caebdade519f9d254704&units=imperial&q=bagdarin
202,cheuskiny,RU,61.21465930368237,72.34058662813621,Russian Federation,http://api.openweathermap.org/data/2.5/weather?appid=fe26e61e3773caebdade519f9d254704&units=imperial&q=cheuskiny
203,baykit,RU,62.08445390623672,96.9307825504867,Russian Federation,http://api.openweathermap.org/data/2.5/weather?appid=fe26e61e3773caebdade519f9d254704&units=imperial&q=baykit
204,preobrazheniye,RU,40.781109237006824,135.72791142079717,Russian Federation,http://api.openweathermap.org/data/2.5/weather?appid=fe26e61e3773caebdade519f9d254704&units=imperial&q=preobrazheniye
205,sentyabrskiy,RU,39.69707432952825,152.70477931763102,Russian Federation,http://api.openweathermap.org/data/2.5/weather?appid=fe26e61e3773caebdade519f9d254704&units=imperial&q=sentyabrskiy
206,ust-kulom,RU,61.43346219800122,52.85887492613664,Russian Federation,http://api.openweathermap.org/data/2.5/weather?appid=fe26e61e3773caebdade519f9d254704&units=imperial&q=ust-kulom
207,kozhevnikovo,RU,56.20228058131423,83.65009418189891,Russian Federation,http://api.openweathermap.org/data/2.5/weather?appid=fe26e61e3773caebdade519f9d254704&units=imperial&q=kozhevnikovo
208,selikhino,RU,51.13970106306735,137.76392803347107,Russian Federation,http://api.openweathermap.org/data/2.5/weather?appid=fe26e61e3773caebdade519f9d254704&units=imperial&q=selikhino
209,leshukonskoye,RU,67.81810366392925,47.63466577622074,Russian Federation,http://api.openweathermap.org/data/2.5/weather?appid=fe26e61e3773caebdade519f9d254704&units=imperial&q=leshukonskoye
210,chagda,RU,58.87002309185132,130.05815153691844,Russian Federation,http://api.openweathermap.org/data/2.5/weather?appid=fe26e61e3773caebdade519f9d254704&units=imperial&q=chagda
211,kamenka,RU,43.4957289707325,136.3559511972843,Russian Federation,http://api.openweathermap.org/data/2.5/weather?appid=fe26e61e3773caebdade519f9d254704&units=imperial&q=kamenka
212,tumannyy,RU,78.60204541231099,39.573182165722535,Russian Federation,http://api.openweathermap.org/data/2.5/weather?appid=fe26e61e3773caebdade519f9d254704&units=imperial&q=tumannyy
213,zeya,RU,55.20012968729617,129.10409108543078,Russian Federation,http://api.openweathermap.org/data/2.5/weather?appid=fe26e61e3773caebdade519f9d254704&units=imperial&q=zeya
214,shikhazany,RU,55.37797552492111,47.23861239763664,Russian Federation,http://api.openweathermap.org/data/2.5/weather?appid=fe26e61e3773caebdade519f9d254704&units=imperial&q=shikhazany
215,zavyalovo,RU,56.81170598831443,53.553300815619075,Russian Federation,http://api.openweathermap.org/data/2.5/weather?appid=fe26e61e3773caebdade519f9d254704&units=imperial&q=zavyalovo
216,kamenskoye,RU,62.71094944826851,166.9711637961072,Russian Federation,http://api.openweathermap.org/data/2.5/weather?appid=fe26e61e3773caebdade519f9d254704&units=imperial&q=kamenskoye
217,zarya,RU,60.350859555876724,48.23487736038419,Russian Federation,http://api.openweathermap.org/data/2.5/weather?appid=fe26e61e3773caebdade519f9d254704&units=imperial&q=zarya
218,srednekolymsk,RU,69.06650454522358,156.1798903397712,Russian Federation,http://api.openweathermap.org/data/2.5/weather?appid=fe26e61e3773caebdade519f9d254704&units=imperial&q=srednekolymsk
219,lavrentiya,RU,72.55293548306146,-167.07604781439937,Russian Federation,http://api.openweathermap.org/data/2.5/weather?appid=fe26e61e3773caebdade519f9d254704&units=imperial&q=lavrentiya
220,mikun,RU,62.658465181210545,49.73670293024161,Russian Federation,http://api.openweathermap.org/data/2.5/weather?appid=fe26e61e3773caebdade519f9d254704&units=imperial&q=mikun
221,oktyabrskiy,RU,52.46701404484418,156.05225874830097,Russian Federation,http://api.openweathermap.org/data/2.5/weather?appid=fe26e61e3773caebdade519f9d254704&units=imperial&q=oktyabrskiy
222,taoudenni,ML,21.627619017002374,-3.897561525245294,Mali,http://api.openweathermap.org/data/2.5/weather?appid=fe26e61e3773caebdade519f9d254704&units=imperial&q=taoudenni
223,tombouctou,ML,17.250449903401687,-1.912772239984605,Mali,http://api.openweathermap.org/data/2.5/weather?appid=fe26e61e3773caebdade519f9d254704&units=imperial&q=tombouctou
224,kidal,ML,18.5146577026148,3.7245548986900583,Mali,http://api.openweathermap.org/data/2.5/weather?appid=fe26e61e3773caebdade519f9d254704&units=imperial&q=kidal
225,araouane,ML,18.843151041312282,-1.3325298524630398,Mali,http://api.openweathermap.org/data/2.5/weather?appid=fe26e61e3773caebdade519f9d254704&units=imperial&q=araouane
226,nara,ML,15.367141502440901,-8.168964638536638,Mali,http://api.openweathermap.org/data/2.5/weather?appid=fe26e61e3773caebdade519f9d254704&units=imperial&q=nara
227,kita,ML,12.929229253077507,-8.982672672045226,Mali,http://api.openweathermap.org/data/2.5/weather?appid=fe26e61e3773caebdade519f9d254704&units=imperial&q=kita
228,kayes,ML,14.502473031184335,-11.47509072239032,Mali,http://api.openweathermap.org/data/2.5/weather?appid=fe26e61e3773caebdade519f9d254704&units=imperial&q=kayes
229,meridian,US,32.35755888603409,-89.34605647273607,United States,http://api.openweathermap.org/data/2.5/weather?appid=fe26e61e3773caebdade519f9d254704&units=imperial&q=meridian
230,hilo,US,25.819815381845146,-144.9060648901469,United States,http://api.openweathermap.org/data/2.5/weather?appid=fe26e61e3773caebdade519f9d254704&units=imperial&q=hilo
231,barrow,US,86.11602518475011,-157.04441155139625,United States,http://api.openweathermap.org/data/2.5/weather?appid=fe26e61e3773caebdade519f9d254704&units=imperial&q=barrow
232,millinocket,US,45.38007740037489,-69.34160523912709,United States,http://api.openweathermap.org/data/2.5/weather?appid=fe26e61e3773caebdade519f9d254704&units=imperial&q=millinocket
233,elizabeth city,US,33.77852750047542,-72.24854787191165,United States,http://api.openweathermap.org/data/2.5/weather?appid=fe26e61e3773caebdade519f9d254704&units=imperial&q=elizabeth city
234,kodiak,US,51.01076064749341,-154.3225475158816,United States,http://api.openweathermap.org/data/2.5/weather?appid=fe26e61e3773caebdade519f9d254704&units=imperial&q=kodiak
235,eureka,US,40.96263466113504,-125.51294773243313,United States,http://api.openweathermap.org/data/2.5/weather?appid=fe26e61e3773caebdade519f9d254704&units=imperial&q=eureka
236,ridgecrest,US,36.06233374664321,-116.90313328071791,United States,http://api.openweathermap.org/data/2.5/weather?appid=fe26e61e3773caebdade519f9d254704&units=imperial&q=ridgecrest
237,kapaa,US,38.287946963219696,-161.819627117881,United States,http://api.openweathermap.org/data/2.5/weather?appid=fe26e61e3773caebdade519f9d254704&units=imperial&q=kapaa
238,franklin,US,35.84428827461586,-86.89099716353348,United States,http://api.openweathermap.org/data/2.5/weather?appid=fe26e61e3773caebdade519f9d254704&units=imperial&q=franklin
239,olean,US,42.03345416682009,-78.07616849089773,United States,http://api.openweathermap.org/data/2.5/weather?appid=fe26e61e3773caebdade519f9d254704&units=imperial&q=olean
240,orangeburg,US,33.329993705033274,-80.50466943229378,United States,http://api.openweathermap.org/data/2.5/weather?appid=fe26e61e3773caebdade519f9d254704&units=imperial&q=orangeburg
241,ahuimanu,US,34.135543197521685,-153.26644618714408,United States,http://api.openweathermap.org/data/2.5/weather?appid=fe26e61e3773caebdade519f9d254704&units=imperial&q=ahuimanu
242,laurel,US,45.33714723889068,-108.83191351125356,United States,http://api.openweathermap.org/data/2.5/weather?appid=fe26e61e3773caebdade519f9d254704&units=imperial&q=laurel
243,huntsville,US,31.10272278893051,-95.32723463654585,United States,http://api.openweathermap.org/data/2.5/weather?appid=fe26e61e3773caebdade519f9d254704&units=imperial&q=huntsville
244,bethel,US,55.03474759825917,-165.5948109348609,United States,http://api.openweathermap.org/data/2.5/weather?appid=fe26e61e3773caebdade519f9d254704&units=imperial&q=bethel
245,pacific grove,US,26.940934198018113,-135.42454100346555,United States,http://api.openweathermap.org/data/2.5/weather?appid=fe26e61e3773caebdade519f9d254704&units=imperial&q=pacific grove
246,rawlins,US,41.34378182463976,-106.64411518317415,United States,http://api.openweathermap.org/data/2.5/weather?appid=fe26e61e3773caebdade519f9d254704&units=imperial&q=rawlins
247,sitka,US,46.26766181438549,-139.7309307108508,United States,http://api.openweathermap.org/data/2.5/weather?appid=fe26e61e3773caebdade519f9d254704&units=imperial&q=sitka
248,north bend,US,44.208988389200414,-128.86882521132742,United States,http://api.openweathermap.org/data/2.5/weather?appid=fe26e61e3773caebdade519f9d254704&units=imperial&q=north bend
249,nome,US,67.85546301115127,-162.30615760211376,United States,http://api.openweathermap.org/data/2.5/weather?appid=fe26e61e3773caebdade519f9d254704&units=imperial&q=nome
250,fort madison,US,40.492959200283885,-91.1557308937031,United States,http://api.openweathermap.org/data/2.5/weather?appid=fe26e61e3773caebdade519f9d254704&units=imperial&q=fort madison
251,isla vista,US,30.619459725100004,-121.01649415678816,United States,http://api.openweathermap.org/data/2.5/weather?appid=fe26e61e3773caebdade519f9d254704&units=imperial&q=isla vista
252,college,US,71.76932163030986,-147.91612749664782,United States,http://api.openweathermap.org/data/2.5/weather?appid=fe26e61e3773caebdade519f9d254704&units=imperial&q=college
253,grand prairie,US,32.765390824824706,-97.04350473184651,United States,http://api.openweathermap.org/data/2.5/weather?appid=fe26e61e3773caebdade519f9d254704&units=imperial&q=grand prairie
254,lompoc,US,30.202029745235382,-127.08997190858278,United States,http://api.openweathermap.org/data/2.5/weather?appid=fe26e61e3773caebdade519f9d254704&units=imperial&q=lompoc
255,honolulu,US,21.017367879307674,-157.66892824001238,United States,http://api.openweathermap.org/data/2.5/weather?appid=fe26e61e3773caebdade519f9d254704&units=imperial&q=honolulu
256,fort myers beach,US,25.712180523608378,-83.34519531207656,United States,http://api.openweathermap.org/data/2.5/weather?appid=fe26e61e3773caebdade519f9d254704&units=imperial&q=fort myers beach
257,plymouth,US,41.51020826222623,-86.4744188614317,United States,http://api.openweathermap.org/data/2.5/weather?appid=fe26e61e3773caebdade519f9d254704&units=imperial&q=plymouth
258,fortuna,US,36.540745778519,-131.97033109119184,United States,http://api.openweathermap.org/data/2.5/weather?appid=fe26e61e3773caebdade519f9d254704&units=imperial&q=fortuna
259,houma,US,29.229648520619694,-90.59358994215046,United States,http://api.openweathermap.org/data/2.5/weather?appid=fe26e61e3773caebdade519f9d254704&units=imperial&q=houma
260,fairbanks,US,70.74096859645695,-143.0119303203889,United States,http://api.openweathermap.org/data/2.5/weather?appid=fe26e61e3773caebdade519f9d254704&units=imperial&q=fairbanks
261,jasper,US,33.61996534831256,-87.58897833283069,United States,http://api.openweathermap.org/data/2.5/weather?appid=fe26e61e3773caebdade519f9d254704&units=imperial&q=jasper
262,havelock,US,30.833115936789284,-73.11568631684507,United States,http://api.openweathermap.org/data/2.5/weather?appid=fe26e61e3773caebdade519f9d254704&units=imperial&q=havelock
263,key west,US,25.134796639149254,-82.24686497764927,United States,http://api.openweathermap.org/data/2.5/weather?appid=fe26e61e3773caebdade519f9d254704&units=imperial&q=key west
264,lexington,US,35.803835739504386,-80.3636309572376,United States,http://api.openweathermap.org/data/2.5/weather?appid=fe26e61e3773caebdade519f9d254704&units=imperial&q=lexington
265,wasilla,US,63.63482631973696,-149.56649832460337,United States,http://api.openweathermap.org/data/2.5/weather?appid=fe26e61e3773caebdade519f9d254704&units=imperial&q=wasilla
266,brekstad,NO,63.73911342324993,9.674078420721713,Norway,http://api.openweathermap.org/data/2.5/weather?appid=fe26e61e3773caebdade519f9d254704&units=imperial&q=brekstad
267,vestbygda,NO,56.24757808324068,5.553881875824089,Norway,http://api.openweathermap.org/data/2.5/weather?appid=fe26e61e3773caebdade519f9d254704&units=imperial&q=vestbygda
268,hammerfest,NO,70.68846047259,24.04562257755884,Norway,http://api.openweathermap.org/data/2.5/weather?appid=fe26e61e3773caebdade519f9d254704&units=imperial&q=hammerfest
269,roald,NO,70.78733696133159,2.5507498236649155,Norway,http://api.openweathermap.org/data/2.5/weather?appid=fe26e61e3773caebdade519f9d254704&units=imperial&q=roald
270,vardo,NO,88.5098443485009,36.32488489156921,Norway,http://api.openweathermap.org/data/2.5/weather?appid=fe26e61e3773caebdade519f9d254704&units=imperial&q=vardo
271,hof,NO,61.35421247640347,13.474992622690394,Norway,http://api.openweathermap.org/data/2.5/weather?appid=fe26e61e3773caebdade519f9d254704&units=imperial&q=hof
272,mehamn,NO,87.69403989740829,29.54179389332864,Norway,http://api.openweathermap.org/data/2.5/weather?appid=fe26e61e3773caebdade519f9d254704&units=imperial&q=mehamn
273,skjervoy,NO,74.3872171021493,20.219266660602838,Norway,http://api.openweathermap.org/data/2.5/weather?appid=fe26e61e3773caebdade519f9d254704&units=imperial&q=skjervoy
274,finnsnes,NO,71.10896987527973,17.406264884468214,Norway,http://api.openweathermap.org/data/2.5/weather?appid=fe26e61e3773caebdade519f9d254704&units=imperial&q=finnsnes
275,sorland,NO,67.68409165962467,10.87972042268504,Norway,http://api.openweathermap.org/data/2.5/weather?appid=fe26e61e3773caebdade519f9d254704&units=imperial&q=sorland
276,berlevag,NO,85.99266199067188,33.248868722737086,Norway,http://api.openweathermap.org/data/2.5/weather?appid=fe26e61e3773caebdade519f9d254704&units=imperial&q=berlevag
277,raudeberg,NO,70.41274115268001,0.7225819723583129,Norway,http://api.openweathermap.org/data/2.5/weather?appid=fe26e61e3773caebdade519f9d254704&units=imperial&q=raudeberg
278,cayenne,GF,7.094696954329223,-50.71034279279362,French Guiana,http://api.openweathermap.org/data/2.5/weather?appid=fe26e61e3773caebdade519f9d254704&units=imperial&q=cayenne
279,saint-georges,GF,3.382264343072123,-50.884409360280934,French Guiana,http://api.openweathermap.org/data/2.5/weather?appid=fe26e61e3773caebdade519f9d254704&units=imperial&q=saint-georges
280,vaini,TO,-38.07679682978303,-169.29132017822974,Tonga,http://api.openweathermap.org/data/2.5/weather?appid=fe26e61e3773caebdade519f9d254704&units=imperial&q=vaini
281,naze,JP,25.267689046881763,137.18540752564678,Japan,http://api.openweathermap.org/data/2.5/weather?appid=fe26e61e3773caebdade519f9d254704&units=imperial&q=naze
282,hirara,JP,23.542576222027225,126.66602823935727,Japan,http://api.openweathermap.org/data/2.5/weather?appid=fe26e61e3773caebdade519f9d254704&units=imperial&q=hirara
283,katsuura,JP,23.64984837014404,149.04286988191694,Japan,http://api.openweathermap.org/data/2.5/weather?appid=fe26e61e3773caebdade519f9d254704&units=imperial&q=katsuura
284,miyako,JP,39.970282706379095,144.6189742763741,Japan,http://api.openweathermap.org/data/2.5/weather?appid=fe26e61e3773caebdade519f9d254704&units=imperial&q=miyako
285,yamada,JP,38.529166579646976,144.61344697747137,Japan,http://api.openweathermap.org/data/2.5/weather?appid=fe26e61e3773caebdade519f9d254704&units=imperial&q=yamada
286,hasaki,JP,20.26213574527301,157.68203238779012,Japan,http://api.openweathermap.org/data/2.5/weather?appid=fe26e61e3773caebdade519f9d254704&units=imperial&q=hasaki
287,mikuni,JP,36.114650387253526,135.6504081096454,Japan,http://api.openweathermap.org/data/2.5/weather?appid=fe26e61e3773caebdade519f9d254704&units=imperial&q=mikuni
288,izumo,JP,36.83829158939004,131.5789555485381,Japan,http://api.openweathermap.org/data/2.5/weather?appid=fe26e61e3773caebdade519f9d254704&units=imperial&q=izumo
289,tateyama,JP,29.534734235175534,141.30112366512185,Japan,http://api.openweathermap.org/data/2.5/weather?appid=fe26e61e3773caebdade519f9d254704&units=imperial&q=tateyama
290,hirado,JP,33.28376930063959,129.42001575350628,Japan,http://api.openweathermap.org/data/2.5/weather?appid=fe26e61e3773caebdade519f9d254704&units=imperial&q=hirado
291,muroto,JP,29.75725842040336,135.12282603663164,Japan,http://api.openweathermap.org/data/2.5/weather?appid=fe26e61e3773caebdade519f9d254704&units=imperial&q=muroto
292,georgetown,SH,-9.221460712439438,-18.611658250606155,"Saint Helena, Ascension and Tristan da Cunha",http://api.openweathermap.org/data/2.5/weather?appid=fe26e61e3773caebdade519f9d254704&units=imperial&q=georgetown
293,jamestown,SH,-26.19225987949595,-20.697197486889507,"Saint Helena, Ascension and Tristan da Cunha",http://api.openweathermap.org/data/2.5/weather?appid=fe26e61e3773caebdade519f9d254704&units=imperial&q=jamestown
294,marienburg,SR,10.583570466031418,-53.8050833312593,Suriname,http://api.openweathermap.org/data/2.5/weather?appid=fe26e61e3773caebdade519f9d254704&units=imperial&q=marienburg
295,ribeira grande,PT,33.16340868668884,-40.16759947786957,Portugal,http://api.openweathermap.org/data/2.5/weather?appid=fe26e61e3773caebdade519f9d254704&units=imperial&q=ribeira grande
296,areosa,PT,41.2716693957166,-11.213616379465435,Portugal,http://api.openweathermap.org/data/2.5/weather?appid=fe26e61e3773caebdade519f9d254704&units=imperial&q=areosa
297,vila franca do campo,PT,42.457862467091424,-18.034443062471468,Portugal,http://api.openweathermap.org/data/2.5/weather?appid=fe26e61e3773caebdade519f9d254704&units=imperial&q=vila franca do campo
298,ponta delgada,PT,34.664139837857014,-26.32989491710137,Portugal,http://api.openweathermap.org/data/2.5/weather?appid=fe26e61e3773caebdade519f9d254704&units=imperial&q=ponta delgada
299,lagoa,PT,50.47311474795552,-27.74682635856081,Portugal,http://api.openweathermap.org/data/2.5/weather?appid=fe26e61e3773caebdade519f9d254704&units=imperial&q=lagoa
300,redcar,GB,55.37917899919599,-0.4701639119780623,United Kingdom,http://api.openweathermap.org/data/2.5/weather?appid=fe26e61e3773caebdade519f9d254704&units=imperial&q=redcar
301,ullapool,GB,57.828676416858336,-5.4702597702046765,United Kingdom,http://api.openweathermap.org/data/2.5/weather?appid=fe26e61e3773caebdade519f9d254704&units=imperial&q=ullapool
302,namibe,AO,-15.101317814251985,10.894161589162678,Angola,http://api.openweathermap.org/data/2.5/weather?appid=fe26e61e3773caebdade519f9d254704&units=imperial&q=namibe
303,capaci,IT,39.38977539943545,13.187300687939965,Italy,http://api.openweathermap.org/data/2.5/weather?appid=fe26e61e3773caebdade519f9d254704&units=imperial&q=capaci
304,senigallia,IT,43.62439247409464,13.170184256530234,Italy,http://api.openweathermap.org/data/2.5/weather?appid=fe26e61e3773caebdade519f9d254704&units=imperial&q=senigallia
305,ghedi,IT,45.436670253148286,10.25504963170806,Italy,http://api.openweathermap.org/data/2.5/weather?appid=fe26e61e3773caebdade519f9d254704&units=imperial&q=ghedi
306,tricase,IT,39.78334776203504,18.78682700125222,Italy,http://api.openweathermap.org/data/2.5/weather?appid=fe26e61e3773caebdade519f9d254704&units=imperial&q=tricase
307,cavarzere,IT,45.16663135953945,12.040807625603467,Italy,http://api.openweathermap.org/data/2.5/weather?appid=fe26e61e3773caebdade519f9d254704&units=imperial&q=cavarzere
308,pachino,IT,35.99132385718985,15.511297839204873,Italy,http://api.openweathermap.org/data/2.5/weather?appid=fe26e61e3773caebdade519f9d254704&units=imperial&q=pachino
309,vestmannaeyjar,IS,61.09126218685256,-21.705157522250204,Iceland,http://api.openweathermap.org/data/2.5/weather?appid=fe26e61e3773caebdade519f9d254704&units=imperial&q=vestmannaeyjar
310,husavik,IS,70.37093673555529,-15.958903475627295,Iceland,http://api.openweathermap.org/data/2.5/weather?appid=fe26e61e3773caebdade519f9d254704&units=imperial&q=husavik
311,stykkisholmur,IS,64.95679610942344,-22.81728887379333,Iceland,http://api.openweathermap.org/data/2.5/weather?appid=fe26e61e3773caebdade519f9d254704&units=imperial&q=stykkisholmur
312,bolungarvik,IS,67.48238897182381,-26.358327472828478,Iceland,http://api.openweathermap.org/data/2.5/weather?appid=fe26e61e3773caebdade519f9d254704&units=imperial&q=bolungarvik
313,hofn,IS,68.85781766243286,-10.447235942180411,Iceland,http://api.openweathermap.org/data/2.5/weather?appid=fe26e61e3773caebdade519f9d254704&units=imperial&q=hofn
314,grindavik,IS,54.26767473569822,-31.1700006448246,Iceland,http://api.openweathermap.org/data/2.5/weather?appid=fe26e61e3773caebdade519f9d254704&units=imperial&q=grindavik
315,cidreira,BR,-46.320163970565844,-36.15592498861028,Brazil,http://api.openweathermap.org/data/2.5/weather?appid=fe26e61e3773caebdade519f9d254704&units=imperial&q=cidreira
316,arraial do cabo,BR,-56.1231981479549,-19.23273328569161,Brazil,http://api.openweathermap.org/data/2.5/weather?appid=fe26e61e3773caebdade519f9d254704&units=imperial&q=arraial do cabo
317,alta floresta,BR,-12.088166513706513,-55.75744698508387,Brazil,http://api.openweathermap.org/data/2.5/weather?appid=fe26e61e3773caebdade519f9d254704&units=imperial&q=alta floresta
318,maceio,BR,-18.441813924710463,-25.64786397522053,Brazil,http://api.openweathermap.org/data/2.5/weather?appid=fe26e61e3773caebdade519f9d254704&units=imperial&q=maceio
319,buritis,BR,-15.69368863688534,-46.207587315489036,Brazil,http://api.openweathermap.org/data/2.5/weather?appid=fe26e61e3773caebdade519f9d254704&units=imperial&q=buritis
320,caravelas,BR,-24.702728958523196,-22.38592336729556,Brazil,http://api.openweathermap.org/data/2.5/weather?appid=fe26e61e3773caebdade519f9d254704&units=imperial&q=caravelas
321,coruripe,BR,-14.003060023342199,-32.05698523203597,Brazil,http://api.openweathermap.org/data/2.5/weather?appid=fe26e61e3773caebdade519f9d254704&units=imperial&q=coruripe
322,laguna,BR,-33.25984260757763,-40.46714956313568,Brazil,http://api.openweathermap.org/data/2.5/weather?appid=fe26e61e3773caebdade519f9d254704&units=imperial&q=laguna
323,alenquer,BR,1.065858475950435,-54.72529606924896,Brazil,http://api.openweathermap.org/data/2.5/weather?appid=fe26e61e3773caebdade519f9d254704&units=imperial&q=alenquer
324,salinopolis,BR,4.630171329896712,-45.43760586546503,Brazil,http://api.openweathermap.org/data/2.5/weather?appid=fe26e61e3773caebdade519f9d254704&units=imperial&q=salinopolis
325,touros,BR,-2.51875830418048,-29.07036131594373,Brazil,http://api.openweathermap.org/data/2.5/weather?appid=fe26e61e3773caebdade519f9d254704&units=imperial&q=touros
326,vila velha,BR,-26.03976282896821,-25.39213178023482,Brazil,http://api.openweathermap.org/data/2.5/weather?appid=fe26e61e3773caebdade519f9d254704&units=imperial&q=vila velha
327,imbituba,BR,-28.210109839577132,-48.26993081469391,Brazil,http://api.openweathermap.org/data/2.5/weather?appid=fe26e61e3773caebdade519f9d254704&units=imperial&q=imbituba
328,tamandare,BR,-10.294375313902123,-30.439465894170922,Brazil,http://api.openweathermap.org/data/2.5/weather?appid=fe26e61e3773caebdade519f9d254704&units=imperial&q=tamandare
329,luz,BR,-19.788772377167348,-45.86610177117899,Brazil,http://api.openweathermap.org/data/2.5/weather?appid=fe26e61e3773caebdade519f9d254704&units=imperial&q=luz
330,pauini,BR,-8.211931394404857,-66.21651878475377,Brazil,http://api.openweathermap.org/data/2.5/weather?appid=fe26e61e3773caebdade519f9d254704&units=imperial&q=pauini
331,carutapera,BR,10.101373118577056,-39.96990212797289,Brazil,http://api.openweathermap.org/data/2.5/weather?appid=fe26e61e3773caebdade519f9d254704&units=imperial&q=carutapera
332,itarema,BR,0.3172875357606557,-38.703125666554676,Brazil,http://api.openweathermap.org/data/2.5/weather?appid=fe26e61e3773caebdade519f9d254704&units=imperial&q=itarema
333,rolim de moura,BR,-12.570199740314465,-62.606045851998914,Brazil,http://api.openweathermap.org/data/2.5/weather?appid=fe26e61e3773caebdade519f9d254704&units=imperial&q=rolim de moura
334,altamira,BR,-3.873535284319289,-52.45250127876396,Brazil,http://api.openweathermap.org/data/2.5/weather?appid=fe26e61e3773caebdade519f9d254704&units=imperial&q=altamira
335,armacao dos buzios,BR,-24.410519416379728,-39.070839064702476,Brazil,http://api.openweathermap.org/data/2.5/weather?appid=fe26e61e3773caebdade519f9d254704&units=imperial&q=armacao dos buzios
336,mozarlandia,BR,-14.647093555449345,-50.685390368894254,Brazil,http://api.openweathermap.org/data/2.5/weather?appid=fe26e61e3773caebdade519f9d254704&units=imperial&q=mozarlandia
337,pocoes,BR,-14.470528771871841,-40.58130664757979,Brazil,http://api.openweathermap.org/data/2.5/weather?appid=fe26e61e3773caebdade519f9d254704&units=imperial&q=pocoes
338,belmonte,BR,-16.089322760845477,-34.75407960708006,Brazil,http://api.openweathermap.org/data/2.5/weather?appid=fe26e61e3773caebdade519f9d254704&units=imperial&q=belmonte
339,ipora,BR,-16.495397354207928,-51.04556820618865,Brazil,http://api.openweathermap.org/data/2.5/weather?appid=fe26e61e3773caebdade519f9d254704&units=imperial&q=ipora
340,sao joao da barra,BR,-27.223089586046065,-31.17210074482577,Brazil,http://api.openweathermap.org/data/2.5/weather?appid=fe26e61e3773caebdade519f9d254704&units=imperial&q=sao joao da barra
341,tanabi,BR,-20.49018330330212,-49.51700732751149,Brazil,http://api.openweathermap.org/data/2.5/weather?appid=fe26e61e3773caebdade519f9d254704&units=imperial&q=tanabi
342,constitucion,MX,14.418731460587964,-123.32103942515356,Mexico,http://api.openweathermap.org/data/2.5/weather?appid=fe26e61e3773caebdade519f9d254704&units=imperial&q=constitucion
343,rosarito,MX,30.384617260648042,-119.3986679215332,Mexico,http://api.openweathermap.org/data/2.5/weather?appid=fe26e61e3773caebdade519f9d254704&units=imperial&q=rosarito
344,venado,MX,22.937912895984116,-100.90909804734005,Mexico,http://api.openweathermap.org/data/2.5/weather?appid=fe26e61e3773caebdade519f9d254704&units=imperial&q=venado
345,guerrero negro,MX,13.896095804456765,-131.78941986701022,Mexico,http://api.openweathermap.org/data/2.5/weather?appid=fe26e61e3773caebdade519f9d254704&units=imperial&q=guerrero negro
346,tomatlan,MX,19.23189824021287,-108.32141802088982,Mexico,http://api.openweathermap.org/data/2.5/weather?appid=fe26e61e3773caebdade519f9d254704&units=imperial&q=tomatlan
347,san quintin,MX,27.948581280126827,-117.40963260159876,Mexico,http://api.openweathermap.org/data/2.5/weather?appid=fe26e61e3773caebdade519f9d254704&units=imperial&q=san quintin
348,cabo san lucas,MX,9.956031927174463,-118.18130360324804,Mexico,http://api.openweathermap.org/data/2.5/weather?appid=fe26e61e3773caebdade519f9d254704&units=imperial&q=cabo san lucas
349,ayoquezco,MX,16.713725116769652,-97.18361259215071,Mexico,http://api.openweathermap.org/data/2.5/weather?appid=fe26e61e3773caebdade519f9d254704&units=imperial&q=ayoquezco
350,acapulco,MX,6.910783332215644,-102.65681706948757,Mexico,http://api.openweathermap.org/data/2.5/weather?appid=fe26e61e3773caebdade519f9d254704&units=imperial&q=acapulco
351,saltillo,MX,25.43492570817705,-101.07290919987085,Mexico,http://api.openweathermap.org/data/2.5/weather?appid=fe26e61e3773caebdade519f9d254704&units=imperial&q=saltillo
352,san patricio,MX,10.306443159713538,-109.38354439161378,Mexico,http://api.openweathermap.org/data/2.5/weather?appid=fe26e61e3773caebdade519f9d254704&units=imperial&q=san patricio
353,guadalupe y calvo,MX,25.669691198994684,-106.74456033344734,Mexico,http://api.openweathermap.org/data/2.5/weather?appid=fe26e61e3773caebdade519f9d254704&units=imperial&q=guadalupe y calvo
354,lazaro cardenas,MX,9.645893555409259,-107.23889160785276,Mexico,http://api.openweathermap.org/data/2.5/weather?appid=fe26e61e3773caebdade519f9d254704&units=imperial&q=lazaro cardenas
355,celestun,MX,22.32434878996058,-91.940644251574,Mexico,http://api.openweathermap.org/data/2.5/weather?appid=fe26e61e3773caebdade519f9d254704&units=imperial&q=celestun
356,pochutla,MX,7.996596638226593,-98.09523157132936,Mexico,http://api.openweathermap.org/data/2.5/weather?appid=fe26e61e3773caebdade519f9d254704&units=imperial&q=pochutla
357,saucillo,MX,28.288012310953608,-104.80098097434671,Mexico,http://api.openweathermap.org/data/2.5/weather?appid=fe26e61e3773caebdade519f9d254704&units=imperial&q=saucillo
358,ixtapa,MX,5.129074903192915,-107.55461015206758,Mexico,http://api.openweathermap.org/data/2.5/weather?appid=fe26e61e3773caebdade519f9d254704&units=imperial&q=ixtapa
359,benjamin hill,MX,29.79942570125448,-111.00238733273078,Mexico,http://api.openweathermap.org/data/2.5/weather?appid=fe26e61e3773caebdade519f9d254704&units=imperial&q=benjamin hill
360,barentsburg,SJ,83.73633358299185,9.800305960021118,Svalbard and Jan Mayen,http://api.openweathermap.org/data/2.5/weather?appid=fe26e61e3773caebdade519f9d254704&units=imperial&q=barentsburg
361,longyearbyen,SJ,75.00003521734399,19.431907963310326,Svalbard and Jan Mayen,http://api.openweathermap.org/data/2.5/weather?appid=fe26e61e3773caebdade519f9d254704&units=imperial&q=longyearbyen
362,illoqqortoormiut,GL,73.83889606935432,-29.731886211351767,Greenland,http://api.openweathermap.org/data/2.5/weather?appid=fe26e61e3773caebdade519f9d254704&units=imperial&q=illoqqortoormiut
363,upernavik,GL,72.73479383242648,-59.43274147946517,Greenland,http://api.openweathermap.org/data/2.5/weather?appid=fe26e61e3773caebdade519f9d254704&units=imperial&q=upernavik
364,qaanaaq,GL,83.8177338209143,-81.6511466215404,Greenland,http://api.openweathermap.org/data/2.5/weather?appid=fe26e61e3773caebdade519f9d254704&units=imperial&q=qaanaaq
365,narsaq,GL,86.81202177498787,-62.29644315525421,Greenland,http://api.openweathermap.org/data/2.5/weather?appid=fe26e61e3773caebdade519f9d254704&units=imperial&q=narsaq
366,kangaatsiaq,GL,68.76755204962731,-56.80157687918779,Greenland,http://api.openweathermap.org/data/2.5/weather?appid=fe26e61e3773caebdade519f9d254704&units=imperial&q=kangaatsiaq
367,tasiilaq,GL,57.033420458653296,-33.260499540171374,Greenland,http://api.openweathermap.org/data/2.5/weather?appid=fe26e61e3773caebdade519f9d254704&units=imperial&q=tasiilaq
368,nanortalik,GL,62.527802774306345,-42.14175498772625,Greenland,http://api.openweathermap.org/data/2.5/weather?appid=fe26e61e3773caebdade519f9d254704&units=imperial&q=nanortalik
369,ilulissat,GL,67.92879614222906,-44.40847808190534,Greenland,http://api.openweathermap.org/data/2.5/weather?appid=fe26e61e3773caebdade519f9d254704&units=imperial&q=ilulissat
370,paamiut,GL,57.605194146503976,-53.75044113261461,Greenland,http://api.openweathermap.org/data/2.5/weather?appid=fe26e61e3773caebdade519f9d254704&units=imperial&q=paamiut
371,nuuk,GL,66.15204165105914,-50.02082430813587,Greenland,http://api.openweathermap.org/data/2.5/weather?appid=fe26e61e3773caebdade519f9d254704&units=imperial&q=nuuk
372,sisimiut,GL,67.8011272630068,-55.90130842681052,Greenland,http://api.openweathermap.org/data/2.5/weather?appid=fe26e61e3773caebdade519f9d254704&units=imperial&q=sisimiut
373,puerto ayora,EC,-3.1842964504147058,-107.31316246089165,Ecuador,http://api.openweathermap.org/data/2.5/weather?appid=fe26e61e3773caebdade519f9d254704&units=imperial&q=puerto ayora
374,bahia de caraquez,EC,-0.17309386487873726,-80.96844350260935,Ecuador,http://api.openweathermap.org/data/2.5/weather?appid=fe26e61e3773caebdade519f9d254704&units=imperial&q=bahia de caraquez
375,san cristobal,EC,-2.0024377808788927,-88.70430337688174,Ecuador,http://api.openweathermap.org/data/2.5/weather?appid=fe26e61e3773caebdade519f9d254704&units=imperial&q=san cristobal
376,muisne,EC,2.297949636864203,-84.25124463408487,Ecuador,http://api.openweathermap.org/data/2.5/weather?appid=fe26e61e3773caebdade519f9d254704&units=imperial&q=muisne
377,iba,PH,15.100693200444953,119.56662773567685,Philippines,http://api.openweathermap.org/data/2.5/weather?appid=fe26e61e3773caebdade519f9d254704&units=imperial&q=iba
378,siocon,PH,8.588686150692768,121.2764840832595,Philippines,http://api.openweathermap.org/data/2.5/weather?appid=fe26e61e3773caebdade519f9d254704&units=imperial&q=siocon
379,sarangani,PH,3.898656481543142,125.19342600562777,Philippines,http://api.openweathermap.org/data/2.5/weather?appid=fe26e61e3773caebdade519f9d254704&units=imperial&q=sarangani
380,san policarpo,PH,15.436790301226326,131.2099562074386,Philippines,http://api.openweathermap.org/data/2.5/weather?appid=fe26e61e3773caebdade519f9d254704&units=imperial&q=san policarpo
381,bacungan,PH,11.443906040902649,117.11002394017817,Philippines,http://api.openweathermap.org/data/2.5/weather?appid=fe26e61e3773caebdade519f9d254704&units=imperial&q=bacungan
382,caruray,PH,11.03404885238568,117.95041244017222,Philippines,http://api.openweathermap.org/data/2.5/weather?appid=fe26e61e3773caebdade519f9d254704&units=imperial&q=caruray
383,macaboboni,PH,16.28978389394412,115.338369765805,Philippines,http://api.openweathermap.org/data/2.5/weather?appid=fe26e61e3773caebdade519f9d254704&units=imperial&q=macaboboni
384,puerto pinasco,PY,-23.2736626798485,-58.004283342836494,Paraguay,http://api.openweathermap.org/data/2.5/weather?appid=fe26e61e3773caebdade519f9d254704&units=imperial&q=puerto pinasco
385,lolua,TV,-6.225623934674786,176.79378146736198,Tuvalu,http://api.openweathermap.org/data/2.5/weather?appid=fe26e61e3773caebdade519f9d254704&units=imperial&q=lolua
386,asau,TV,-6.746471128725489,178.587983753527,Tuvalu,http://api.openweathermap.org/data/2.5/weather?appid=fe26e61e3773caebdade519f9d254704&units=imperial&q=asau
387,kumhari,IN,21.27335953195056,81.50927698193311,India,http://api.openweathermap.org/data/2.5/weather?appid=fe26e61e3773caebdade519f9d254704&units=imperial&q=kumhari
388,leh,IN,36.517853486378414,81.56744833950916,India,http://api.openweathermap.org/data/2.5/weather?appid=fe26e61e3773caebdade519f9d254704&units=imperial&q=leh
389,naspur,IN,18.967867291549297,79.684339318865,India,http://api.openweathermap.org/data/2.5/weather?appid=fe26e61e3773caebdade519f9d254704&units=imperial&q=naspur
390,kodinar,IN,20.173623748866817,70.65672871756627,India,http://api.openweathermap.org/data/2.5/weather?appid=fe26e61e3773caebdade519f9d254704&units=imperial&q=kodinar
391,mirik,IN,26.75975714334568,88.17704415699762,India,http://api.openweathermap.org/data/2.5/weather?appid=fe26e61e3773caebdade519f9d254704&units=imperial&q=mirik
392,contai,IN,20.02307298495839,88.64146376698922,India,http://api.openweathermap.org/data/2.5/weather?appid=fe26e61e3773caebdade519f9d254704&units=imperial&q=contai
393,jaisalmer,IN,26.634678030939387,71.1821785204918,India,http://api.openweathermap.org/data/2.5/weather?appid=fe26e61e3773caebdade519f9d254704&units=imperial&q=jaisalmer
394,sompeta,IN,17.573391441401824,85.89561179965625,India,http://api.openweathermap.org/data/2.5/weather?appid=fe26e61e3773caebdade519f9d254704&units=imperial&q=sompeta
395,dwarka,IN,21.578862069965894,68.2843559269952,India,http://api.openweathermap.org/data/2.5/weather?appid=fe26e61e3773caebdade519f9d254704&units=imperial&q=dwarka
396,ponta do sol,CV,20.21614422129224,-38.971035135737,Cape Verde,http://api.openweathermap.org/data/2.5/weather?appid=fe26e61e3773caebdade519f9d254704&units=imperial&q=ponta do sol
397,santa maria,CV,18.63840865831931,-21.908675770359878,Cape Verde,http://api.openweathermap.org/data/2.5/weather?appid=fe26e61e3773caebdade519f9d254704&units=imperial&q=santa maria
398,marovoay,MG,-16.411470736633774,46.478716483155324,Madagascar,http://api.openweathermap.org/data/2.5/weather?appid=fe26e61e3773caebdade519f9d254704&units=imperial&q=marovoay
399,taolanaro,MG,-60.791462968813455,65.06520665915727,Madagascar,http://api.openweathermap.org/data/2.5/weather?appid=fe26e61e3773caebdade519f9d254704&units=imperial&q=taolanaro
400,toliary,MG,-27.195450250001702,39.79613784285141,Madagascar,http://api.openweathermap.org/data/2.5/weather?appid=fe26e61e3773caebdade519f9d254704&units=imperial&q=toliary
401,antsohihy,MG,-15.098004381217052,47.797937846436405,Madagascar,http://api.openweathermap.org/data/2.5/weather?appid=fe26e61e3773caebdade519f9d254704&units=imperial&q=antsohihy
402,tsihombe,MG,-33.256095583625275,45.64690343967818,Madagascar,http://api.openweathermap.org/data/2.5/weather?appid=fe26e61e3773caebdade519f9d254704&units=imperial&q=tsihombe
403,hobyo,SO,1.0205123060375456,50.95182248756586,Somalia,http://api.openweathermap.org/data/2.5/weather?appid=fe26e61e3773caebdade519f9d254704&units=imperial&q=hobyo
404,bereda,SO,14.63714504190058,51.547630172427866,Somalia,http://api.openweathermap.org/data/2.5/weather?appid=fe26e61e3773caebdade519f9d254704&units=imperial&q=bereda
405,wajid,SO,4.295299176377654,43.34483710581757,Somalia,http://api.openweathermap.org/data/2.5/weather?appid=fe26e61e3773caebdade519f9d254704&units=imperial&q=wajid
406,kismayo,SO,-2.574217826263961,45.749435592662074,Somalia,http://api.openweathermap.org/data/2.5/weather?appid=fe26e61e3773caebdade519f9d254704&units=imperial&q=kismayo
407,qandala,SO,14.60301542703084,48.877365362725726,Somalia,http://api.openweathermap.org/data/2.5/weather?appid=fe26e61e3773caebdade519f9d254704&units=imperial&q=qandala
408,barawe,SO,-0.4489242113469345,44.58587906539205,Somalia,http://api.openweathermap.org/data/2.5/weather?appid=fe26e61e3773caebdade519f9d254704&units=imperial&q=barawe
409,butaritari,KI,11.15071887100467,175.72665278295506,Kiribati,http://api.openweathermap.org/data/2.5/weather?appid=fe26e61e3773caebdade519f9d254704&units=imperial&q=butaritari
410,rawannawi,KI,2.980782764568048,175.97137140509705,Kiribati,http://api.openweathermap.org/data/2.5/weather?appid=fe26e61e3773caebdade519f9d254704&units=imperial&q=rawannawi
411,bairiki,KI,0.17270060849160984,165.3901618584104,Kiribati,http://api.openweathermap.org/data/2.5/weather?appid=fe26e61e3773caebdade519f9d254704&units=imperial&q=bairiki
412,rungata,KI,0.6657916006717671,179.87121410732613,Kiribati,http://api.openweathermap.org/data/2.5/weather?appid=fe26e61e3773caebdade519f9d254704&units=imperial&q=rungata
413,saint george,BM,36.25605639314958,-55.358564168411064,Bermuda,http://api.openweathermap.org/data/2.5/weather?appid=fe26e61e3773caebdade519f9d254704&units=imperial&q=saint george
414,hamilton,BM,26.44202335693993,-61.95528300255867,Bermuda,http://api.openweathermap.org/data/2.5/weather?appid=fe26e61e3773caebdade519f9d254704&units=imperial&q=hamilton
415,darhan,MN,43.626041946970986,108.74798870788538,Mongolia,http://api.openweathermap.org/data/2.5/weather?appid=fe26e61e3773caebdade519f9d254704&units=imperial&q=darhan
416,mandalgovi,MN,43.11512976888841,107.37003715991187,Mongolia,http://api.openweathermap.org/data/2.5/weather?appid=fe26e61e3773caebdade519f9d254704&units=imperial&q=mandalgovi
417,ondorhaan,MN,48.931269931990975,110.18708453784626,Mongolia,http://api.openweathermap.org/data/2.5/weather?appid=fe26e61e3773caebdade519f9d254704&units=imperial&q=ondorhaan
418,moron,MN,50.574305537049554,99.6427982155617,Mongolia,http://api.openweathermap.org/data/2.5/weather?appid=fe26e61e3773caebdade519f9d254704&units=imperial&q=moron
419,iralaya,HN,16.215634496831242,-80.77954567630017,Honduras,http://api.openweathermap.org/data/2.5/weather?appid=fe26e61e3773caebdade519f9d254704&units=imperial&q=iralaya
420,sandy bay,HN,17.203760462680222,-87.11596947541348,Honduras,http://api.openweathermap.org/data/2.5/weather?appid=fe26e61e3773caebdade519f9d254704&units=imperial&q=sandy bay
421,marsa matruh,EG,31.69025517370061,26.735034040839075,Egypt,http://api.openweathermap.org/data/2.5/weather?appid=fe26e61e3773caebdade519f9d254704&units=imperial&q=marsa matruh
422,tahta,EG,22.749609412863503,26.58268415725425,Egypt,http://api.openweathermap.org/data/2.5/weather?appid=fe26e61e3773caebdade519f9d254704&units=imperial&q=tahta
423,gamba,GA,-3.3794653170956517,9.013292537333939,Gabon,http://api.openweathermap.org/data/2.5/weather?appid=fe26e61e3773caebdade519f9d254704&units=imperial&q=gamba
424,mayumba,GA,-8.230541705655966,6.003461893846122,Gabon,http://api.openweathermap.org/data/2.5/weather?appid=fe26e61e3773caebdade519f9d254704&units=imperial&q=mayumba
425,ugoofaaru,MV,5.8178632472741745,71.00367724842906,Maldives,http://api.openweathermap.org/data/2.5/weather?appid=fe26e61e3773caebdade519f9d254704&units=imperial&q=ugoofaaru
426,hithadhoo,MV,-3.2706447365040816,79.54548754155127,Maldives,http://api.openweathermap.org/data/2.5/weather?appid=fe26e61e3773caebdade519f9d254704&units=imperial&q=hithadhoo
427,viligili,MV,-1.3212467169709328,80.28186866952366,Maldives,http://api.openweathermap.org/data/2.5/weather?appid=fe26e61e3773caebdade519f9d254704&units=imperial&q=viligili
428,thinadhoo,MV,1.39756646211589,66.34245356086134,Maldives,http://api.openweathermap.org/data/2.5/weather?appid=fe26e61e3773caebdade519f9d254704&units=imperial&q=thinadhoo
429,kulhudhuffushi,MV,7.0967654030492895,70.96851062783443,Maldives,http://api.openweathermap.org/data/2.5/weather?appid=fe26e61e3773caebdade519f9d254704&units=imperial&q=kulhudhuffushi
430,pryluky,UA,50.49073569108469,32.124830620728,Ukraine,http://api.openweathermap.org/data/2.5/weather?appid=fe26e61e3773caebdade519f9d254704&units=imperial&q=pryluky
431,pershotravneve,UA,51.61572281507924,28.687533373963532,Ukraine,http://api.openweathermap.org/data/2.5/weather?appid=fe26e61e3773caebdade519f9d254704&units=imperial&q=pershotravneve
432,saleaula,WS,0.4822382612746452,-169.03889674090226,Samoa,http://api.openweathermap.org/data/2.5/weather?appid=fe26e61e3773caebdade519f9d254704&units=imperial&q=saleaula
433,samusu,WS,-1.184873571951954,-160.98002948034446,Samoa,http://api.openweathermap.org/data/2.5/weather?appid=fe26e61e3773caebdade519f9d254704&units=imperial&q=samusu
434,falealupo,WS,-13.480299764934006,-173.87642716167028,Samoa,http://api.openweathermap.org/data/2.5/weather?appid=fe26e61e3773caebdade519f9d254704&units=imperial&q=falealupo
435,pokhara,NP,32.10094069528766,85.94014188332535,Nepal,http://api.openweathermap.org/data/2.5/weather?appid=fe26e61e3773caebdade519f9d254704&units=imperial&q=pokhara
436,jumla,NP,29.678219745028034,83.23840237872305,Nepal,http://api.openweathermap.org/data/2.5/weather?appid=fe26e61e3773caebdade519f9d254704&units=imperial&q=jumla
437,atar,MR,22.196109420746325,-10.53578587585659,Mauritania,http://api.openweathermap.org/data/2.5/weather?appid=fe26e61e3773caebdade519f9d254704&units=imperial&q=atar
438,waingapu,ID,-14.117239320704455,118.72122491916224,Indonesia,http://api.openweathermap.org/data/2.5/weather?appid=fe26e61e3773caebdade519f9d254704&units=imperial&q=waingapu
439,sembakung,ID,4.139234622761833,116.6066106825362,Indonesia,http://api.openweathermap.org/data/2.5/weather?appid=fe26e61e3773caebdade519f9d254704&units=imperial&q=sembakung
440,kisaran,ID,2.798639375273794,99.42615346897287,Indonesia,http://api.openweathermap.org/data/2.5/weather?appid=fe26e61e3773caebdade519f9d254704&units=imperial&q=kisaran
441,kendari,ID,-3.86470664665498,122.1972633795084,Indonesia,http://api.openweathermap.org/data/2.5/weather?appid=fe26e61e3773caebdade519f9d254704&units=imperial&q=kendari
442,bengkulu,ID,-14.360148561208248,92.98613078683105,Indonesia,http://api.openweathermap.org/data/2.5/weather?appid=fe26e61e3773caebdade519f9d254704&units=imperial&q=bengkulu
443,meulaboh,ID,1.5374832871572297,95.47291540526884,Indonesia,http://api.openweathermap.org/data/2.5/weather?appid=fe26e61e3773caebdade519f9d254704&units=imperial&q=meulaboh
444,manggar,ID,-4.43234270570791,108.41722578219424,Indonesia,http://api.openweathermap.org/data/2.5/weather?appid=fe26e61e3773caebdade519f9d254704&units=imperial&q=manggar
445,padang,ID,-3.7052250497958568,97.62743757568865,Indonesia,http://api.openweathermap.org/data/2.5/weather?appid=fe26e61e3773caebdade519f9d254704&units=imperial&q=padang
446,nabire,ID,-6.349241495104778,136.9144662815512,Indonesia,http://api.openweathermap.org/data/2.5/weather?appid=fe26e61e3773caebdade519f9d254704&units=imperial&q=nabire
447,teluk nibung,ID,2.7899359090901332,99.89537579904186,Indonesia,http://api.openweathermap.org/data/2.5/weather?appid=fe26e61e3773caebdade519f9d254704&units=imperial&q=teluk nibung
448,luwuk,ID,-1.3446271854315768,123.10915114070141,Indonesia,http://api.openweathermap.org/data/2.5/weather?appid=fe26e61e3773caebdade519f9d254704&units=imperial&q=luwuk
449,gorontalo,ID,0.9245593470593292,121.00636862865669,Indonesia,http://api.openweathermap.org/data/2.5/weather?appid=fe26e61e3773caebdade519f9d254704&units=imperial&q=gorontalo
450,palabuhanratu,ID,-7.8028030192975715,105.54433741529863,Indonesia,http://api.openweathermap.org/data/2.5/weather?appid=fe26e61e3773caebdade519f9d254704&units=imperial&q=palabuhanratu
451,manokwari,ID,1.5729906089046466,135.28483521971498,Indonesia,http://api.openweathermap.org/data/2.5/weather?appid=fe26e61e3773caebdade519f9d254704&units=imperial&q=manokwari
452,indramayu,ID,-4.843632404742905,108.78996088195572,Indonesia,http://api.openweathermap.org/data/2.5/weather?appid=fe26e61e3773caebdade519f9d254704&units=imperial&q=indramayu
453,payakumbuh,ID,0.2501934689490781,99.7916689372962,Indonesia,http://api.openweathermap.org/data/2.5/weather?appid=fe26e61e3773caebdade519f9d254704&units=imperial&q=payakumbuh
454,labuhan,ID,-9.467433496990694,102.73688648836479,Indonesia,http://api.openweathermap.org/data/2.5/weather?appid=fe26e61e3773caebdade519f9d254704&units=imperial&q=labuhan
455,rantepao,ID,-3.314432799411392,120.02198910816122,Indonesia,http://api.openweathermap.org/data/2.5/weather?appid=fe26e61e3773caebdade519f9d254704&units=imperial&q=rantepao
456,ternate,ID,1.2313567002460957,129.2387529726796,Indonesia,http://api.openweathermap.org/data/2.5/weather?appid=fe26e61e3773caebdade519f9d254704&units=imperial&q=ternate
457,merauke,ID,-8.431127204600614,139.68566365776616,Indonesia,http://api.openweathermap.org/data/2.5/weather?appid=fe26e61e3773caebdade519f9d254704&units=imperial&q=merauke
458,kabompo,ZM,-13.237164142411187,24.27729317372507,Zambia,http://api.openweathermap.org/data/2.5/weather?appid=fe26e61e3773caebdade519f9d254704&units=imperial&q=kabompo
459,senanga,ZM,-17.242515108253414,23.009927969749583,Zambia,http://api.openweathermap.org/data/2.5/weather?appid=fe26e61e3773caebdade519f9d254704&units=imperial&q=senanga
460,katete,ZM,-14.694472298759079,32.00812808196184,Zambia,http://api.openweathermap.org/data/2.5/weather?appid=fe26e61e3773caebdade519f9d254704&units=imperial&q=katete
461,mongu,ZM,-15.685254934198582,22.897646530538932,Zambia,http://api.openweathermap.org/data/2.5/weather?appid=fe26e61e3773caebdade519f9d254704&units=imperial&q=mongu
462,chongwe,ZM,-15.590040870971233,28.720677469281497,Zambia,http://api.openweathermap.org/data/2.5/weather?appid=fe26e61e3773caebdade519f9d254704&units=imperial&q=chongwe
463,akyab,MM,18.904501227575608,92.66494802333756,Myanmar,http://api.openweathermap.org/data/2.5/weather?appid=fe26e61e3773caebdade519f9d254704&units=imperial&q=akyab
464,mudon,MM,15.985064552486437,98.24357124152635,Myanmar,http://api.openweathermap.org/data/2.5/weather?appid=fe26e61e3773caebdade519f9d254704&units=imperial&q=mudon
465,mergui,MM,12.237143820157812,98.32456158762676,Myanmar,http://api.openweathermap.org/data/2.5/weather?appid=fe26e61e3773caebdade519f9d254704&units=imperial&q=mergui
466,falam,MM,22.67965674285779,93.6742116688815,Myanmar,http://api.openweathermap.org/data/2.5/weather?appid=fe26e61e3773caebdade519f9d254704&units=imperial&q=falam
467,magway,MM,20.17549653486192,95.21345970014687,Myanmar,http://api.openweathermap.org/data/2.5/weather?appid=fe26e61e3773caebdade519f9d254704&units=imperial&q=magway
468,chicama,PE,-14.555647581265507,-91.3416193572251,Peru,http://api.openweathermap.org/data/2.5/weather?appid=fe26e61e3773caebdade519f9d254704&units=imperial&q=chicama
469,pisco,PE,-16.443929836049847,-79.22805628500775,Peru,http://api.openweathermap.org/data/2.5/weather?appid=fe26e61e3773caebdade519f9d254704&units=imperial&q=pisco
470,ascope,PE,-7.418719249705576,-79.13141454502995,Peru,http://api.openweathermap.org/data/2.5/weather?appid=fe26e61e3773caebdade519f9d254704&units=imperial&q=ascope
471,marcona,PE,-16.420850472607018,-75.96004144083152,Peru,http://api.openweathermap.org/data/2.5/weather?appid=fe26e61e3773caebdade519f9d254704&units=imperial&q=marcona
472,hualmay,PE,-18.412089275357488,-89.60765486430344,Peru,http://api.openweathermap.org/data/2.5/weather?appid=fe26e61e3773caebdade519f9d254704&units=imperial&q=hualmay
473,pimentel,PE,-11.027100176224637,-86.46042003952023,Peru,http://api.openweathermap.org/data/2.5/weather?appid=fe26e61e3773caebdade519f9d254704&units=imperial&q=pimentel
474,caraz,PE,-9.011930424730023,-78.20542611013376,Peru,http://api.openweathermap.org/data/2.5/weather?appid=fe26e61e3773caebdade519f9d254704&units=imperial&q=caraz
475,ouadda,CF,8.807566110902599,22.951149838399715,Central African Republic,http://api.openweathermap.org/data/2.5/weather?appid=fe26e61e3773caebdade519f9d254704&units=imperial&q=ouadda
476,mobaye,CF,4.339455410589153,21.225264119374454,Central African Republic,http://api.openweathermap.org/data/2.5/weather?appid=fe26e61e3773caebdade519f9d254704&units=imperial&q=mobaye
477,birin,DZ,34.965440090284176,3.3621470131969886,Algeria,http://api.openweathermap.org/data/2.5/weather?appid=fe26e61e3773caebdade519f9d254704&units=imperial&q=birin
478,tuggurt,DZ,33.843474463573884,6.276139902234718,Algeria,http://api.openweathermap.org/data/2.5/weather?appid=fe26e61e3773caebdade519f9d254704&units=imperial&q=tuggurt
479,warqla,DZ,31.48617111827157,5.130175951714706,Algeria,http://api.openweathermap.org/data/2.5/weather?appid=fe26e61e3773caebdade519f9d254704&units=imperial&q=warqla
480,wahran,DZ,33.16707488354427,-0.7596026723262526,Algeria,http://api.openweathermap.org/data/2.5/weather?appid=fe26e61e3773caebdade519f9d254704&units=imperial&q=wahran
481,zhanatas,KZ,45.195780457262714,69.45129305111413,Kazakhstan,http://api.openweathermap.org/data/2.5/weather?appid=fe26e61e3773caebdade519f9d254704&units=imperial&q=zhanatas
482,georgiyevka,KZ,44.041023095383984,75.19959067559952,Kazakhstan,http://api.openweathermap.org/data/2.5/weather?appid=fe26e61e3773caebdade519f9d254704&units=imperial&q=georgiyevka
483,shubarshi,KZ,47.33150995412996,57.394432420356424,Kazakhstan,http://api.openweathermap.org/data/2.5/weather?appid=fe26e61e3773caebdade519f9d254704&units=imperial&q=shubarshi
484,lisakovsk,KZ,50.66173433140517,63.46814863716536,Kazakhstan,http://api.openweathermap.org/data/2.5/weather?appid=fe26e61e3773caebdade519f9d254704&units=imperial&q=lisakovsk
485,aktau,KZ,43.54286710946428,50.652893701717005,Kazakhstan,http://api.openweathermap.org/data/2.5/weather?appid=fe26e61e3773caebdade519f9d254704&units=imperial&q=aktau
486,gulshat,KZ,46.652472390130406,74.46101706220901,Kazakhstan,http://api.openweathermap.org/data/2.5/weather?appid=fe26e61e3773caebdade519f9d254704&units=imperial&q=gulshat
487,balykshi,KZ,46.486813479287406,50.463641856230794,Kazakhstan,http://api.openweathermap.org/data/2.5/weather?appid=fe26e61e3773caebdade519f9d254704&units=imperial&q=balykshi
488,shetpe,KZ,44.02690121584475,52.04691372837701,Kazakhstan,http://api.openweathermap.org/data/2.5/weather?appid=fe26e61e3773caebdade519f9d254704&units=imperial&q=shetpe
489,maarianhamina,FI,60.80570617758635,20.254354892153827,Finland,http://api.openweathermap.org/data/2.5/weather?appid=fe26e61e3773caebdade519f9d254704&units=imperial&q=maarianhamina
490,nivala,FI,63.87744238908456,25.428479547407928,Finland,http://api.openweathermap.org/data/2.5/weather?appid=fe26e61e3773caebdade519f9d254704&units=imperial&q=nivala
491,phan thiet,VN,7.706752933352476,110.5224023681983,Viet Nam,http://api.openweathermap.org/data/2.5/weather?appid=fe26e61e3773caebdade519f9d254704&units=imperial&q=phan thiet
492,phan rang,VN,9.550750604311203,109.97201091074275,Viet Nam,http://api.openweathermap.org/data/2.5/weather?appid=fe26e61e3773caebdade519f9d254704&units=imperial&q=phan rang
493,qui nhon,VN,15.288680385986725,114.00826153859884,Viet Nam,http://api.openweathermap.org/data/2.5/weather?appid=fe26e61e3773caebdade519f9d254704&units=imperial&q=qui nhon
494,rocha,UY,-42.18602727206194,-48.48236926841364,Uruguay,http://api.openweathermap.org/data/2.5/weather?appid=fe26e61e3773caebdade519f9d254704&units=imperial&q=rocha
495,chuy,UY,-53.869731010098455,-31.268136765218344,Uruguay,http://api.openweathermap.org/data/2.5/weather?appid=fe26e61e3773caebdade519f9d254704&units=imperial&q=chuy
496,young,UY,-33.03775254430184,-57.350051425137565,Uruguay,http://api.openweathermap.org/data/2.5/weather?appid=fe26e61e3773caebdade519f9d254704&units=imperial&q=young
497,vila,VU,-15.660439636253571,172.72367919245843,Vanuatu,http://api.openweathermap.org/data/2.5/weather?appid=fe26e61e3773caebdade519f9d254704&units=imperial&q=vila
498,isangel,VU,-16.844159956345564,176.40590026575038,Vanuatu,http://api.openweathermap.org/data/2.5/weather?appid=fe26e61e3773caebdade519f9d254704&units=imperial&q=isangel
499,lakatoro,VU,-17.664227835102736,166.49461746441102,Vanuatu,http://api.openweathermap.org/data/2.5/weather?appid=fe26e61e3773caebdade519f9d254704&units=imperial&q=lakatoro
500,kharan,PK,27.71905992975391,65.58379087552153,Pakistan,http://api.openweathermap.org/data/2.5/weather?appid=fe26e61e3773caebdade519f9d254704&units=imperial&q=kharan
501,mianwali,PK,32.47013588389257,71.73328040759998,Pakistan,http://api.openweathermap.org/data/2.5/weather?appid=fe26e61e3773caebdade519f9d254704&units=imperial&q=mianwali
502,sakrand,PK,26.25473545846177,68.10702854034952,Pakistan,http://api.openweathermap.org/data/2.5/weather?appid=fe26e61e3773caebdade519f9d254704&units=imperial&q=sakrand
503,hasilpur,PK,29.594565225679172,72.70885527534104,Pakistan,http://api.openweathermap.org/data/2.5/weather?appid=fe26e61e3773caebdade519f9d254704&units=imperial&q=hasilpur
504,mailsi,PK,29.709104751567182,72.31150384875355,Pakistan,http://api.openweathermap.org/data/2.5/weather?appid=fe26e61e3773caebdade519f9d254704&units=imperial&q=mailsi
505,mangla,PK,31.86764593567956,72.01347213779016,Pakistan,http://api.openweathermap.org/data/2.5/weather?appid=fe26e61e3773caebdade519f9d254704&units=imperial&q=mangla
506,mingaora,PK,34.995647029720985,72.48803410306087,Pakistan,http://api.openweathermap.org/data/2.5/weather?appid=fe26e61e3773caebdade519f9d254704&units=imperial&q=mingaora
507,jiangyou,CN,33.04113048323757,103.07652186811129,China,http://api.openweathermap.org/data/2.5/weather?appid=fe26e61e3773caebdade519f9d254704&units=imperial&q=jiangyou
508,aojiang,CN,27.573766116359906,120.69257663181587,China,http://api.openweathermap.org/data/2.5/weather?appid=fe26e61e3773caebdade519f9d254704&units=imperial&q=aojiang
509,lasa,CN,35.875427819261475,90.5867977138145,China,http://api.openweathermap.org/data/2.5/weather?appid=fe26e61e3773caebdade519f9d254704&units=imperial&q=lasa
510,huangnihe,CN,43.664094600337144,128.11410086660135,China,http://api.openweathermap.org/data/2.5/weather?appid=fe26e61e3773caebdade519f9d254704&units=imperial&q=huangnihe
511,heihe,CN,50.271099260469335,126.747603117008,China,http://api.openweathermap.org/data/2.5/weather?appid=fe26e61e3773caebdade519f9d254704&units=imperial&q=heihe
512,jieshi,CN,20.028308038189195,116.47159526981541,China,http://api.openweathermap.org/data/2.5/weather?appid=fe26e61e3773caebdade519f9d254704&units=imperial&q=jieshi
513,ankang,CN,32.2518529559446,108.36553469821725,China,http://api.openweathermap.org/data/2.5/weather?appid=fe26e61e3773caebdade519f9d254704&units=imperial&q=ankang
514,jiaonan,CN,35.90623639459889,120.07572797720042,China,http://api.openweathermap.org/data/2.5/weather?appid=fe26e61e3773caebdade519f9d254704&units=imperial&q=jiaonan
515,qujing,CN,25.767845665566373,103.49031277243415,China,http://api.openweathermap.org/data/2.5/weather?appid=fe26e61e3773caebdade519f9d254704&units=imperial&q=qujing
516,chifeng,CN,44.661978368100826,118.34193265249128,China,http://api.openweathermap.org/data/2.5/weather?appid=fe26e61e3773caebdade519f9d254704&units=imperial&q=chifeng
517,wanning,CN,18.08030932651306,113.03817131611677,China,http://api.openweathermap.org/data/2.5/weather?appid=fe26e61e3773caebdade519f9d254704&units=imperial&q=wanning
518,wuwei,CN,38.084344191307366,103.2218743896707,China,http://api.openweathermap.org/data/2.5/weather?appid=fe26e61e3773caebdade519f9d254704&units=imperial&q=wuwei
519,helong,CN,42.14690415020334,129.23226216888798,China,http://api.openweathermap.org/data/2.5/weather?appid=fe26e61e3773caebdade519f9d254704&units=imperial&q=helong
520,changping,CN,41.68981819048369,116.26912597757904,China,http://api.openweathermap.org/data/2.5/weather?appid=fe26e61e3773caebdade519f9d254704&units=imperial&q=changping
521,zunyi,CN,27.719298747044235,107.98589075842277,China,http://api.openweathermap.org/data/2.5/weather?appid=fe26e61e3773caebdade519f9d254704&units=imperial&q=zunyi
522,alihe,CN,50.79697424029439,123.81782950146606,China,http://api.openweathermap.org/data/2.5/weather?appid=fe26e61e3773caebdade519f9d254704&units=imperial&q=alihe
523,nanning,CN,22.336699736289898,107.94367932501551,China,http://api.openweathermap.org/data/2.5/weather?appid=fe26e61e3773caebdade519f9d254704&units=imperial&q=nanning
524,dali,CN,27.954419045118257,98.92658581869335,China,http://api.openweathermap.org/data/2.5/weather?appid=fe26e61e3773caebdade519f9d254704&units=imperial&q=dali
525,yongchang,CN,29.761198675487318,105.75118198328042,China,http://api.openweathermap.org/data/2.5/weather?appid=fe26e61e3773caebdade519f9d254704&units=imperial&q=yongchang
526,kavieng,PG,4.81150096070472,150.92402633456268,Papua New Guinea,http://api.openweathermap.org/data/2.5/weather?appid=fe26e61e3773caebdade519f9d254704&units=imperial&q=kavieng
527,samarai,PG,-12.492596873223604,151.83308357189134,Papua New Guinea,http://api.openweathermap.org/data/2.5/weather?appid=fe26e61e3773caebdade519f9d254704&units=imperial&q=samarai
528,laiagam,PG,-5.294319189906388,143.62308984670364,Papua New Guinea,http://api.openweathermap.org/data/2.5/weather?appid=fe26e61e3773caebdade519f9d254704&units=imperial&q=laiagam
529,port moresby,PG,-12.752932771498651,147.60793066667622,Papua New Guinea,http://api.openweathermap.org/data/2.5/weather?appid=fe26e61e3773caebdade519f9d254704&units=imperial&q=port moresby
530,kieta,PG,-1.644146507884841,158.0389778863485,Papua New Guinea,http://api.openweathermap.org/data/2.5/weather?appid=fe26e61e3773caebdade519f9d254704&units=imperial&q=kieta
531,buin,PG,-8.637369908867,153.7484956224229,Papua New Guinea,http://api.openweathermap.org/data/2.5/weather?appid=fe26e61e3773caebdade519f9d254704&units=imperial&q=buin
532,namatanai,PG,-3.1726000601325666,152.70182968314919,Papua New Guinea,http://api.openweathermap.org/data/2.5/weather?appid=fe26e61e3773caebdade519f9d254704&units=imperial&q=namatanai
533,lorengau,PG,0.4779136958538288,146.769695909066,Papua New Guinea,http://api.openweathermap.org/data/2.5/weather?appid=fe26e61e3773caebdade519f9d254704&units=imperial&q=lorengau
534,mendi,PG,-5.9370647742162825,143.86672396044457,Papua New Guinea,http://api.openweathermap.org/data/2.5/weather?appid=fe26e61e3773caebdade519f9d254704&units=imperial&q=mendi
535,saint-francois,GP,17.961227952648656,-58.68169489577302,Guadeloupe,http://api.openweathermap.org/data/2.5/weather?appid=fe26e61e3773caebdade519f9d254704&units=imperial&q=saint-francois
536,grand-bourg,GP,15.881513475670204,-61.37475165989952,Guadeloupe,http://api.openweathermap.org/data/2.5/weather?appid=fe26e61e3773caebdade519f9d254704&units=imperial&q=grand-bourg
537,the valley,AI,22.84721850516277,-62.899049378961756,Anguilla,http://api.openweathermap.org/data/2.5/weather?appid=fe26e61e3773caebdade519f9d254704&units=imperial&q=the valley
538,lere,NG,10.078868867150703,8.589183449555094,Nigeria,http://api.openweathermap.org/data/2.5/weather?appid=fe26e61e3773caebdade519f9d254704&units=imperial&q=lere
539,salalah,OM,11.008633494264815,59.73541574706572,Oman,http://api.openweathermap.org/data/2.5/weather?appid=fe26e61e3773caebdade519f9d254704&units=imperial&q=salalah
540,avarua,CK,-35.91118550677357,-161.6878030541897,Cook Islands,http://api.openweathermap.org/data/2.5/weather?appid=fe26e61e3773caebdade519f9d254704&units=imperial&q=avarua
541,alofi,NU,-16.122033628278785,-166.24273611758954,Niue,http://api.openweathermap.org/data/2.5/weather?appid=fe26e61e3773caebdade519f9d254704&units=imperial&q=alofi
542,guayaramerin,BO,-9.957585855466961,-65.71097135152924,"Bolivia, Plurinational State of",http://api.openweathermap.org/data/2.5/weather?appid=fe26e61e3773caebdade519f9d254704&units=imperial&q=guayaramerin
543,san pedro,BO,-17.317117995042448,-59.23893425123793,"Bolivia, Plurinational State of",http://api.openweathermap.org/data/2.5/weather?appid=fe26e61e3773caebdade519f9d254704&units=imperial&q=san pedro
544,poum,NC,-20.781583702706314,159.61411255719412,New Caledonia,http://api.openweathermap.org/data/2.5/weather?appid=fe26e61e3773caebdade519f9d254704&units=imperial&q=poum
545,airai,PW,16.836428656358823,144.22982126992628,Palau,http://api.openweathermap.org/data/2.5/weather?appid=fe26e61e3773caebdade519f9d254704&units=imperial&q=airai
546,kloulklubed,PW,3.895064684960488,132.44046923940152,Palau,http://api.openweathermap.org/data/2.5/weather?appid=fe26e61e3773caebdade519f9d254704&units=imperial&q=kloulklubed
547,victoria,SC,-4.738498261538837,58.85533478217087,Seychelles,http://api.openweathermap.org/data/2.5/weather?appid=fe26e61e3773caebdade519f9d254704&units=imperial&q=victoria
548,waddan,LY,29.566677280064496,16.438733524200106,Libya,http://api.openweathermap.org/data/2.5/weather?appid=fe26e61e3773caebdade519f9d254704&units=imperial&q=waddan
549,tukrah,LY,34.36254703059073,19.017164819547133,Libya,http://api.openweathermap.org/data/2.5/weather?appid=fe26e61e3773caebdade519f9d254704&units=imperial&q=tukrah
550,tripoli,LY,32.681311416300005,13.16560622004792,Libya,http://api.openweathermap.org/data/2.5/weather?appid=fe26e61e3773caebdade519f9d254704&units=imperial&q=tripoli
551,karakendzha,TJ,38.55941041864384,71.96757443984536,Tajikistan,http://api.openweathermap.org/data/2.5/weather?appid=fe26e61e3773caebdade519f9d254704&units=imperial&q=karakendzha
552,shaartuz,TJ,37.35216230707503,68.02845958467853,Tajikistan,http://api.openweathermap.org/data/2.5/weather?appid=fe26e61e3773caebdade519f9d254704&units=imperial&q=shaartuz
553,coulihaut,DM,15.216310075201804,-61.867478755520935,Dominica,http://api.openweathermap.org/data/2.5/weather?appid=fe26e61e3773caebdade519f9d254704&units=imperial&q=coulihaut
554,letlhakane,BW,-21.07446435987265,25.67626694210821,Botswana,http://api.openweathermap.org/data/2.5/weather?appid=fe26e61e3773caebdade519f9d254704&units=imperial&q=letlhakane
555,inhambane,MZ,-26.922037347957765,36.648388050624106,Mozambique,http://api.openweathermap.org/data/2.5/weather?appid=fe26e61e3773caebdade519f9d254704&units=imperial&q=inhambane
556,cuamba,MZ,-13.87691600687748,36.36614360009693,Mozambique,http://api.openweathermap.org/data/2.5/weather?appid=fe26e61e3773caebdade519f9d254704&units=imperial&q=cuamba
557,beira,MZ,-21.348479959232264,33.953784913335085,Mozambique,http://api.openweathermap.org/data/2.5/weather?appid=fe26e61e3773caebdade519f9d254704&units=imperial&q=beira
558,nacala,MZ,-14.326186644406805,41.21877915277278,Mozambique,http://api.openweathermap.org/data/2.5/weather?appid=fe26e61e3773caebdade519f9d254704&units=imperial&q=nacala
559,yabrud,SY,33.49828677971587,37.34632693072706,Syrian Arab Republic,http://api.openweathermap.org/data/2.5/weather?appid=fe26e61e3773caebdade519f9d254704&units=imperial&q=yabrud
560,cockburn town,BS,23.73569816954506,-74.55014319480595,Bahamas,http://api.openweathermap.org/data/2.5/weather?appid=fe26e61e3773caebdade519f9d254704&units=imperial&q=cockburn town
561,vieksniai,LT,56.1505405916184,22.372312814658017,Lithuania,http://api.openweathermap.org/data/2.5/weather?appid=fe26e61e3773caebdade519f9d254704&units=imperial&q=vieksniai
562,bathsheba,BB,20.359778669027605,-48.81780929742962,Barbados,http://api.openweathermap.org/data/2.5/weather?appid=fe26e61e3773caebdade519f9d254704&units=imperial&q=bathsheba
563,swetes,AG,17.058210474261557,-61.82404162116602,Antigua and Barbuda,http://api.openweathermap.org/data/2.5/weather?appid=fe26e61e3773caebdade519f9d254704&units=imperial&q=swetes
564,codrington,AG,23.172750175904678,-46.76356601672902,Antigua and Barbuda,http://api.openweathermap.org/data/2.5/weather?appid=fe26e61e3773caebdade519f9d254704&units=imperial&q=codrington
565,saint-pierre,PM,43.86301947854296,-55.21941657100413,Saint Pierre and Miquelon,http://api.openweathermap.org/data/2.5/weather?appid=fe26e61e3773caebdade519f9d254704&units=imperial&q=saint-pierre
566,tabas,IR,34.19445405312355,58.29044970051379,"Iran, Islamic Republic of",http://api.openweathermap.org/data/2.5/weather?appid=fe26e61e3773caebdade519f9d254704&units=imperial&q=tabas
567,hendijan,IR,29.62784212724509,50.222110516942166,"Iran, Islamic Republic of",http://api.openweathermap.org/data/2.5/weather?appid=fe26e61e3773caebdade519f9d254704&units=imperial&q=hendijan
568,garmsar,IR,35.00778691831188,52.171191838140345,"Iran, Islamic Republic of",http://api.openweathermap.org/data/2.5/weather?appid=fe26e61e3773caebdade519f9d254704&units=imperial&q=garmsar
569,damavand,IR,35.66843301319581,52.416489225899745,"Iran, Islamic Republic of",http://api.openweathermap.org/data/2.5/weather?appid=fe26e61e3773caebdade519f9d254704&units=imperial&q=damavand
570,semnan,IR,35.411336601491186,53.616291450898274,"Iran, Islamic Republic of",http://api.openweathermap.org/data/2.5/weather?appid=fe26e61e3773caebdade519f9d254704&units=imperial&q=semnan
571,hambantota,LK,3.468586011994347,82.29664698030888,Sri Lanka,http://api.openweathermap.org/data/2.5/weather?appid=fe26e61e3773caebdade519f9d254704&units=imperial&q=hambantota
572,naron,ES,46.74161119051765,-9.482848392853924,Spain,http://api.openweathermap.org/data/2.5/weather?appid=fe26e61e3773caebdade519f9d254704&units=imperial&q=naron
573,santa cruz de la palma,ES,30.404559161877344,-17.021652077737514,Spain,http://api.openweathermap.org/data/2.5/weather?appid=fe26e61e3773caebdade519f9d254704&units=imperial&q=santa cruz de la palma
574,tarudant,MA,27.897280359281808,-6.388962150602139,Morocco,http://api.openweathermap.org/data/2.5/weather?appid=fe26e61e3773caebdade519f9d254704&units=imperial&q=tarudant
575,agadir,MA,31.35495302501292,-11.480538678070413,Morocco,http://api.openweathermap.org/data/2.5/weather?appid=fe26e61e3773caebdade519f9d254704&units=imperial&q=agadir
576,fez,MA,33.70560647454421,-5.301104731640947,Morocco,http://api.openweathermap.org/data/2.5/weather?appid=fe26e61e3773caebdade519f9d254704&units=imperial&q=fez
577,neon karlovasion,GR,37.814649247861645,26.655512975365273,Greece,http://api.openweathermap.org/data/2.5/weather?appid=fe26e61e3773caebdade519f9d254704&units=imperial&q=neon karlovasion
578,liepaja,LV,57.09383642634529,20.1142579654632,Latvia,http://api.openweathermap.org/data/2.5/weather?appid=fe26e61e3773caebdade519f9d254704&units=imperial&q=liepaja
579,medzev,SK,48.734814882099336,20.848345950626108,Slovakia,http://api.openweathermap.org/data/2.5/weather?appid=fe26e61e3773caebdade519f9d254704&units=imperial&q=medzev
580,biltine,TD,15.916886802055586,20.83815783100761,Chad,http://api.openweathermap.org/data/2.5/weather?appid=fe26e61e3773caebdade519f9d254704&units=imperial&q=biltine
581,moussoro,TD,14.265489384338238,16.452693357996456,Chad,http://api.openweathermap.org/data/2.5/weather?appid=fe26e61e3773caebdade519f9d254704&units=imperial&q=moussoro
582,sayyan,YE,15.983916908360017,46.02977659588055,Yemen,http://api.openweathermap.org/data/2.5/weather?appid=fe26e61e3773caebdade519f9d254704&units=imperial&q=sayyan
583,taloqan,AF,36.736942200132475,69.69346375966688,Afghanistan,http://api.openweathermap.org/data/2.5/weather?appid=fe26e61e3773caebdade519f9d254704&units=imperial&q=taloqan
584,herat,AF,35.4843318335754,62.34019865819965,Afghanistan,http://api.openweathermap.org/data/2.5/weather?appid=fe26e61e3773caebdade519f9d254704&units=imperial&q=herat
585,sitrah,BH,25.845915471196122,50.7557641190725,Bahrain,http://api.openweathermap.org/data/2.5/weather?appid=fe26e61e3773caebdade519f9d254704&units=imperial&q=sitrah
586,ystad,SE,55.33400985853771,14.018899191461516,Sweden,http://api.openweathermap.org/data/2.5/weather?appid=fe26e61e3773caebdade519f9d254704&units=imperial&q=ystad
587,pinar del rio,CU,22.71658432662718,-83.8101678439226,Cuba,http://api.openweathermap.org/data/2.5/weather?appid=fe26e61e3773caebdade519f9d254704&units=imperial&q=pinar del rio
588,mantua,CU,23.38919922274837,-84.48292107036005,Cuba,http://api.openweathermap.org/data/2.5/weather?appid=fe26e61e3773caebdade519f9d254704&units=imperial&q=mantua
589,ilembo,TZ,-9.312789842710316,33.43559829940858,"Tanzania, United Republic of",http://api.openweathermap.org/data/2.5/weather?appid=fe26e61e3773caebdade519f9d254704&units=imperial&q=ilembo
590,nanyamba,TZ,-11.54396387852532,40.430334169756776,"Tanzania, United Republic of",http://api.openweathermap.org/data/2.5/weather?appid=fe26e61e3773caebdade519f9d254704&units=imperial&q=nanyamba
591,sokoni,TZ,-6.5556578894089625,43.39392864810858,"Tanzania, United Republic of",http://api.openweathermap.org/data/2.5/weather?appid=fe26e61e3773caebdade519f9d254704&units=imperial&q=sokoni
592,tahoua,NE,15.359093212031908,5.549939651489922,Niger,http://api.openweathermap.org/data/2.5/weather?appid=fe26e61e3773caebdade519f9d254704&units=imperial&q=tahoua
593,abu samrah,QA,22.25146559576048,50.568406825825654,Qatar,http://api.openweathermap.org/data/2.5/weather?appid=fe26e61e3773caebdade519f9d254704&units=imperial&q=abu samrah
594,riyadh,SA,23.94906413983766,46.47510393867885,Saudi Arabia,http://api.openweathermap.org/data/2.5/weather?appid=fe26e61e3773caebdade519f9d254704&units=imperial&q=riyadh
595,mecca,SA,23.983348470983213,40.43977592873215,Saudi Arabia,http://api.openweathermap.org/data/2.5/weather?appid=fe26e61e3773caebdade519f9d254704&units=imperial&q=mecca
596,klaksvik,FO,70.96408588369994,-0.6004212375419513,Faroe Islands,http://api.openweathermap.org/data/2.5/weather?appid=fe26e61e3773caebdade519f9d254704&units=imperial&q=klaksvik
597,vestmanna,FO,64.72832601662111,-8.369535118137946,Faroe Islands,http://api.openweathermap.org/data/2.5/weather?appid=fe26e61e3773caebdade519f9d254704&units=imperial&q=vestmanna
598,ban nahin,LA,18.493838696488357,104.22402415797121,Lao People's Democratic Republic,http://api.openweathermap.org/data/2.5/weather?appid=fe26e61e3773caebdade519f9d254704&units=imperial&q=ban nahin
599,kaka,TM,38.53314274776434,60.662259018653536,Turkmenistan,http://api.openweathermap.org/data/2.5/weather?appid=fe26e61e3773caebdade519f9d254704&units=imperial&q=kaka
600,tonj,SD,7.124733375320574,29.065115296956662,Sudan,http://api.openweathermap.org/data/2.5/weather?appid=fe26e61e3773caebdade519f9d254704&units=imperial&q=tonj
601,umm kaddadah,SD,17.306643520182206,27.558815176085893,Sudan,http://api.openweathermap.org/data/2.5/weather?appid=fe26e61e3773caebdade519f9d254704&units=imperial&q=umm kaddadah
602,barbar,SD,20.35993060909047,33.40590639462829,Sudan,http://api.openweathermap.org/data/2.5/weather?appid=fe26e61e3773caebdade519f9d254704&units=imperial&q=barbar
603,teknaf,BD,20.522166441244334,90.93467736139138,Bangladesh,http://api.openweathermap.org/data/2.5/weather?appid=fe26e61e3773caebdade519f9d254704&units=imperial&q=teknaf
604,patiya,BD,22.0511026436248,91.82087641800041,Bangladesh,http://api.openweathermap.org/data/2.5/weather?appid=fe26e61e3773caebdade519f9d254704&units=imperial&q=patiya
605,ko samui,TH,9.372280828767972,100.07846024999823,Thailand,http://api.openweathermap.org/data/2.5/weather?appid=fe26e61e3773caebdade519f9d254704&units=imperial&q=ko samui
606,sakhon nakhon,TH,17.261345529601115,104.18825219516786,Thailand,http://api.openweathermap.org/data/2.5/weather?appid=fe26e61e3773caebdade519f9d254704&units=imperial&q=sakhon nakhon
607,san jose de guanipa,VE,9.194885995992694,-63.66551294392974,"Venezuela, Bolivarian Republic of",http://api.openweathermap.org/data/2.5/weather?appid=fe26e61e3773caebdade519f9d254704&units=imperial&q=san jose de guanipa
608,maracaibo,VE,10.879344799361546,-72.01970919732442,"Venezuela, Bolivarian Republic of",http://api.openweathermap.org/data/2.5/weather?appid=fe26e61e3773caebdade519f9d254704&units=imperial&q=maracaibo
609,eregli,TR,37.40831675276196,33.9911262462781,Turkey,http://api.openweathermap.org/data/2.5/weather?appid=fe26e61e3773caebdade519f9d254704&units=imperial&q=eregli
610,mabaruma,GY,8.143645691231571,-58.738782241238404,Guyana,http://api.openweathermap.org/data/2.5/weather?appid=fe26e61e3773caebdade519f9d254704&units=imperial&q=mabaruma
611,champerico,GT,9.205538510155662,-93.84683712389636,Guatemala,http://api.openweathermap.org/data/2.5/weather?appid=fe26e61e3773caebdade519f9d254704&units=imperial&q=champerico
612,bluefields,NI,11.296532610312298,-83.61046119895602,Nicaragua,http://api.openweathermap.org/data/2.5/weather?appid=fe26e61e3773caebdade519f9d254704&units=imperial&q=bluefields
613,saint-philippe,RE,-61.992541878580845,76.14183504597537,Runion,http://api.openweathermap.org/data/2.5/weather?appid=fe26e61e3773caebdade519f9d254704&units=imperial&q=saint-philippe
614,vaitupu,WF,-0.525039920000367,-179.89132461575753,Wallis and Futuna,http://api.openweathermap.org/data/2.5/weather?appid=fe26e61e3773caebdade519f9d254704&units=imperial&q=vaitupu
615,inongo,CD,-2.41366620676034,18.804436138878454,"Congo, the Democratic Republic of the",http://api.openweathermap.org/data/2.5/weather?appid=fe26e61e3773caebdade519f9d254704&units=imperial&q=inongo
616,wamba,CD,1.7180120243266117,27.56531280045905,"Congo, the Democratic Republic of the",http://api.openweathermap.org/data/2.5/weather?appid=fe26e61e3773caebdade519f9d254704&units=imperial&q=wamba
617,quimper,FR,47.517627421823185,-4.34552202440247,France,http://api.openweathermap.org/data/2.5/weather?appid=fe26e61e3773caebdade519f9d254704&units=imperial&q=quimper
618,la fleche,FR,47.567854894246075,0.2193458011208236,France,http://api.openweathermap.org/data/2.5/weather?appid=fe26e61e3773caebdade519f9d254704&units=imperial&q=la fleche
619,owando,CG,-1.0776811406287408,17.17042133051308,Congo,http://api.openweathermap.org/data/2.5/weather?appid=fe26e61e3773caebdade519f9d254704&units=imperial&q=owando
620,dingle,IE,47.32542193934353,-19.001013568658323,Ireland,http://api.openweathermap.org/data/2.5/weather?appid=fe26e61e3773caebdade519f9d254704&units=imperial&q=dingle
621,westport,IE,54.063699740666074,-11.596890848520673,Ireland,http://api.openweathermap.org/data/2.5/weather?appid=fe26e61e3773caebdade519f9d254704&units=imperial&q=westport
622,alor setar,MY,5.9919950054585485,100.46756472768759,Malaysia,http://api.openweathermap.org/data/2.5/weather?appid=fe26e61e3773caebdade519f9d254704&units=imperial&q=alor setar
623,sfantu gheorghe,RO,44.08554522714758,31.39676465576707,Romania,http://api.openweathermap.org/data/2.5/weather?appid=fe26e61e3773caebdade519f9d254704&units=imperial&q=sfantu gheorghe
624,lucea,JM,17.24205516676591,-79.4955954695619,Jamaica,http://api.openweathermap.org/data/2.5/weather?appid=fe26e61e3773caebdade519f9d254704&units=imperial&q=lucea
625,seoul,KR,36.89588166092163,126.62975620123194,"Korea, Republic of",http://api.openweathermap.org/data/2.5/weather?appid=fe26e61e3773caebdade519f9d254704&units=imperial&q=seoul
626,kisumu,KE,-0.14072510372955094,34.69404721469777,Kenya,http://api.openweathermap.org/data/2.5/weather?appid=fe26e61e3773caebdade519f9d254704&units=imperial&q=kisumu
627,mitsamiouli,KM,-8.956623286587726,43.29222688440507,Comoros,http://api.openweathermap.org/data/2.5/weather?appid=fe26e61e3773caebdade519f9d254704&units=imperial&q=mitsamiouli
628,dowa,MW,-13.786003724841509,34.01750636148043,Malawi,http://api.openweathermap.org/data/2.5/weather?appid=fe26e61e3773caebdade519f9d254704&units=imperial&q=dowa
629,nicoya,CR,8.230111739240215,-86.59824380507763,Costa Rica,http://api.openweathermap.org/data/2.5/weather?appid=fe26e61e3773caebdade519f9d254704&units=imperial&q=nicoya
630,bedesa,ET,8.09680276536912,41.380502937309025,Ethiopia,http://api.openweathermap.org/data/2.5/weather?appid=fe26e61e3773caebdade519f9d254704&units=imperial&q=bedesa
631,manzil tamim,TN,36.831706246490405,11.202679237376204,Tunisia,http://api.openweathermap.org/data/2.5/weather?appid=fe26e61e3773caebdade519f9d254704&units=imperial&q=manzil tamim
